country,state,zipcode,tax_region_name,RiskLevel,state_rate,county_rate,city_rate,special_rate,combined_rate,medicinal_excise,adult_excise,has_medical_excise
US,AK,99501,ANCHORAGE BOROUGH,1,0,0,0,0,0,0,0,FALSE
US,AK,99502,ANCHORAGE BOROUGH,1,0,0,0,0,0,0,0,FALSE
US,AK,99503,ANCHORAGE BOROUGH,1,0,0,0,0,0,0,0,FALSE
US,AK,99504,ANCHORAGE BOROUGH,1,0,0,0,0,0,0,0,FALSE
US,AK,99505,ANCHORAGE BOROUGH,1,0,0,0,0,0,0,0,FALSE
US,AK,99506,ANCHORAGE BOROUGH,1,0,0,0,0,0,0,0,FALSE
US,AK,99507,ANCHORAGE BOROUGH,1,0,0,0,0,0,0,0,FALSE
US,AK,99508,ANCHORAGE BOROUGH,1,0,0,0,0,0,0,0,FALSE
US,AK,99509,ANCHORAGE BOROUGH,1,0,0,0,0,0,0,0,FALSE
US,AK,99510,KENAI PENINSULA BURROUGH,1,0,3,0,0,3,0,0,FALSE
US,AK,99511,ANCHORAGE BOROUGH,1,0,0,0,0,0,0,0,FALSE
US,AK,99513,ANCHORAGE BOROUGH,1,0,0,0,0,0,0,0,FALSE
US,AK,99514,ANCHORAGE BOROUGH,1,0,0,0,0,0,0,0,FALSE
US,AK,99515,ANCHORAGE BOROUGH,1,0,0,0,0,0,0,0,FALSE
US,AK,99516,ANCHORAGE BOROUGH,1,0,0,0,0,0,0,0,FALSE
US,AK,99517,ANCHORAGE BOROUGH,1,0,0,0,0,0,0,0,FALSE
US,AK,99518,ANCHORAGE BOROUGH,1,0,0,0,0,0,0,0,FALSE
US,AK,99519,ANCHORAGE BOROUGH,1,0,0,0,0,0,0,0,FALSE
US,AK,99520,ANCHORAGE BOROUGH,1,0,0,0,0,0,0,0,FALSE
US,AK,99521,ANCHORAGE BOROUGH,1,0,0,0,0,0,0,0,FALSE
US,AK,99522,ANCHORAGE BOROUGH,1,0,0,0,0,0,0,0,FALSE
US,AK,99523,ANCHORAGE BOROUGH,1,0,0,0,0,0,0,0,FALSE
US,AK,99524,ANCHORAGE BOROUGH,1,0,0,0,0,0,0,0,FALSE
US,AK,99529,ANCHORAGE BOROUGH,1,0,0,0,0,0,0,0,FALSE
US,AK,99530,ANCHORAGE BOROUGH,1,0,0,0,0,0,0,0,FALSE
US,AK,99540,ANCHORAGE BOROUGH,3,0,0,0,0,0,0,0,FALSE
US,AK,99545,ALASKA STATE,1,0,0,0,0,0,0,0,FALSE
US,AK,99548,LAKE AND PENINSULA BOROUGH,1,0,0,0,0,0,0,0,FALSE
US,AK,99550,KODIAK ISLAND BOROUGH,1,0,0,0,0,0,0,0,FALSE
US,AK,99551,ALASKA STATE,1,0,0,0,0,0,0,0,FALSE
US,AK,99552,ALASKA STATE,1,0,0,0,0,0,0,0,FALSE
US,AK,99553,ALEUTIANS EAST BOROUGH,1,0,0,0,0,0,0,0,FALSE
US,AK,99554,ALAKANUK,1,0,0,4,0,4,0,0,FALSE
US,AK,99555,ALEKNAGIK,1,0,0,5,0,5,0,0,FALSE
US,AK,99556,KENAI PENINSULA BURROUGH,2,0,3,0,0,3,0,0,FALSE
US,AK,99557,ANIAK,3,0,0,2,0,2,0,0,FALSE
US,AK,99558,ANVIK,1,0,0,0,0,0,0,0,FALSE
US,AK,99559,BETHEL,4,0,0,6,0,6,0,0,FALSE
US,AK,99561,ALASKA STATE,1,0,0,0,0,0,0,0,FALSE
US,AK,99563,ALASKA STATE,1,0,0,0,0,0,0,0,FALSE
US,AK,99564,LAKE AND PENINSULA BOROUGH,1,0,0,0,0,0,0,0,FALSE
US,AK,99565,KENAI PENINSULA BURROUGH,1,0,3,0,0,3,0,0,FALSE
US,AK,99566,ALASKA STATE,1,0,0,0,0,0,0,0,FALSE
US,AK,99567,ANCHORAGE BOROUGH,1,0,0,0,0,0,0,0,FALSE
US,AK,99568,KENAI PENINSULA BURROUGH,1,0,3,0,0,3,0,0,FALSE
US,AK,99569,MANOKOTAK,1,0,0,2,0,2,0,0,FALSE
US,AK,99571,ALEUTIANS EAST BOROUGH,1,0,0,0,0,0,0,0,FALSE
US,AK,99572,KENAI PENINSULA BURROUGH,1,0,3,0,0,3,0,0,FALSE
US,AK,99573,ALASKA STATE,1,0,0,0,0,0,0,0,FALSE
US,AK,99574,CORDOVA,2,0,0,6,0,6,0,0,FALSE
US,AK,99575,ALASKA STATE,1,0,0,0,0,0,0,0,FALSE
US,AK,99576,DILLINGHAM,3,0,0,6,0,6,0,0,FALSE
US,AK,99577,ANCHORAGE BOROUGH,1,0,0,0,0,0,0,0,FALSE
US,AK,99578,ALASKA STATE,1,0,0,0,0,0,0,0,FALSE
US,AK,99579,EGEGIK,1,0,0,0,0,0,0,0,FALSE
US,AK,99580,LAKE AND PENINSULA BOROUGH,1,0,0,0,0,0,0,0,FALSE
US,AK,99581,EMMONAK,1,0,0,4,0,4,0,0,FALSE
US,AK,99583,FALSE PASS,1,0,0,3,0,3,0,0,FALSE
US,AK,99585,MARSHALL,1,0,0,4,0,4,0,0,FALSE
US,AK,99586,ALASKA STATE,4,0,0,0,0,0,0,0,FALSE
US,AK,99587,ANCHORAGE BOROUGH,2,0,0,0,0,0,0,0,FALSE
US,AK,99588,ALASKA STATE,1,0,0,0,0,0,0,0,FALSE
US,AK,99589,GOODNEWS BAY,1,0,0,0,0,0,0,0,FALSE
US,AK,99590,GRAYLING,1,0,0,0,0,0,0,0,FALSE
US,AK,99599,ANCHORAGE BOROUGH,1,0,0,0,0,0,0,0,FALSE
US,AK,99602,HOLY CROSS,1,0,0,0,0,0,0,0,FALSE
US,AK,99603,HOMER,7,0,3,4.85,0,7.85,0,0,FALSE
US,AK,99604,ALASKA STATE,1,0,0,0,0,0,0,0,FALSE
US,AK,99605,KENAI PENINSULA BURROUGH,1,0,3,0,0,3,0,0,FALSE
US,AK,99606,LAKE AND PENINSULA BOROUGH,1,0,0,0,0,0,0,0,FALSE
US,AK,99607,UPPER KALSKAG,1,0,0,0,0,0,0,0,FALSE
US,AK,99608,KODIAK ISLAND BOROUGH,1,0,0,0,0,0,0,0,FALSE
US,AK,99609,ALASKA STATE,1,0,0,0,0,0,0,0,FALSE
US,AK,99610,KENAI PENINSULA BURROUGH,1,0,3,0,0,3,0,0,FALSE
US,AK,99611,KENAI,2,0,3,3,0,6,0,0,FALSE
US,AK,99612,KING COVE,1,0,0,6,0,6,0,0,FALSE
US,AK,99613,LAKE AND PENINSULA BOROUGH,2,0,0,0,0,0,0,0,FALSE
US,AK,99614,ALASKA STATE,1,0,0,0,0,0,0,0,FALSE
US,AK,99615,KODIAK,3,0,0,7,0,7,0,0,FALSE
US,AK,99620,ALASKA STATE,1,0,0,0,0,0,0,0,FALSE
US,AK,99621,KWETHLUK,1,0,0,5,0,5,0,0,FALSE
US,AK,99622,ALASKA STATE,1,0,0,0,0,0,0,0,FALSE
US,AK,99623,MATANUSKA-SUSITNA BOROUGH,1,0,0,0,0,0,0,0,FALSE
US,AK,99624,LARSEN BAY,1,0,0,3,0,3,0,0,FALSE
US,AK,99625,LAKE AND PENINSULA BOROUGH,1,0,0,0,0,0,0,0,FALSE
US,AK,99626,LOWER KALSKAG,1,0,0,0,0,0,0,0,FALSE
US,AK,99627,ALASKA STATE,1,0,0,0,0,0,0,0,FALSE
US,AK,99628,MANOKOTAK,1,0,0,2,0,2,0,0,FALSE
US,AK,99630,ALASKA STATE,1,0,0,0,0,0,0,0,FALSE
US,AK,99631,KENAI PENINSULA BURROUGH,1,0,3,0,0,3,0,0,FALSE
US,AK,99632,MOUNTAIN VILLAGE,1,0,0,3,0,3,0,0,FALSE
US,AK,99633,BRISTOL BAY BOROUGH,1,0,0,0,0,0,0,0,FALSE
US,AK,99634,NAPAKIAK,1,0,0,5,0,5,0,0,FALSE
US,AK,99635,KENAI,2,0,3,3,0,6,0,0,FALSE
US,AK,99636,NEW STUYAHOK,1,0,0,0,0,0,0,0,FALSE
US,AK,99637,ALASKA STATE,2,0,0,0,0,0,0,0,FALSE
US,AK,99638,ALASKA STATE,1,0,0,0,0,0,0,0,FALSE
US,AK,99639,KENAI PENINSULA BURROUGH,1,0,3,0,0,3,0,0,FALSE
US,AK,99640,LAKE AND PENINSULA BOROUGH,1,0,0,0,0,0,0,0,FALSE
US,AK,99641,ALASKA STATE,1,0,0,0,0,0,0,0,FALSE
US,AK,99643,OLD HARBOR,1,0,0,3,0,3,0,0,FALSE
US,AK,99644,OUZINKIE,1,0,0,3,0,3,0,0,FALSE
US,AK,99645,MATANUSKA-SUSITNA BOROUGH,1,0,0,0,0,0,0,0,FALSE
US,AK,99647,LAKE AND PENINSULA BOROUGH,1,0,0,0,0,0,0,0,FALSE
US,AK,99648,LAKE AND PENINSULA BOROUGH,1,0,0,0,0,0,0,0,FALSE
US,AK,99649,PILOT POINT,1,0,0,0,0,0,0,0,FALSE
US,AK,99650,PILOT STATION,1,0,0,4,0,4,0,0,FALSE
US,AK,99651,ALASKA STATE,1,0,0,0,0,0,0,0,FALSE
US,AK,99652,MATANUSKA-SUSITNA BOROUGH,2,0,0,0,0,0,0,0,FALSE
US,AK,99653,LAKE AND PENINSULA BOROUGH,1,0,0,0,0,0,0,0,FALSE
US,AK,99654,MATANUSKA-SUSITNA BOROUGH,1,0,0,0,0,0,0,0,FALSE
US,AK,99655,QUINHAGAK,1,0,0,3,0,3,0,0,FALSE
US,AK,99656,ALASKA STATE,1,0,0,0,0,0,0,0,FALSE
US,AK,99657,ALASKA STATE,1,0,0,0,0,0,0,0,FALSE
US,AK,99658,ST. MARY'S,1,0,0,3,0,3,0,0,FALSE
US,AK,99659,GRAYLING,2,0,0,0,0,0,0,0,FALSE
US,AK,99660,SAINT PAUL,4,0,0,3.5,0,3.5,0,0,FALSE
US,AK,99661,ALEUTIANS EAST BOROUGH,1,0,0,0,0,0,0,0,FALSE
US,AK,99662,ALASKA STATE,1,0,0,0,0,0,0,0,FALSE
US,AK,99663,SELDOVIA,1,0,3,2,0,5,0,0,FALSE
US,AK,99664,KENAI PENINSULA BURROUGH,1,0,3,0,0,3,0,0,FALSE
US,AK,99665,SHAGELUK,1,0,0,0,0,0,0,0,FALSE
US,AK,99667,MATANUSKA-SUSITNA BOROUGH,1,0,0,0,0,0,0,0,FALSE
US,AK,99668,ALASKA STATE,1,0,0,0,0,0,0,0,FALSE
US,AK,99669,SOLDOTNA,1,0,3,3,0,6,0,0,FALSE
US,AK,99670,BRISTOL BAY BOROUGH,1,0,0,0,0,0,0,0,FALSE
US,AK,99671,STEBBINS,1,0,0,4,0,4,0,0,FALSE
US,AK,99672,KENAI PENINSULA BURROUGH,1,0,3,0,0,3,0,0,FALSE
US,AK,99674,MATANUSKA-SUSITNA BOROUGH,2,0,0,0,0,0,0,0,FALSE
US,AK,99675,ALASKA STATE,1,0,0,0,0,0,0,0,FALSE
US,AK,99676,MATANUSKA-SUSITNA BOROUGH,1,0,0,0,0,0,0,0,FALSE
US,AK,99677,ALASKA STATE,2,0,0,0,0,0,0,0,FALSE
US,AK,99678,ALASKA STATE,1,0,0,0,0,0,0,0,FALSE
US,AK,99679,BETHEL,2,0,0,6,0,6,0,0,FALSE
US,AK,99680,ALASKA STATE,2,0,0,0,0,0,0,0,FALSE
US,AK,99681,ALASKA STATE,1,0,0,0,0,0,0,0,FALSE
US,AK,99682,KENAI PENINSULA BURROUGH,1,0,3,0,0,3,0,0,FALSE
US,AK,99683,MATANUSKA-SUSITNA BOROUGH,2,0,0,0,0,0,0,0,FALSE
US,AK,99684,UNALAKLEET,1,0,0,5,0,5,0,0,FALSE
US,AK,99685,UNALASKA,1,0,0,3,0,3,0,0,FALSE
US,AK,99686,ALASKA STATE,1,0,0,0,0,0,0,0,FALSE
US,AK,99687,MATANUSKA-SUSITNA BOROUGH,1,0,0,0,0,0,0,0,FALSE
US,AK,99688,MATANUSKA-SUSITNA BOROUGH,1,0,0,0,0,0,0,0,FALSE
US,AK,99689,YAKUTAT,1,0,0,5,0,5,0,0,FALSE
US,AK,99691,NIKOLAI,1,0,0,0,0,0,0,0,FALSE
US,AK,99692,UNALASKA,2,0,0,3,0,3,0,0,FALSE
US,AK,99693,ANCHORAGE BOROUGH,3,0,0,0,0,0,0,0,FALSE
US,AK,99694,HOUSTON,1,0,0,2,0,2,0,0,FALSE
US,AK,99701,FAIRBANKS,1,0,0,0,0,0,0,0,FALSE
US,AK,99702,FAIRBANKS NORTH STAR BOROUGH,1,0,0,0,0,0,0,0,FALSE
US,AK,99703,FORT WAINWRIGHT,1,0,0,0,0,0,0,0,FALSE
US,AK,99704,CLEAR AIR FORCE BASE,2,0,0,6,0,6,0,0,FALSE
US,AK,99705,FAIRBANKS NORTH STAR BOROUGH,2,0,0,0,0,0,0,0,FALSE
US,AK,99706,FAIRBANKS,1,0,0,0,0,0,0,0,FALSE
US,AK,99707,FAIRBANKS,1,0,0,0,0,0,0,0,FALSE
US,AK,99708,FAIRBANKS NORTH STAR BOROUGH,1,0,0,0,0,0,0,0,FALSE
US,AK,99709,FAIRBANKS NORTH STAR BOROUGH,1,0,0,0,0,0,0,0,FALSE
US,AK,99712,FAIRBANKS NORTH STAR BOROUGH,1,0,0,0,0,0,0,0,FALSE
US,AK,99714,FAIRBANKS NORTH STAR BOROUGH,2,0,0,0,0,0,0,0,FALSE
US,AK,99720,ALLAKAKET,1,0,0,0,0,0,0,0,FALSE
US,AK,99721,ANAKTUVUK PASS,1,0,0,0,0,0,0,0,FALSE
US,AK,99722,ALASKA STATE,1,0,0,0,0,0,0,0,FALSE
US,AK,99723,NORTH SLOPE BOROUGH,1,0,0,0,0,0,0,0,FALSE
US,AK,99724,ALASKA STATE,1,0,0,0,0,0,0,0,FALSE
US,AK,99725,FAIRBANKS NORTH STAR BOROUGH,1,0,0,0,0,0,0,0,FALSE
US,AK,99726,BETTLES,1,0,0,0,0,0,0,0,FALSE
US,AK,99727,NORTHWEST ARCTIC BOROUGH,1,0,0,0,0,0,0,0,FALSE
US,AK,99729,DENALI BOROUGH,1,0,0,0,0,0,0,0,FALSE
US,AK,99730,ALASKA STATE,1,0,0,0,0,0,0,0,FALSE
US,AK,99731,ALASKA STATE,1,0,0,0,0,0,0,0,FALSE
US,AK,99732,ALASKA STATE,1,0,0,0,0,0,0,0,FALSE
US,AK,99733,ALASKA STATE,1,0,0,0,0,0,0,0,FALSE
US,AK,99734,NORTH SLOPE BOROUGH,1,0,0,0,0,0,0,0,FALSE
US,AK,99736,NORTHWEST ARCTIC BOROUGH,1,0,0,0,0,0,0,0,FALSE
US,AK,99737,ALASKA STATE,2,0,0,0,0,0,0,0,FALSE
US,AK,99738,EAGLE,1,0,0,0,0,0,0,0,FALSE
US,AK,99739,ALASKA STATE,1,0,0,0,0,0,0,0,FALSE
US,AK,99740,FORT YUKON,1,0,0,3,0,3,0,0,FALSE
US,AK,99741,GALENA,1,0,0,3,0,3,0,0,FALSE
US,AK,99742,GAMBELL,1,0,0,3,0,3,0,0,FALSE
US,AK,99743,DENALI BOROUGH,1,0,0,0,0,0,0,0,FALSE
US,AK,99744,ANDERSON,2,0,0,6,0,6,0,0,FALSE
US,AK,99745,HUGHES,1,0,0,0,0,0,0,0,FALSE
US,AK,99746,HUSLIA,1,0,0,0,0,0,0,0,FALSE
US,AK,99747,KAKTOVIK,1,0,0,0,0,0,0,0,FALSE
US,AK,99748,KALTAG,1,0,0,0,0,0,0,0,FALSE
US,AK,99749,NORTHWEST ARCTIC BOROUGH,1,0,0,0,0,0,0,0,FALSE
US,AK,99750,NORTHWEST ARCTIC BOROUGH,1,0,0,0,0,0,0,0,FALSE
US,AK,99751,KOBUK,1,0,0,3,0,3,0,0,FALSE
US,AK,99752,KOTZEBUE,1,0,0,6,0,6,0,0,FALSE
US,AK,99753,KOYUK,1,0,0,2,0,2,0,0,FALSE
US,AK,99754,ALASKA STATE,1,0,0,0,0,0,0,0,FALSE
US,AK,99755,DENALI BOROUGH,1,0,0,0,0,0,0,0,FALSE
US,AK,99756,ALASKA STATE,1,0,0,0,0,0,0,0,FALSE
US,AK,99757,ALASKA STATE,1,0,0,0,0,0,0,0,FALSE
US,AK,99758,ALASKA STATE,1,0,0,0,0,0,0,0,FALSE
US,AK,99759,NORTH SLOPE BOROUGH,2,0,0,0,0,0,0,0,FALSE
US,AK,99760,NENANA,1,0,0,4,0,4,0,0,FALSE
US,AK,99761,NORTHWEST ARCTIC BOROUGH,1,0,0,0,0,0,0,0,FALSE
US,AK,99762,NOME,4,0,0,5,0,5,0,0,FALSE
US,AK,99763,NORTHWEST ARCTIC BOROUGH,1,0,0,0,0,0,0,0,FALSE
US,AK,99764,ALASKA STATE,1,0,0,0,0,0,0,0,FALSE
US,AK,99765,NULATO,1,0,0,0,0,0,0,0,FALSE
US,AK,99766,POINT HOPE,1,0,0,3,0,3,0,0,FALSE
US,AK,99767,ALASKA STATE,1,0,0,0,0,0,0,0,FALSE
US,AK,99768,RUBY,1,0,0,0,0,0,0,0,FALSE
US,AK,99769,ALASKA STATE,1,0,0,0,0,0,0,0,FALSE
US,AK,99770,NORTHWEST ARCTIC BOROUGH,1,0,0,0,0,0,0,0,FALSE
US,AK,99771,ALASKA STATE,1,0,0,0,0,0,0,0,FALSE
US,AK,99772,SHISHMAREF,1,0,0,3,0,3,0,0,FALSE
US,AK,99773,NORTHWEST ARCTIC BOROUGH,1,0,0,0,0,0,0,0,FALSE
US,AK,99774,ALASKA STATE,1,0,0,0,0,0,0,0,FALSE
US,AK,99775,FAIRBANKS NORTH STAR BOROUGH,1,0,0,0,0,0,0,0,FALSE
US,AK,99776,ALASKA STATE,2,0,0,0,0,0,0,0,FALSE
US,AK,99777,TANANA,1,0,0,2,0,2,0,0,FALSE
US,AK,99778,ALASKA STATE,1,0,0,0,0,0,0,0,FALSE
US,AK,99780,ALASKA STATE,2,0,0,0,0,0,0,0,FALSE
US,AK,99781,ALASKA STATE,1,0,0,0,0,0,0,0,FALSE
US,AK,99782,WAINWRIGHT,1,0,0,0,0,0,0,0,FALSE
US,AK,99783,WALES,1,0,0,3,0,3,0,0,FALSE
US,AK,99784,WHITE MOUNTAIN,1,0,0,1,0,1,0,0,FALSE
US,AK,99785,ALASKA STATE,1,0,0,0,0,0,0,0,FALSE
US,AK,99786,AMBLER,1,0,0,3,0,3,0,0,FALSE
US,AK,99788,ALASKA STATE,1,0,0,0,0,0,0,0,FALSE
US,AK,99789,NUIQSUT,2,0,0,0,0,0,0,0,FALSE
US,AK,99790,FAIRBANKS NORTH STAR BOROUGH,1,0,0,0,0,0,0,0,FALSE
US,AK,99791,NORTH SLOPE BOROUGH,2,0,0,0,0,0,0,0,FALSE
US,AK,99801,JUNEAU BURROUGH,1,0,5,0,0,5,0,0,FALSE
US,AK,99820,ALASKA STATE,1,0,0,0,0,0,0,0,FALSE
US,AK,99824,JUNEAU BURROUGH,2,0,5,0,0,5,0,0,FALSE
US,AK,99825,ALASKA STATE,1,0,0,0,0,0,0,0,FALSE
US,AK,99826,ALASKA STATE,1,0,0,0,0,0,0,0,FALSE
US,AK,99827,HAINES BURROUGH,1,0,4,0,0,4,0,0,FALSE
US,AK,99829,HOONAH,1,0,0,6.5,0,6.5,0,0,FALSE
US,AK,99830,KAKE,1,0,0,5,0,5,0,0,FALSE
US,AK,99832,PELICAN,1,0,0,4,0,4,0,0,FALSE
US,AK,99833,PETERSBURG BOROUGH,2,0,6,0,0,6,0,0,FALSE
US,AK,99835,SITKA BURROUGH,1,0,5,0,0,5,0,0,FALSE
US,AK,99836,PORT ALEXANDER,2,0,0,4,0,4,0,0,FALSE
US,AK,99840,SKAGWAY,1,0,0,0,0,0,0,0,FALSE
US,AK,99841,TENAKEE SPRINGS,1,0,0,2,0,2,0,0,FALSE
US,AK,99901,KETCHIKAN,7,0,0,6.5,0,6.5,0,0,FALSE
US,AK,99903,WRANGELL,4,0,0,7,0,7,0,0,FALSE
US,AK,99918,ALASKA STATE,4,0,0,0,0,0,0,0,FALSE
US,AK,99919,ALASKA STATE,4,0,0,0,0,0,0,0,FALSE
US,AK,99921,CRAIG,1,0,0,5,0,5,0,0,FALSE
US,AK,99922,ALASKA STATE,1,0,0,0,0,0,0,0,FALSE
US,AK,99923,ALASKA STATE,1,0,0,0,0,0,0,0,FALSE
US,AK,99925,KLAWOCK,1,0,0,6.5,0,6.5,0,0,FALSE
US,AK,99926,ALASKA STATE,1,0,0,0,0,0,0,0,FALSE
US,AK,99927,ALASKA STATE,1,0,0,0,0,0,0,0,FALSE
US,AK,99928,KETCHIKAN GATEWAY BURROUGH,1,0,2.5,0,0,2.5,0,0,FALSE
US,AK,99929,WRANGELL,1,0,0,7,0,7,0,0,FALSE
