country,state,zipcode,tax_region_name,RiskLevel,state_rate,county_rate,city_rate,special_rate,combined_rate,medicinal_excise,adult_excise,has_medical_excise
US,AL,35004,MOODY,2,4,0,4,2,10,0,0,FALSE
US,AL,35005,ADAMSVILLE,1,4,1,4,1,10,0,0,FALSE
US,AL,35006,JEFFERSON COUNTY,2,4,1,0,1,6,0,0,FALSE
US,AL,35007,ALABASTER,1,4,1,4,0,9,0,0,FALSE
US,AL,35010,ALEXANDER,1,4,2,4,0,10,0,0,FALSE
US,AL,35013,ALLGOOD,1,4,3,3,0,10,0,0,FALSE
US,AL,35014,TALLADEGA COUNTY,1,4,3,0,0,7,0,0,FALSE
US,AL,35015,IRONDALE,1,4,1,4,1,10,0,0,FALSE
US,AL,35016,ARAB (MARSHALL CO),1,4,0,5,0,9,0,0,FALSE
US,AL,35019,CULLMAN COUNTY,1,4,4.5,0,0,8.5,0,0,FALSE
US,AL,35020,BESSEMER,2,4,1,4,1,10,0,0,FALSE
US,AL,35021,BESSEMER,1,4,1,4,1,10,0,0,FALSE
US,AL,35022,BESSEMER,4,4,1,4,1,10,0,0,FALSE
US,AL,35023,HUEYTOWN,4,4,1,4,1,10,0,0,FALSE
US,AL,35031,BLOUNT COUNTY,1,4,3,0,0,7,0,0,FALSE
US,AL,35032,BON AIR TOWN,1,4,1,0,0,5,0,0,FALSE
US,AL,35033,CULLMAN COUNTY,2,4,4.5,0,0,8.5,0,0,FALSE
US,AL,35034,BIBB COUNTY,1,4,4,0,0,8,0,0,FALSE
US,AL,35035,BIBB COUNTY,1,4,4,0,0,8,0,0,FALSE
US,AL,35036,GARDENDALE,2,4,1,4,1,10,0,0,FALSE
US,AL,35038,DORA,1,4,2,3,0,9,0,0,FALSE
US,AL,35040,CALERA (SHELBY CO),1,4,1,4,0,9,0,0,FALSE
US,AL,35042,CENTREVILLE,2,4,4,2,0,10,0,0,FALSE
US,AL,35043,CHELSEA,1,4,1,5,0,10,0,0,FALSE
US,AL,35044,CHILDERSBURG,2,4,1,4,0,9,0,0,FALSE
US,AL,35045,CLANTON,1,4,3,3,0,10,0,0,FALSE
US,AL,35046,CHILTON COUNTY,1,4,4,0,0,8,0,0,FALSE
US,AL,35048,CLAY,1,4,1,4,1,10,0,0,FALSE
US,AL,35049,CLEVELAND PJ,2,4,3,0,1,8,0,0,FALSE
US,AL,35051,SHELBY COUNTY,1,4,1,0,0,5,0,0,FALSE
US,AL,35052,ST. CLAIR COUNTY,1,4,0,0,2,6,0,0,FALSE
US,AL,35053,CULLMAN COUNTY,1,4,4.5,0,0,8.5,0,0,FALSE
US,AL,35054,ST. CLAIR COUNTY,1,4,0,0,2,6,0,0,FALSE
US,AL,35055,CULLMAN,3,4,4.5,0.5,0,9,0,0,FALSE
US,AL,35056,CULLMAN,1,4,4.5,0.5,0,9,0,0,FALSE
US,AL,35057,CULLMAN COUNTY,2,4,4.5,0,0,8.5,0,0,FALSE
US,AL,35058,CULLMAN COUNTY,1,4,4.5,0,0,8.5,0,0,FALSE
US,AL,35060,ADAMSVILLE PJ,1,4,1,0,3,8,0,0,FALSE
US,AL,35061,BIRMINGHAM (JEFFERSON CO),1,4,1,4,1,10,0,0,FALSE
US,AL,35062,DORA,1,4,2,3,0,9,0,0,FALSE
US,AL,35063,WALKER COUNTY,1,4,2,0,0,6,0,0,FALSE
US,AL,35064,FAIRFIELD,1,4,1,4,1,10,0,0,FALSE
US,AL,35068,FULTONDALE,3,4,1,4,1,10,0,0,FALSE
US,AL,35070,GARDEN CITY,1,4,4.5,0.5,0,9,0,0,FALSE
US,AL,35071,GARDENDALE,1,4,1,4,1,10,0,0,FALSE
US,AL,35072,CLAY COUNTY,1,4,2,0,0,6,0,0,FALSE
US,AL,35073,GRAYSVILLE,3,4,1,4,1,10,0,0,FALSE
US,AL,35074,BIBB COUNTY,1,4,4,0,0,8,0,0,FALSE
US,AL,35077,HANCEVILLE UN,1,4,4.5,0,0.25,8.75,0,0,FALSE
US,AL,35078,HARPERSVILLE,1,4,1,4,0,9,0,0,FALSE
US,AL,35079,BLOUNT COUNTY,2,4,3,0,0,7,0,0,FALSE
US,AL,35080,HELENA (SHELBY CO),2,4,1,4,0,9,0,0,FALSE
US,AL,35082,CLAY COUNTY,3,4,2,0,0,6,0,0,FALSE
US,AL,35083,CULLMAN COUNTY,1,4,4.5,0,0,8.5,0,0,FALSE
US,AL,35085,CHILTON COUNTY,1,4,4,0,0,8,0,0,FALSE
US,AL,35087,CULLMAN COUNTY,1,4,4.5,0,0,8.5,0,0,FALSE
US,AL,35089,COOSA COUNTY,1,4,2,0,0,6,0,0,FALSE
US,AL,35091,KIMBERLY,1,4,1,4,1,10,0,0,FALSE
US,AL,35094,LEEDS (JEFFERSON CO),1,4,1,4,1,10,0,0,FALSE
US,AL,35096,LINCOLN,1,4,1,5,0,10,0,0,FALSE
US,AL,35097,LOCUST FORK,1,4,3,2,0,9,0,0,FALSE
US,AL,35098,CULLMAN COUNTY,1,4,4.5,0,0,8.5,0,0,FALSE
US,AL,35111,JEFFERSON COUNTY,2,4,1,0,1,6,0,0,FALSE
US,AL,35112,MARGARET,1,4,0,4,2,10,0,0,FALSE
US,AL,35114,ALABASTER,1,4,1,4,0,9,0,0,FALSE
US,AL,35115,MONTEVALLO,2,4,1,5,0,10,0,0,FALSE
US,AL,35116,MORRIS,1,4,1,4,1,10,0,0,FALSE
US,AL,35117,JEFFERSON COUNTY,1,4,1,0,1,6,0,0,FALSE
US,AL,35118,JEFFERSON COUNTY,3,4,1,0,1,6,0,0,FALSE
US,AL,35119,GARDENDALE,1,4,1,4,1,10,0,0,FALSE
US,AL,35120,ODENVILLE,1,4,0,3,2,9,0,0,FALSE
US,AL,35121,ONEONTA,5,4,3,3,0,10,0,0,FALSE
US,AL,35123,CULLMAN COUNTY,1,4,4.5,0,0,8.5,0,0,FALSE
US,AL,35124,PELHAM,3,4,1,4,0,9,0,0,FALSE
US,AL,35125,ST. CLAIR COUNTY,4,4,0,0,2,6,0,0,FALSE
US,AL,35126,JEFFERSON COUNTY,2,4,1,0,1,6,0,0,FALSE
US,AL,35127,PLEASANT GROVE,2,4,1,4,1,10,0,0,FALSE
US,AL,35128,PELL,1,4,0,5,1,10,0,0,FALSE
US,AL,35130,WALKER COUNTY,3,4,2,0,0,6,0,0,FALSE
US,AL,35131,RAGLAND,1,4,0,4,2,10,0,0,FALSE
US,AL,35133,BLOUNT COUNTY,1,4,3,0,0,7,0,0,FALSE
US,AL,35135,RIVERSIDE,1,4,0,4,2,10,0,0,FALSE
US,AL,35136,ROCKFORD,1,4,2,3,0,9,0,0,FALSE
US,AL,35137,BIBB COUNTY,1,4,4,0,0,8,0,0,FALSE
US,AL,35139,ADAMSVILLE PJ,1,4,1,0,3,8,0,0,FALSE
US,AL,35142,BIBB COUNTY,1,4,4,0,0,8,0,0,FALSE
US,AL,35143,SHELBY COUNTY,1,4,1,0,0,5,0,0,FALSE
US,AL,35146,ST. CLAIR COUNTY,1,4,0,0,2,6,0,0,FALSE
US,AL,35147,SHELBY COUNTY,2,4,1,0,0,5,0,0,FALSE
US,AL,35148,SUMITON (WALKER CO),1,4,2,4,0,10,0,0,FALSE
US,AL,35149,TALLADEGA COUNTY,1,4,3,0,0,7,0,0,FALSE
US,AL,35150,SYLACAUGA,4,4,1,3,0,8,0,0,FALSE
US,AL,35151,TALLADEGA COUNTY,3,4,3,0,0,7,0,0,FALSE
US,AL,35160,TALLADEGA,2,4,1,5,0,10,0,0,FALSE
US,AL,35171,THORSBY,1,4,3,3,0,10,0,0,FALSE
US,AL,35172,BLOUNT COUNTY,1,4,3,0,0,7,0,0,FALSE
US,AL,35173,TRUSSVILLE (JEFFERSON CO),2,4,1,4,1,10,0,0,FALSE
US,AL,35175,MARSHALL COUNTY,1,4,1,0,0,5,0,0,FALSE
US,AL,35176,SHELBY COUNTY,1,4,1,0,0,5,0,0,FALSE
US,AL,35178,VINCENT (SHELBY CO),1,4,1,4,0,9,0,0,FALSE
US,AL,35179,CULLMAN COUNTY,3,4,4.5,0,0,8.5,0,0,FALSE
US,AL,35180,BLOUNT COUNTY,1,4,3,0,0,7,0,0,FALSE
US,AL,35181,BROOKSIDE UN,1,4,1,0,3,8,0,0,FALSE
US,AL,35182,GADSDEN,1,4,1,5,0,10,0,0,FALSE
US,AL,35183,COOSA COUNTY,1,4,2,0,0,6,0,0,FALSE
US,AL,35184,BIBB COUNTY,1,4,4,0,0,8,0,0,FALSE
US,AL,35185,WESTOVER,1,4,1,4,0,9,0,0,FALSE
US,AL,35186,WILSONVILLE,1,4,1,3,0,8,0,0,FALSE
US,AL,35187,WILTON,1,4,1,3,0,8,0,0,FALSE
US,AL,35188,WOODSTOCK (BIBB CO),1,4,4,2,0,10,0,0,FALSE
US,AL,35201,BIRMINGHAM (JEFFERSON CO),2,4,1,4,1,10,0,0,FALSE
US,AL,35202,BIRMINGHAM (JEFFERSON CO),2,4,1,4,1,10,0,0,FALSE
US,AL,35203,BIRMINGHAM (JEFFERSON CO),2,4,1,4,1,10,0,0,FALSE
US,AL,35204,BIRMINGHAM (JEFFERSON CO),2,4,1,4,1,10,0,0,FALSE
US,AL,35205,BIRMINGHAM (JEFFERSON CO),3,4,1,4,1,10,0,0,FALSE
US,AL,35206,BIRMINGHAM (JEFFERSON CO),2,4,1,4,1,10,0,0,FALSE
US,AL,35207,BIRMINGHAM (JEFFERSON CO),2,4,1,4,1,10,0,0,FALSE
US,AL,35208,BIRMINGHAM (JEFFERSON CO),2,4,1,4,1,10,0,0,FALSE
US,AL,35209,HOMEWOOD,5,4,1,4,1,10,0,0,FALSE
US,AL,35210,IRONDALE,9,4,1,4,1,10,0,0,FALSE
US,AL,35211,BIRMINGHAM (JEFFERSON CO),3,4,1,4,1,10,0,0,FALSE
US,AL,35212,BIRMINGHAM (JEFFERSON CO),2,4,1,4,1,10,0,0,FALSE
US,AL,35213,MOUNTAIN BROOK,5,4,1,3,1,9,0,0,FALSE
US,AL,35214,JEFFERSON COUNTY,3,4,1,0,1,6,0,0,FALSE
US,AL,35215,CENTER POINT,3,4,1,4,1,10,0,0,FALSE
US,AL,35216,VESTAVIA HILLS (JEFFERSON CO),6,4,1,4,1,10,0,0,FALSE
US,AL,35217,TARRANT,3,4,1,4,1,10,0,0,FALSE
US,AL,35218,BIRMINGHAM (JEFFERSON CO),3,4,1,4,1,10,0,0,FALSE
US,AL,35219,HOMEWOOD,5,4,1,4,1,10,0,0,FALSE
US,AL,35220,CENTER POINT,3,4,1,4,1,10,0,0,FALSE
US,AL,35221,BIRMINGHAM (JEFFERSON CO),2,4,1,4,1,10,0,0,FALSE
US,AL,35222,BIRMINGHAM (JEFFERSON CO),2,4,1,4,1,10,0,0,FALSE
US,AL,35223,MOUNTAIN BROOK,6,4,1,3,1,9,0,0,FALSE
US,AL,35224,BIRMINGHAM (JEFFERSON CO),2,4,1,4,1,10,0,0,FALSE
US,AL,35226,HOOVER (JEFFERSON CO),6,4,1,3.5,1,9.5,0,0,FALSE
US,AL,35228,MIDFIELD,3,4,1,4,1,10,0,0,FALSE
US,AL,35229,HOMEWOOD,2,4,1,4,1,10,0,0,FALSE
US,AL,35231,JEFFERSON COUNTY,2,4,1,0,1,6,0,0,FALSE
US,AL,35232,BIRMINGHAM (JEFFERSON CO),2,4,1,4,1,10,0,0,FALSE
US,AL,35233,BIRMINGHAM (JEFFERSON CO),2,4,1,4,1,10,0,0,FALSE
US,AL,35234,BIRMINGHAM (JEFFERSON CO),2,4,1,4,1,10,0,0,FALSE
US,AL,35235,BIRMINGHAM (JEFFERSON CO),6,4,1,4,1,10,0,0,FALSE
US,AL,35236,HOOVER (JEFFERSON CO),3,4,1,3.5,1,9.5,0,0,FALSE
US,AL,35237,BIRMINGHAM (JEFFERSON CO),2,4,1,4,1,10,0,0,FALSE
US,AL,35238,SHELBY COUNTY,2,4,1,0,0,5,0,0,FALSE
US,AL,35242,SHELBY COUNTY,6,4,1,0,0,5,0,0,FALSE
US,AL,35243,VESTAVIA HILLS (JEFFERSON CO),4,4,1,4,1,10,0,0,FALSE
US,AL,35244,HOOVER (JEFFERSON CO),5,4,1,3.5,1,9.5,0,0,FALSE
US,AL,35249,BIRMINGHAM (JEFFERSON CO),2,4,1,4,1,10,0,0,FALSE
US,AL,35253,HOMEWOOD,3,4,1,4,1,10,0,0,FALSE
US,AL,35254,BIRMINGHAM (JEFFERSON CO),2,4,1,4,1,10,0,0,FALSE
US,AL,35255,BIRMINGHAM (JEFFERSON CO),2,4,1,4,1,10,0,0,FALSE
US,AL,35259,HOMEWOOD,3,4,1,4,1,10,0,0,FALSE
US,AL,35260,HOOVER (JEFFERSON CO),2,4,1,3.5,1,9.5,0,0,FALSE
US,AL,35261,BIRMINGHAM (JEFFERSON CO),2,4,1,4,1,10,0,0,FALSE
US,AL,35266,HOMEWOOD,4,4,1,4,1,10,0,0,FALSE
US,AL,35270,BIRMINGHAM (JEFFERSON CO),2,4,1,4,1,10,0,0,FALSE
US,AL,35282,BIRMINGHAM (JEFFERSON CO),2,4,1,4,1,10,0,0,FALSE
US,AL,35285,BIRMINGHAM (JEFFERSON CO),2,4,1,4,1,10,0,0,FALSE
US,AL,35293,HOMEWOOD,2,4,1,4,1,10,0,0,FALSE
US,AL,35294,BIRMINGHAM (JEFFERSON CO),2,4,1,4,1,10,0,0,FALSE
US,AL,35295,BIRMINGHAM (JEFFERSON CO),2,4,1,4,1,10,0,0,FALSE
US,AL,35401,TUSCALOOSA,1,4,3,3,0,10,0,0,FALSE
US,AL,35402,TUSCALOOSA,1,4,3,3,0,10,0,0,FALSE
US,AL,35403,TUSCALOOSA,1,4,3,3,0,10,0,0,FALSE
US,AL,35404,TUSCALOOSA,1,4,3,3,0,10,0,0,FALSE
US,AL,35405,TUSCALOOSA,2,4,3,3,0,10,0,0,FALSE
US,AL,35406,TUSCALOOSA,1,4,3,3,0,10,0,0,FALSE
US,AL,35407,TUSCALOOSA,1,4,3,3,0,10,0,0,FALSE
US,AL,35440,TUSCALOOSA COUNTY,1,4,5,0,0,9,0,0,FALSE
US,AL,35441,HALE COUNTY,2,4,3,0,0,7,0,0,FALSE
US,AL,35442,ALICEVILLE,4,4,4,1,0,9,0,0,FALSE
US,AL,35443,GREENE COUNTY,2,4,3,0,0,7,0,0,FALSE
US,AL,35444,BROOKWOOD,1,4,3,2,0,9,0,0,FALSE
US,AL,35446,TUSCALOOSA COUNTY,2,4,5,0,0,9,0,0,FALSE
US,AL,35447,PICKENS COUNTY,2,4,4,0,0,8,0,0,FALSE
US,AL,35448,GREENE COUNTY,1,4,3,0,0,7,0,0,FALSE
US,AL,35449,COALING,1,4,3,3,0,10,0,0,FALSE
US,AL,35452,NORTHPORT PJ,1,4,4,0,1,9,0,0,FALSE
US,AL,35453,TUSCALOOSA PJ,2,4,4,0,1.5,9.5,0,0,FALSE
US,AL,35456,TUSCALOOSA PJ,1,4,4,0,1.5,9.5,0,0,FALSE
US,AL,35457,TUSCALOOSA COUNTY,1,4,5,0,0,9,0,0,FALSE
US,AL,35458,TUSCALOOSA COUNTY,1,4,5,0,0,9,0,0,FALSE
US,AL,35459,SUMTER COUNTY,2,4,3,0,0,7,0,0,FALSE
US,AL,35460,SUMTER COUNTY,2,4,3,0,0,7,0,0,FALSE
US,AL,35461,PICKENS COUNTY,1,4,4,0,0,8,0,0,FALSE
US,AL,35462,EUTAW,2,4,3,3,0,10,0,0,FALSE
US,AL,35463,TUSCALOOSA COUNTY,1,4,5,0,0,9,0,0,FALSE
US,AL,35464,SUMTER COUNTY,1,4,3,0,0,7,0,0,FALSE
US,AL,35466,PICKENS COUNTY,1,4,4,0,0,8,0,0,FALSE
US,AL,35468,TUSCALOOSA COUNTY,2,4,5,0,0,9,0,0,FALSE
US,AL,35469,GREENE COUNTY,1,4,3,0,0,7,0,0,FALSE
US,AL,35470,SUMTER COUNTY,2,4,3,0,0,7,0,0,FALSE
US,AL,35471,PICKENS COUNTY,1,4,4,0,0,8,0,0,FALSE
US,AL,35473,NORTHPORT,1,4,3,3,0,10,0,0,FALSE
US,AL,35474,HALE COUNTY,3,4,3,0,0,7,0,0,FALSE
US,AL,35475,TUSCALOOSA PJ,1,4,4,0,1.5,9.5,0,0,FALSE
US,AL,35476,NORTHPORT,1,4,3,3,0,10,0,0,FALSE
US,AL,35477,SUMTER COUNTY,1,4,3,0,0,7,0,0,FALSE
US,AL,35478,BIBB COUNTY,1,4,4,0,0,8,0,0,FALSE
US,AL,35480,TUSCALOOSA COUNTY,1,4,5,0,0,9,0,0,FALSE
US,AL,35481,PICKENS COUNTY,3,4,4,0,0,8,0,0,FALSE
US,AL,35482,TUSCALOOSA COUNTY,1,4,5,0,0,9,0,0,FALSE
US,AL,35486,TUSCALOOSA,1,4,3,3,0,10,0,0,FALSE
US,AL,35490,VANCE PJ (TUSCALOOSA CO),1,4,4,0,1,9,0,0,FALSE
US,AL,35491,GREENE COUNTY,1,4,3,0,0,7,0,0,FALSE
US,AL,35501,JASPER,1,4,2,3,0,9,0,0,FALSE
US,AL,35502,JASPER,1,4,2,3,0,9,0,0,FALSE
US,AL,35503,WALKER COUNTY,1,4,2,0,0,6,0,0,FALSE
US,AL,35504,WALKER COUNTY,1,4,2,0,0,6,0,0,FALSE
US,AL,35540,WINSTON COUNTY,1,4,2,0,0,6,0,0,FALSE
US,AL,35541,WINSTON COUNTY,1,4,2,0,0,6,0,0,FALSE
US,AL,35542,FAYETTE COUNTY,1,4,2,0,0,6,0,0,FALSE
US,AL,35543,BEAR CREEK,1,4,2,3,0,9,0,0,FALSE
US,AL,35544,LAMAR COUNTY,1,4,2,0,0,6,0,0,FALSE
US,AL,35545,BELK,1,4,2,1,0,7,0,0,FALSE
US,AL,35546,FAYETTE COUNTY,1,4,2,0,0,6,0,0,FALSE
US,AL,35548,BRILLIANT,1,4,2,3,0,9,0,0,FALSE
US,AL,35549,CARBON HILL,1,4,2,3,0,9,0,0,FALSE
US,AL,35550,WALKER COUNTY,2,4,2,0,0,6,0,0,FALSE
US,AL,35551,LAMAR COUNTY,1,4,2,0,0,6,0,0,FALSE
US,AL,35552,MARION COUNTY,1,4,2,0,0,6,0,0,FALSE
US,AL,35553,WINSTON COUNTY,1,4,2,0,0,6,0,0,FALSE
US,AL,35554,FAYETTE COUNTY,1,4,2,0,0,6,0,0,FALSE
US,AL,35555,FAYETTE COUNTY,2,4,2,0,0,6,0,0,FALSE
US,AL,35559,GLEN ALLEN (FAYETTE CO),2,4,2,1,0,7,0,0,FALSE
US,AL,35560,WALKER COUNTY,1,4,2,0,0,6,0,0,FALSE
US,AL,35563,GUIN,2,4,2,3,0,9,0,0,FALSE
US,AL,35564,HACKLEBURG,1,4,2,2,0,8,0,0,FALSE
US,AL,35565,HALEYVILLE (WINSTON CO),1,4,2,4,0,10,0,0,FALSE
US,AL,35570,HAMILTON,2,4,2,3,0,9,0,0,FALSE
US,AL,35571,FRANKLIN COUNTY,2,4,2,0,0,6,0,0,FALSE
US,AL,35572,WINSTON COUNTY,1,4,2,0,0,6,0,0,FALSE
US,AL,35573,KANSAS,1,4,2,1,0,7,0,0,FALSE
US,AL,35574,LAMAR COUNTY,2,4,2,0,0,6,0,0,FALSE
US,AL,35575,LYNN,1,4,2,2,0,8,0,0,FALSE
US,AL,35576,LAMAR COUNTY,2,4,2,0,0,6,0,0,FALSE
US,AL,35577,NATURAL BRIDGE,1,4,2,3,0,9,0,0,FALSE
US,AL,35578,WALKER COUNTY,2,4,2,0,0,6,0,0,FALSE
US,AL,35579,WALKER COUNTY,1,4,2,0,0,6,0,0,FALSE
US,AL,35580,WALKER COUNTY,1,4,2,0,0,6,0,0,FALSE
US,AL,35581,FRANKLIN COUNTY,1,4,2,0,0,6,0,0,FALSE
US,AL,35582,RED BAY,1,4,2,2.5,0,8.5,0,0,FALSE
US,AL,35584,SIPSEY,1,4,2,2,0,8,0,0,FALSE
US,AL,35585,FRANKLIN COUNTY,1,4,2,0,0,6,0,0,FALSE
US,AL,35586,LAMAR COUNTY,1,4,2,0,0,6,0,0,FALSE
US,AL,35587,WALKER COUNTY,1,4,2,0,0,6,0,0,FALSE
US,AL,35592,LAMAR COUNTY,1,4,2,0,0,6,0,0,FALSE
US,AL,35593,FRANKLIN COUNTY,2,4,2,0,0,6,0,0,FALSE
US,AL,35594,WINFIELD (MARION CO),1,4,1,5,0,10,0,0,FALSE
US,AL,35601,DECATUR (MORGAN CO),1,4,1,4,0,9,0,0,FALSE
US,AL,35602,DECATUR (MORGAN CO),1,4,1,4,0,9,0,0,FALSE
US,AL,35603,DECATUR (MORGAN CO),1,4,1,4,0,9,0,0,FALSE
US,AL,35610,LAUDERDALE COUNTY,1,4,1.5,0,0,5.5,0,0,FALSE
US,AL,35611,ATHENS,1,4,2,3,0,9,0,0,FALSE
US,AL,35612,ATHENS,1,4,2,3,0,9,0,0,FALSE
US,AL,35613,LIMESTONE COUNTY,1,4,2,0,0,6,0,0,FALSE
US,AL,35614,LIMESTONE COUNTY,1,4,2,0,0,6,0,0,FALSE
US,AL,35615,DECATUR UN,1,4,2,0,2,8,0,0,FALSE
US,AL,35616,COLBERT COUNTY,1,4,0.5,0,1,5.5,0,0,FALSE
US,AL,35617,LAUDERDALE COUNTY,1,4,1.5,0,0,5.5,0,0,FALSE
US,AL,35618,LAWRENCE COUNTY,2,4,3,0,0,7,0,0,FALSE
US,AL,35619,LAWRENCE COUNTY,1,4,3,0,0,7,0,0,FALSE
US,AL,35620,LIMESTONE COUNTY,1,4,2,0,0,6,0,0,FALSE
US,AL,35621,MORGAN COUNTY,1,4,3,0,0,7,0,0,FALSE
US,AL,35622,MORGAN COUNTY,1,4,3,0,0,7,0,0,FALSE
US,AL,35630,FLORENCE,3,4,1,4.5,0,9.5,0,0,FALSE
US,AL,35631,FLORENCE,1,4,1,4.5,0,9.5,0,0,FALSE
US,AL,35632,FLORENCE,1,4,1,4.5,0,9.5,0,0,FALSE
US,AL,35633,LAUDERDALE COUNTY,1,4,1.5,0,0,5.5,0,0,FALSE
US,AL,35634,LAUDERDALE COUNTY,1,4,1.5,0,0,5.5,0,0,FALSE
US,AL,35640,HARTSELLE,1,4,1,4,0,9,0,0,FALSE
US,AL,35643,LAWRENCE COUNTY,1,4,3,0,0,7,0,0,FALSE
US,AL,35645,LAUDERDALE COUNTY,1,4,1.5,0,0,5.5,0,0,FALSE
US,AL,35646,COLBERT COUNTY,1,4,0.5,0,1,5.5,0,0,FALSE
US,AL,35647,LIMESTONE COUNTY,1,4,2,0,0,6,0,0,FALSE
US,AL,35648,LAUDERDALE COUNTY,1,4,1.5,0,0,5.5,0,0,FALSE
US,AL,35649,MOORESVILLE,1,4,2,0,2,8,0,0,FALSE
US,AL,35650,LAWRENCE COUNTY,1,4,3,0,0,7,0,0,FALSE
US,AL,35651,LAWRENCE COUNTY,1,4,3,0,0,7,0,0,FALSE
US,AL,35652,LAUDERDALE COUNTY,2,4,1.5,0,0,5.5,0,0,FALSE
US,AL,35653,RUSSELLVILLE,2,4,2,3,0,9,0,0,FALSE
US,AL,35654,FRANKLIN COUNTY,1,4,2,0,0,6,0,0,FALSE
US,AL,35660,SHEFFIELD,1,4,0.5,3.5,1,9,0,0,FALSE
US,AL,35661,MUSCLE SHOALS,1,4,0.5,3.5,1,9,0,0,FALSE
US,AL,35670,MORGAN COUNTY,1,4,3,0,0,7,0,0,FALSE
US,AL,35671,LIMESTONE COUNTY,1,4,2,0,0,6,0,0,FALSE
US,AL,35672,LAWRENCE COUNTY,1,4,3,0,0,7,0,0,FALSE
US,AL,35673,LAWRENCE COUNTY,1,4,3,0,0,7,0,0,FALSE
US,AL,35674,TUSCUMBIA,1,4,0.5,3.5,1,9,0,0,FALSE
US,AL,35677,LAUDERDALE COUNTY,1,4,1.5,0,0,5.5,0,0,FALSE
US,AL,35739,LIMESTONE COUNTY,1,4,2,0,0,6,0,0,FALSE
US,AL,35740,BRIDGEPORT,1,4,2,3,0,9,0,0,FALSE
US,AL,35741,MADISON COUNTY,1,4,0.5,0,1,5.5,0,0,FALSE
US,AL,35742,LIMESTONE COUNTY,1,4,2,0,0,6,0,0,FALSE
US,AL,35744,JACKSON COUNTY,1,4,2,0,0,6,0,0,FALSE
US,AL,35745,JACKSON COUNTY,1,4,2,0,0,6,0,0,FALSE
US,AL,35746,JACKSON COUNTY,1,4,2,0,0,6,0,0,FALSE
US,AL,35747,MARSHALL COUNTY,1,4,1,0,0,5,0,0,FALSE
US,AL,35748,MADISON COUNTY,1,4,0.5,0,1,5.5,0,0,FALSE
US,AL,35749,MADISON COUNTY,1,4,0.5,0,1,5.5,0,0,FALSE
US,AL,35750,MADISON COUNTY,1,4,0.5,0,1,5.5,0,0,FALSE
US,AL,35751,JACKSON COUNTY,1,4,2,0,0,6,0,0,FALSE
US,AL,35752,HOLLYWOOD,1,4,2,3,0,9,0,0,FALSE
US,AL,35754,MORGAN COUNTY,1,4,3,0,0,7,0,0,FALSE
US,AL,35755,LANGSTON,1,4,2,2,0,8,0,0,FALSE
US,AL,35756,LIMESTONE COUNTY,2,4,2,0,0,6,0,0,FALSE
US,AL,35757,MADISON COUNTY,2,4,0.5,0,1,5.5,0,0,FALSE
US,AL,35758,MADISON (MADISON CO),3,4,0.5,3.5,1,9,0,0,FALSE
US,AL,35759,MADISON COUNTY,1,4,0.5,0,1,5.5,0,0,FALSE
US,AL,35760,MADISON COUNTY,1,4,0.5,0,1,5.5,0,0,FALSE
US,AL,35761,MADISON COUNTY,1,4,0.5,0,1,5.5,0,0,FALSE
US,AL,35762,HUNTSVILLE (MADISON CO),1,4,0.5,4.5,0,9,0,0,FALSE
US,AL,35763,HUNTSVILLE (MADISON CO),3,4,0.5,4.5,0,9,0,0,FALSE
US,AL,35764,JACKSON COUNTY,1,4,2,0,0,6,0,0,FALSE
US,AL,35765,JACKSON COUNTY,1,4,2,0,0,6,0,0,FALSE
US,AL,35766,JACKSON COUNTY,1,4,2,0,0,6,0,0,FALSE
US,AL,35767,MADISON COUNTY,1,4,0.5,0,1,5.5,0,0,FALSE
US,AL,35768,SCOTTSBORO,1,4,2,3,0,9,0,0,FALSE
US,AL,35769,SCOTTSBORO,1,4,2,3,0,9,0,0,FALSE
US,AL,35771,JACKSON COUNTY,1,4,2,0,0,6,0,0,FALSE
US,AL,35772,STEVENSON PJ,1,4,2,0,1.5,7.5,0,0,FALSE
US,AL,35773,MADISON COUNTY,1,4,0.5,0,1,5.5,0,0,FALSE
US,AL,35774,JACKSON COUNTY,1,4,2,0,0,6,0,0,FALSE
US,AL,35775,MORGAN COUNTY,1,4,3,0,0,7,0,0,FALSE
US,AL,35776,JACKSON COUNTY,1,4,2,0,0,6,0,0,FALSE
US,AL,35801,HUNTSVILLE (MADISON CO),1,4,0.5,4.5,0,9,0,0,FALSE
US,AL,35802,HUNTSVILLE (MADISON CO),1,4,0.5,4.5,0,9,0,0,FALSE
US,AL,35803,HUNTSVILLE (MADISON CO),1,4,0.5,4.5,0,9,0,0,FALSE
US,AL,35804,HUNTSVILLE (MADISON CO),1,4,0.5,4.5,0,9,0,0,FALSE
US,AL,35805,HUNTSVILLE (MADISON CO),1,4,0.5,4.5,0,9,0,0,FALSE
US,AL,35806,HUNTSVILLE (MADISON CO),1,4,0.5,4.5,0,9,0,0,FALSE
US,AL,35807,HUNTSVILLE (MADISON CO),1,4,0.5,4.5,0,9,0,0,FALSE
US,AL,35808,MADISON COUNTY,1,4,0.5,0,1,5.5,0,0,FALSE
US,AL,35809,HUNTSVILLE (MADISON CO),1,4,0.5,4.5,0,9,0,0,FALSE
US,AL,35810,HUNTSVILLE (MADISON CO),1,4,0.5,4.5,0,9,0,0,FALSE
US,AL,35811,MADISON COUNTY,1,4,0.5,0,1,5.5,0,0,FALSE
US,AL,35812,HUNTSVILLE (MADISON CO),1,4,0.5,4.5,0,9,0,0,FALSE
US,AL,35813,HUNTSVILLE (MADISON CO),1,4,0.5,4.5,0,9,0,0,FALSE
US,AL,35814,HUNTSVILLE (MADISON CO),1,4,0.5,4.5,0,9,0,0,FALSE
US,AL,35815,HUNTSVILLE (MADISON CO),1,4,0.5,4.5,0,9,0,0,FALSE
US,AL,35816,HUNTSVILLE (MADISON CO),1,4,0.5,4.5,0,9,0,0,FALSE
US,AL,35824,HUNTSVILLE (MADISON CO),1,4,0.5,4.5,0,9,0,0,FALSE
US,AL,35893,HUNTSVILLE (MADISON CO),1,4,0.5,4.5,0,9,0,0,FALSE
US,AL,35894,HUNTSVILLE (MADISON CO),1,4,0.5,4.5,0,9,0,0,FALSE
US,AL,35895,HUNTSVILLE (MADISON CO),1,4,0.5,4.5,0,9,0,0,FALSE
US,AL,35896,HUNTSVILLE (MADISON CO),1,4,0.5,4.5,0,9,0,0,FALSE
US,AL,35897,MADISON COUNTY,1,4,0.5,0,1,5.5,0,0,FALSE
US,AL,35899,HUNTSVILLE (MADISON CO),1,4,0.5,4.5,0,9,0,0,FALSE
US,AL,35901,GADSDEN,1,4,1,5,0,10,0,0,FALSE
US,AL,35902,GADSDEN,1,4,1,5,0,10,0,0,FALSE
US,AL,35903,GADSDEN,3,4,1,5,0,10,0,0,FALSE
US,AL,35904,GADSDEN,1,4,1,5,0,10,0,0,FALSE
US,AL,35905,GLENCOE (ETOWAH CO),2,4,1,5,0,10,0,0,FALSE
US,AL,35906,RAINBOW,2,4,1,4,0,9,0,0,FALSE
US,AL,35907,SOUTHSIDE (ETOWAH CO),2,4,1,5,0,10,0,0,FALSE
US,AL,35950,ALBERTVILLE,1,4,0,5,0,9,0,0,FALSE
US,AL,35951,ALBERTVILLE,1,4,0,5,0,9,0,0,FALSE
US,AL,35952,ETOWAH COUNTY,3,4,1,0,0,5,0,0,FALSE
US,AL,35953,ST. CLAIR COUNTY,1,4,0,0,2,6,0,0,FALSE
US,AL,35954,ETOWAH COUNTY,5,4,1,0,0,5,0,0,FALSE
US,AL,35956,ETOWAH COUNTY,3,4,1,0,0,5,0,0,FALSE
US,AL,35957,BOAZ,3,4,0,5,0,9,0,0,FALSE
US,AL,35958,JACKSON COUNTY,1,4,2,0,0,6,0,0,FALSE
US,AL,35959,CHEROKEE COUNTY,1,4,3.5,0,0,7.5,0,0,FALSE
US,AL,35960,CHEROKEE COUNTY,1,4,3.5,0,0,7.5,0,0,FALSE
US,AL,35961,DEKALB COUNTY,1,4,1,0,0,5,0,0,FALSE
US,AL,35962,DEKALB COUNTY,1,4,1,0,0,5,0,0,FALSE
US,AL,35963,DEKALB COUNTY,1,4,1,0,0,5,0,0,FALSE
US,AL,35964,DOUGLAS,1,4,1,3,0,8,0,0,FALSE
US,AL,35966,JACKSON COUNTY,2,4,2,0,0,6,0,0,FALSE
US,AL,35967,FORT PAYNE,1,4,1,4,0,9,0,0,FALSE
US,AL,35968,DEKALB COUNTY,2,4,1,0,0,5,0,0,FALSE
US,AL,35971,DEKALB COUNTY,2,4,1,0,0,5,0,0,FALSE
US,AL,35972,ETOWAH COUNTY,1,4,1,0,0,5,0,0,FALSE
US,AL,35973,CHEROKEE COUNTY,1,4,3.5,0,0,7.5,0,0,FALSE
US,AL,35974,GERALDINE PJ,1,4,1,0,2,7,0,0,FALSE
US,AL,35975,DEKALB COUNTY,1,4,1,0,0,5,0,0,FALSE
US,AL,35976,GUNTERSVILLE PJ,1,4,1,0,2.5,7.5,0,0,FALSE
US,AL,35978,HENAGAR,1,4,1,4,0,9,0,0,FALSE
US,AL,35979,DEKALB COUNTY,1,4,1,0,0,5,0,0,FALSE
US,AL,35980,MARSHALL COUNTY,1,4,1,0,0,5,0,0,FALSE
US,AL,35981,IDER PJ,1,4,1,0,2,7,0,0,FALSE
US,AL,35983,CHEROKEE COUNTY,2,4,3.5,0,0,7.5,0,0,FALSE
US,AL,35984,DEKALB COUNTY,1,4,1,0,0,5,0,0,FALSE
US,AL,35986,RAINSVILLE,2,4,1,4,0,9,0,0,FALSE
US,AL,35987,STEELE,1,4,0,2,2,8,0,0,FALSE
US,AL,35988,SYLVANIA,1,4,1,4,0,9,0,0,FALSE
US,AL,35989,DEKALB COUNTY,2,4,1,0,0,5,0,0,FALSE
US,AL,35990,WALNUT GROVE,1,4,1,3,0,8,0,0,FALSE
US,AL,36003,AUTAUGA COUNTY,1,4,2,0,0,6,0,0,FALSE
US,AL,36005,PIKE COUNTY,2,4,3.5,0,0,7.5,0,0,FALSE
US,AL,36006,AUTAUGA COUNTY,1,4,2,0,0,6,0,0,FALSE
US,AL,36008,AUTAUGA COUNTY,1,4,2,0,0,6,0,0,FALSE
US,AL,36009,CRENSHAW COUNTY,1,4,3.5,0,0,7.5,0,0,FALSE
US,AL,36010,BRUNDIDGE,1,4,3.5,2,0,9.5,0,0,FALSE
US,AL,36013,PIKE ROAD PJ,1,4,2.5,0,1.125,7.625,0,0,FALSE
US,AL,36015,BUTLER COUNTY,1,4,1.5,0,0,5.5,0,0,FALSE
US,AL,36016,BARBOUR COUNTY,1,4,1.5,0,0,5.5,0,0,FALSE
US,AL,36017,CLIO,2,4,1.5,4,0,9.5,0,0,FALSE
US,AL,36020,COOSADA,1,4,1,3.5,0,8.5,0,0,FALSE
US,AL,36022,ELMORE COUNTY,1,4,1,0,0,5,0,0,FALSE
US,AL,36024,ELMORE COUNTY,2,4,1,0,0,5,0,0,FALSE
US,AL,36025,ELMORE PJ,1,4,1,0,1.5,6.5,0,0,FALSE
US,AL,36026,COOSA COUNTY,1,4,2,0,0,6,0,0,FALSE
US,AL,36027,EUFAULA,2,4,1.5,4,0,9.5,0,0,FALSE
US,AL,36028,COVINGTON COUNTY,1,4,2.5,0,0,6.5,0,0,FALSE
US,AL,36029,BULLOCK COUNTY,1,4,2.5,0,0,6.5,0,0,FALSE
US,AL,36030,BUTLER COUNTY,1,4,1.5,0,0,5.5,0,0,FALSE
US,AL,36031,MACON COUNTY,1,4,2.5,0,0,6.5,0,0,FALSE
US,AL,36032,FORT DEPOSIT,1,4,4,2.5,0,10.5,0,0,FALSE
US,AL,36033,GEORGIANA,2,4,1.5,4,0,9.5,0,0,FALSE
US,AL,36034,PIKE COUNTY,1,4,3.5,0,0,7.5,0,0,FALSE
US,AL,36035,PIKE COUNTY,1,4,3.5,0,0,7.5,0,0,FALSE
US,AL,36036,MONTGOMERY COUNTY,1,4,2.5,0,0,6.5,0,0,FALSE
US,AL,36037,BUTLER COUNTY,1,4,1.5,0,0,5.5,0,0,FALSE
US,AL,36038,GENEVA COUNTY,1,4,2,0,0,6,0,0,FALSE
US,AL,36039,MACON COUNTY,1,4,2.5,0,0,6.5,0,0,FALSE
US,AL,36040,LOWNDES COUNTY,2,4,4,0,0,8,0,0,FALSE
US,AL,36041,CRENSHAW COUNTY,1,4,3.5,0,0,7.5,0,0,FALSE
US,AL,36042,CRENSHAW COUNTY,1,4,3.5,0,0,7.5,0,0,FALSE
US,AL,36043,LOWNDES COUNTY,1,4,4,0,0,8,0,0,FALSE
US,AL,36046,CRENSHAW COUNTY,1,4,3.5,0,0,7.5,0,0,FALSE
US,AL,36047,LOWNDES COUNTY,1,4,4,0,0,8,0,0,FALSE
US,AL,36048,BARBOUR COUNTY,1,4,1.5,0,0,5.5,0,0,FALSE
US,AL,36049,LUVERNE,2,4,3.5,2.5,0,10,0,0,FALSE
US,AL,36051,AUTAUGA COUNTY,1,4,2,0,0,6,0,0,FALSE
US,AL,36052,PIKE ROAD PJ,1,4,2.5,0,1.125,7.625,0,0,FALSE
US,AL,36053,BULLOCK COUNTY,3,4,2.5,0,0,6.5,0,0,FALSE
US,AL,36054,MILLBROOK,1,4,1,3.5,0,8.5,0,0,FALSE
US,AL,36057,MONTGOMERY COUNTY,1,4,2.5,0,0,6.5,0,0,FALSE
US,AL,36064,PIKE ROAD PJ,1,4,2.5,0,1.125,7.625,0,0,FALSE
US,AL,36065,MONTGOMERY COUNTY,1,4,2.5,0,0,6.5,0,0,FALSE
US,AL,36066,PRATTVILLE (AUTAUGA CO),1,4,2,3.5,0,9.5,0,0,FALSE
US,AL,36067,PRATTVILLE (AUTAUGA CO),1,4,2,3.5,0,9.5,0,0,FALSE
US,AL,36068,PRATTVILLE (AUTAUGA CO),1,4,2,3.5,0,9.5,0,0,FALSE
US,AL,36069,MONTGOMERY COUNTY,1,4,2.5,0,0,6.5,0,0,FALSE
US,AL,36071,CRENSHAW COUNTY,1,4,3.5,0,0,7.5,0,0,FALSE
US,AL,36072,EUFAULA,1,4,1.5,4,0,9.5,0,0,FALSE
US,AL,36075,SHORTER PJ,1,4,2.5,0,2.5,9,0,0,FALSE
US,AL,36078,TALLASSEE (ELMORE CO),2,4,1,5,0,10,0,0,FALSE
US,AL,36079,TROY,1,4,2.5,3,0,9.5,0,0,FALSE
US,AL,36080,ELMORE COUNTY,1,4,1,0,0,5,0,0,FALSE
US,AL,36081,TROY,1,4,2.5,3,0,9.5,0,0,FALSE
US,AL,36082,TROY,1,4,2.5,3,0,9.5,0,0,FALSE
US,AL,36083,TUSKEGEE,1,4,2.5,5,0,11.5,0,0,FALSE
US,AL,36087,TUSKEGEE,1,4,2.5,5,0,11.5,0,0,FALSE
US,AL,36088,TUSKEGEE,1,4,2.5,5,0,11.5,0,0,FALSE
US,AL,36089,UNION SPRINGS,3,4,2.5,3.5,0,10,0,0,FALSE
US,AL,36091,CHILTON COUNTY,1,4,4,0,0,8,0,0,FALSE
US,AL,36092,WETUMPKA PJ,1,4,1,0,2,7,0,0,FALSE
US,AL,36093,ELMORE COUNTY,1,4,1,0,0,5,0,0,FALSE
US,AL,36101,MONTGOMERY,1,4,2.5,3.5,0,10,0,0,FALSE
US,AL,36102,MONTGOMERY,1,4,2.5,3.5,0,10,0,0,FALSE
US,AL,36103,MONTGOMERY,1,4,2.5,3.5,0,10,0,0,FALSE
US,AL,36104,MONTGOMERY,1,4,2.5,3.5,0,10,0,0,FALSE
US,AL,36105,MONTGOMERY,1,4,2.5,3.5,0,10,0,0,FALSE
US,AL,36106,MONTGOMERY,1,4,2.5,3.5,0,10,0,0,FALSE
US,AL,36107,MONTGOMERY,1,4,2.5,3.5,0,10,0,0,FALSE
US,AL,36108,MONTGOMERY,2,4,2.5,3.5,0,10,0,0,FALSE
US,AL,36109,MONTGOMERY,1,4,2.5,3.5,0,10,0,0,FALSE
US,AL,36110,MONTGOMERY,2,4,2.5,3.5,0,10,0,0,FALSE
US,AL,36111,MONTGOMERY,1,4,2.5,3.5,0,10,0,0,FALSE
US,AL,36112,MONTGOMERY,1,4,2.5,3.5,0,10,0,0,FALSE
US,AL,36113,MONTGOMERY,1,4,2.5,3.5,0,10,0,0,FALSE
US,AL,36114,MONTGOMERY,1,4,2.5,3.5,0,10,0,0,FALSE
US,AL,36115,MONTGOMERY,1,4,2.5,3.5,0,10,0,0,FALSE
US,AL,36116,MONTGOMERY,1,4,2.5,3.5,0,10,0,0,FALSE
US,AL,36117,MONTGOMERY,1,4,2.5,3.5,0,10,0,0,FALSE
US,AL,36118,MONTGOMERY,1,4,2.5,3.5,0,10,0,0,FALSE
US,AL,36119,MONTGOMERY,1,4,2.5,3.5,0,10,0,0,FALSE
US,AL,36120,MONTGOMERY,1,4,2.5,3.5,0,10,0,0,FALSE
US,AL,36121,MONTGOMERY,1,4,2.5,3.5,0,10,0,0,FALSE
US,AL,36123,MONTGOMERY,1,4,2.5,3.5,0,10,0,0,FALSE
US,AL,36124,MONTGOMERY,1,4,2.5,3.5,0,10,0,0,FALSE
US,AL,36125,MONTGOMERY,1,4,2.5,3.5,0,10,0,0,FALSE
US,AL,36130,MONTGOMERY,1,4,2.5,3.5,0,10,0,0,FALSE
US,AL,36131,MONTGOMERY,1,4,2.5,3.5,0,10,0,0,FALSE
US,AL,36132,MONTGOMERY,1,4,2.5,3.5,0,10,0,0,FALSE
US,AL,36133,MONTGOMERY,1,4,2.5,3.5,0,10,0,0,FALSE
US,AL,36134,MONTGOMERY,1,4,2.5,3.5,0,10,0,0,FALSE
US,AL,36201,ANNISTON,1,4,1,5,0,10,0,0,FALSE
US,AL,36202,ANNISTON,1,4,1,5,0,10,0,0,FALSE
US,AL,36203,OXFORD (CALHOUN CO),2,4,1,5,0,10,0,0,FALSE
US,AL,36204,ANNISTON,2,4,1,5,0,10,0,0,FALSE
US,AL,36205,ANNISTON,2,4,1,5,0,10,0,0,FALSE
US,AL,36206,ANNISTON PJ,1,4,3,0,2.5,9.5,0,0,FALSE
US,AL,36207,ANNISTON,1,4,1,5,0,10,0,0,FALSE
US,AL,36250,CALHOUN COUNTY,1,4,3,0,0,7,0,0,FALSE
US,AL,36251,CLAY COUNTY,6,4,2,0,0,6,0,0,FALSE
US,AL,36253,GADSDEN,1,4,1,5,0,10,0,0,FALSE
US,AL,36254,GADSDEN,1,4,1,5,0,10,0,0,FALSE
US,AL,36255,CLAY COUNTY,2,4,2,0,0,6,0,0,FALSE
US,AL,36256,NEW SITE,2,4,2,3,0,9,0,0,FALSE
US,AL,36257,OXFORD (CALHOUN CO),1,4,1,5,0,10,0,0,FALSE
US,AL,36258,CLAY COUNTY,4,4,2,0,0,6,0,0,FALSE
US,AL,36260,OXFORD (CALHOUN CO),1,4,1,5,0,10,0,0,FALSE
US,AL,36261,EDWARDSVILLE,1,4,2,2,0,8,0,0,FALSE
US,AL,36262,CLEBURNE COUNTY,1,4,2,0,0,6,0,0,FALSE
US,AL,36263,RANDOLPH COUNTY,2,4,2.5,0,0,6.5,0,0,FALSE
US,AL,36264,CLEBURNE COUNTY,3,4,2,0,0,6,0,0,FALSE
US,AL,36265,JACKSONVILLE,1,4,1,5,0,10,0,0,FALSE
US,AL,36266,CLAY COUNTY,9,4,2,0,0,6,0,0,FALSE
US,AL,36267,CLAY COUNTY,1,4,2,0,0,6,0,0,FALSE
US,AL,36268,TALLADEGA COUNTY,1,4,3,0,0,7,0,0,FALSE
US,AL,36269,CLEBURNE COUNTY,1,4,2,0,0,6,0,0,FALSE
US,AL,36271,CALHOUN COUNTY,1,4,3,0,0,7,0,0,FALSE
US,AL,36272,CHEROKEE COUNTY,2,4,3.5,0,0,7.5,0,0,FALSE
US,AL,36273,CLEBURNE COUNTY,2,4,2,0,0,6,0,0,FALSE
US,AL,36274,RANDOLPH COUNTY,1,4,2.5,0,0,6.5,0,0,FALSE
US,AL,36275,CHEROKEE COUNTY,1,4,3.5,0,0,7.5,0,0,FALSE
US,AL,36276,RANDOLPH COUNTY,7,4,2.5,0,0,6.5,0,0,FALSE
US,AL,36277,WEAVER,1,4,1,5,0,10,0,0,FALSE
US,AL,36278,RANDOLPH COUNTY,3,4,2.5,0,0,6.5,0,0,FALSE
US,AL,36279,CALHOUN COUNTY,1,4,3,0,0,7,0,0,FALSE
US,AL,36280,RANDOLPH COUNTY,3,4,2.5,0,0,6.5,0,0,FALSE
US,AL,36301,DOTHAN (HOUSTON CO),6,4,1,4,0,9,0,0,FALSE
US,AL,36302,DOTHAN (HOUSTON CO),1,4,1,4,0,9,0,0,FALSE
US,AL,36303,DOTHAN (HOUSTON CO),3,4,1,4,0,9,0,0,FALSE
US,AL,36305,DOTHAN (HOUSTON CO),3,4,1,4,0,9,0,0,FALSE
US,AL,36310,HENRY COUNTY,2,4,2,0,0,6,0,0,FALSE
US,AL,36311,DALE COUNTY,1,4,2,0,0,6,0,0,FALSE
US,AL,36312,HOUSTON COUNTY,2,4,1,0,0,5,0,0,FALSE
US,AL,36313,GENEVA COUNTY,1,4,2,0,0,6,0,0,FALSE
US,AL,36314,BLACK,1,4,2,2,0,8,0,0,FALSE
US,AL,36316,GENEVA COUNTY,1,4,2,0,0,6,0,0,FALSE
US,AL,36317,HENRY COUNTY,1,4,2,0,0,6,0,0,FALSE
US,AL,36318,GENEVA COUNTY,1,4,2,0,0,6,0,0,FALSE
US,AL,36319,HENRY COUNTY,2,4,2,0,0,6,0,0,FALSE
US,AL,36320,HOUSTON COUNTY,2,4,1,0,0,5,0,0,FALSE
US,AL,36321,COWARTS,1,4,1,2,0,7,0,0,FALSE
US,AL,36322,DALEVILLE,3,4,1,4,0,9,0,0,FALSE
US,AL,36323,COFFEE COUNTY,1,4,1,0,0,5,0,0,FALSE
US,AL,36330,ENTERPRISE (COFFEE CO),1,4,1,4,0,9,0,0,FALSE
US,AL,36340,GENEVA,1,4,2,3.5,0,9.5,0,0,FALSE
US,AL,36343,HOUSTON COUNTY,2,4,1,0,0,5,0,0,FALSE
US,AL,36344,GENEVA COUNTY,1,4,2,0,0,6,0,0,FALSE
US,AL,36345,HEADLAND,1,4,2,3,0,9,0,0,FALSE
US,AL,36346,COFFEE COUNTY,3,4,1,0,0,5,0,0,FALSE
US,AL,36349,MALVERN,1,4,2,2,0,8,0,0,FALSE
US,AL,36350,DALE COUNTY,1,4,2,0,0,6,0,0,FALSE
US,AL,36351,COFFEE COUNTY,1,4,1,0,0,5,0,0,FALSE
US,AL,36352,HOUSTON COUNTY,2,4,1,0,0,5,0,0,FALSE
US,AL,36353,HENRY COUNTY,4,4,2,0,0,6,0,0,FALSE
US,AL,36360,OZARK,1,4,1,4,0,9,0,0,FALSE
US,AL,36361,OZARK,1,4,1,4,0,9,0,0,FALSE
US,AL,36362,DALE COUNTY,1,4,2,0,0,6,0,0,FALSE
US,AL,36370,HOUSTON COUNTY,1,4,1,0,0,5,0,0,FALSE
US,AL,36371,PINCKARD,1,4,2,2,0,8,0,0,FALSE
US,AL,36373,HENRY COUNTY,1,4,2,0,0,6,0,0,FALSE
US,AL,36374,DALE COUNTY,3,4,2,0,0,6,0,0,FALSE
US,AL,36375,GENEVA COUNTY,1,4,2,0,0,6,0,0,FALSE
US,AL,36376,WEBB,1,4,1,3,0,8,0,0,FALSE
US,AL,36401,CONECUH COUNTY,1,4,2,0,0,6,0,0,FALSE
US,AL,36420,ANDALUSIA,8,4,2.5,3.5,0,10,0,0,FALSE
US,AL,36421,COVINGTON COUNTY,1,4,2.5,0,0,6.5,0,0,FALSE
US,AL,36425,MONROE COUNTY,1,4,2.5,0,0,6.5,0,0,FALSE
US,AL,36426,ESCAMBIA COUNTY,5,4,5,0,0,9,0,0,FALSE
US,AL,36429,CONECUH COUNTY,1,4,2,0,0,6,0,0,FALSE
US,AL,36432,CONECUH COUNTY,1,4,2,0,0,6,0,0,FALSE
US,AL,36435,WILCOX COUNTY,1,4,4.5,0,0,8.5,0,0,FALSE
US,AL,36436,CLARKE COUNTY,2,4,1,0,0,5,0,0,FALSE
US,AL,36439,EXCEL,1,4,2.5,2,0,8.5,0,0,FALSE
US,AL,36441,ESCAMBIA COUNTY,2,4,5,0,0,9,0,0,FALSE
US,AL,36442,FLORALA,2,4,2.5,3.5,0,10,0,0,FALSE
US,AL,36444,MONROE COUNTY,1,4,2.5,0,0,6.5,0,0,FALSE
US,AL,36445,MONROE COUNTY,1,4,2.5,0,0,6.5,0,0,FALSE
US,AL,36446,FULTON,1,4,1,3,0,8,0,0,FALSE
US,AL,36449,MONROE COUNTY,1,4,2.5,0,0,6.5,0,0,FALSE
US,AL,36451,CLARKE COUNTY,2,4,1,0,0,5,0,0,FALSE
US,AL,36453,GENEVA COUNTY,1,4,2,0,0,6,0,0,FALSE
US,AL,36454,CONECUH COUNTY,1,4,2,0,0,6,0,0,FALSE
US,AL,36455,LOCKHART,1,4,2.5,2,0,8.5,0,0,FALSE
US,AL,36456,BUTLER COUNTY,1,4,1.5,0,0,5.5,0,0,FALSE
US,AL,36458,MONROEVILLE PJ,1,4,2.5,0,1.25,7.75,0,0,FALSE
US,AL,36460,MONROEVILLE,1,4,2.5,2.5,0,9,0,0,FALSE
US,AL,36467,OPP,3,4,2.5,3.5,0,10,0,0,FALSE
US,AL,36470,MONROE COUNTY,2,4,2.5,0,0,6.5,0,0,FALSE
US,AL,36471,MONROE COUNTY,1,4,2.5,0,0,6.5,0,0,FALSE
US,AL,36473,CONECUH COUNTY,1,4,2,0,0,6,0,0,FALSE
US,AL,36474,COVINGTON COUNTY,1,4,2.5,0,0,6.5,0,0,FALSE
US,AL,36475,CONECUH COUNTY,1,4,2,0,0,6,0,0,FALSE
US,AL,36476,RIVER FALLS,1,4,2.5,2,0,8.5,0,0,FALSE
US,AL,36477,SAMSON,1,4,2,3,0,9,0,0,FALSE
US,AL,36480,MONROE COUNTY,2,4,2.5,0,0,6.5,0,0,FALSE
US,AL,36481,MONROE COUNTY,2,4,2.5,0,0,6.5,0,0,FALSE
US,AL,36482,CLARKE COUNTY,3,4,1,0,0,5,0,0,FALSE
US,AL,36483,COVINGTON COUNTY,2,4,2.5,0,0,6.5,0,0,FALSE
US,AL,36502,ATMORE PJ,3,4,3.5,0,2,9.5,0,0,FALSE
US,AL,36503,ATMORE,1,4,2,4,0,10,0,0,FALSE
US,AL,36505,CREOLA PJ,2,4,1.5,0,2,7.5,0,0,FALSE
US,AL,36507,BAY MINETTE PJ,3,4,3,0,1.5,8.5,0,0,FALSE
US,AL,36509,BAYOU LA BATRE,1,4,1.5,4.5,0,10,0,0,FALSE
US,AL,36511,BALDWIN COUNTY,1,4,3,0,0,7,0,0,FALSE
US,AL,36512,MOBILE COUNTY,1,4,1.5,0,0,5.5,0,0,FALSE
US,AL,36513,MOBILE COUNTY,1,4,1.5,0,0,5.5,0,0,FALSE
US,AL,36518,WASHINGTON,1,4,1,0,0,5,0,0,FALSE
US,AL,36521,MOBILE COUNTY,5,4,1.5,0,0,5.5,0,0,FALSE
US,AL,36522,CITRONELLE,1,4,1.5,4.5,0,10,0,0,FALSE
US,AL,36523,MOBILE COUNTY,4,4,1.5,0,0,5.5,0,0,FALSE
US,AL,36524,CLARKE COUNTY,1,4,1,0,0,5,0,0,FALSE
US,AL,36525,CREOLA,1,4,1.5,4,0,9.5,0,0,FALSE
US,AL,36526,DAPHNE,1,4,3,2.5,0,9.5,0,0,FALSE
US,AL,36527,SPANISH FORT,2,4,3,1.5,0,8.5,0,0,FALSE
US,AL,36528,DAUPHIN ISLAND,1,4,1.5,4.5,0,10,0,0,FALSE
US,AL,36529,WASHINGTON,3,4,1,0,0,5,0,0,FALSE
US,AL,36530,ELBERTA PJ,4,4,3,0,2,9,0,0,FALSE
US,AL,36532,FAIRHOPE PJ,1,4,3,0,1,8,0,0,FALSE
US,AL,36533,FAIRHOPE,1,4,3,2,0,9,0,0,FALSE
US,AL,36535,FOLEY,4,4,3,3,0,10,0,0,FALSE
US,AL,36536,FOLEY,1,4,3,3,0,10,0,0,FALSE
US,AL,36538,WASHINGTON,2,4,1,0,0,5,0,0,FALSE
US,AL,36539,WASHINGTON,2,4,1,0,0,5,0,0,FALSE
US,AL,36540,CLARKE COUNTY,1,4,1,0,0,5,0,0,FALSE
US,AL,36541,MOBILE COUNTY,1,4,1.5,0,0,5.5,0,0,FALSE
US,AL,36542,GULF SHORES,1,4,3,3,0,10,0,0,FALSE
US,AL,36543,ESCAMBIA COUNTY,1,4,5,0,0,9,0,0,FALSE
US,AL,36544,MOBILE COUNTY,1,4,1.5,0,0,5.5,0,0,FALSE
US,AL,36545,JACKSON,3,4,1,4,0,9,0,0,FALSE
US,AL,36547,GULF SHORES,1,4,3,3,0,10,0,0,FALSE
US,AL,36548,WASHINGTON,3,4,1,0,0,5,0,0,FALSE
US,AL,36549,BALDWIN COUNTY,1,4,3,0,0,7,0,0,FALSE
US,AL,36550,BALDWIN COUNTY,1,4,3,0,0,7,0,0,FALSE
US,AL,36551,LOXLEY PJ,1,4,3,0,1,8,0,0,FALSE
US,AL,36553,WASHINGTON,1,4,1,0,0,5,0,0,FALSE
US,AL,36555,MAGNOLIA SPRINGS,1,4,3,2,0,9,0,0,FALSE
US,AL,36556,WASHINGTON,1,4,1,0,0,5,0,0,FALSE
US,AL,36558,WASHINGTON,8,4,1,0,0,5,0,0,FALSE
US,AL,36559,FAIRHOPE PJ,1,4,3,0,1,8,0,0,FALSE
US,AL,36560,MOBILE COUNTY,2,4,1.5,0,0,5.5,0,0,FALSE
US,AL,36561,ORANGE BEACH,1,4,3,3,0,10,0,0,FALSE
US,AL,36562,BALDWIN COUNTY,1,4,3,0,0,7,0,0,FALSE
US,AL,36564,FAIRHOPE PJ,1,4,3,0,1,8,0,0,FALSE
US,AL,36567,BALDWIN COUNTY,5,4,3,0,0,7,0,0,FALSE
US,AL,36568,BAYOU LA BATRE PJ,1,4,1.5,0,2.25,7.75,0,0,FALSE
US,AL,36569,WASHINGTON,2,4,1,0,0,5,0,0,FALSE
US,AL,36571,SARALAND,1,4,1.5,4.5,0,10,0,0,FALSE
US,AL,36572,SATSUMA,1,4,1.5,4.5,0,10,0,0,FALSE
US,AL,36574,BALDWIN COUNTY,2,4,3,0,0,7,0,0,FALSE
US,AL,36575,SEMMES PJ UN,1,4,1.5,0,1.5,7,0,0,FALSE
US,AL,36576,SILVERHILL PJ,1,4,3,0,1,8,0,0,FALSE
US,AL,36577,DAPHNE,1,4,3,2.5,0,9.5,0,0,FALSE
US,AL,36578,SPANISH FORT PJ,1,4,3,0,0.75,7.75,0,0,FALSE
US,AL,36579,BALDWIN COUNTY,1,4,3,0,0,7,0,0,FALSE
US,AL,36580,BALDWIN COUNTY,1,4,3,0,0,7,0,0,FALSE
US,AL,36581,WASHINGTON,1,4,1,0,0,5,0,0,FALSE
US,AL,36582,MOBILE PJ,2,4,1.5,0,2.5,8,0,0,FALSE
US,AL,36583,WASHINGTON,1,4,1,0,0,5,0,0,FALSE
US,AL,36584,WASHINGTON,1,4,1,0,0,5,0,0,FALSE
US,AL,36585,WASHINGTON,4,4,1,0,0,5,0,0,FALSE
US,AL,36587,MOBILE COUNTY,1,4,1.5,0,0,5.5,0,0,FALSE
US,AL,36590,MOBILE,1,4,1,5,0,10,0,0,FALSE
US,AL,36601,MOBILE,1,4,1,5,0,10,0,0,FALSE
US,AL,36602,MOBILE,1,4,1,5,0,10,0,0,FALSE
US,AL,36603,MOBILE,1,4,1,5,0,10,0,0,FALSE
US,AL,36604,MOBILE,1,4,1,5,0,10,0,0,FALSE
US,AL,36605,MOBILE,1,4,1,5,0,10,0,0,FALSE
US,AL,36606,MOBILE,1,4,1,5,0,10,0,0,FALSE
US,AL,36607,MOBILE,1,4,1,5,0,10,0,0,FALSE
US,AL,36608,MOBILE,1,4,1,5,0,10,0,0,FALSE
US,AL,36609,MOBILE,1,4,1,5,0,10,0,0,FALSE
US,AL,36610,PRICHARD,3,4,1,5,0,10,0,0,FALSE
US,AL,36611,CHICKASAW,2,4,1.5,4.5,0,10,0,0,FALSE
US,AL,36612,PRICHARD,2,4,1,5,0,10,0,0,FALSE
US,AL,36613,PRICHARD,3,4,1,5,0,10,0,0,FALSE
US,AL,36615,MOBILE,2,4,1,5,0,10,0,0,FALSE
US,AL,36616,MOBILE,1,4,1,5,0,10,0,0,FALSE
US,AL,36617,MOBILE,2,4,1,5,0,10,0,0,FALSE
US,AL,36618,MOBILE,1,4,1,5,0,10,0,0,FALSE
US,AL,36619,MOBILE PJ,2,4,1.5,0,2.5,8,0,0,FALSE
US,AL,36625,MOBILE,1,4,1,5,0,10,0,0,FALSE
US,AL,36628,MOBILE,1,4,1,5,0,10,0,0,FALSE
US,AL,36630,MOBILE,1,4,1,5,0,10,0,0,FALSE
US,AL,36633,MOBILE,1,4,1,5,0,10,0,0,FALSE
US,AL,36640,MOBILE,1,4,1,5,0,10,0,0,FALSE
US,AL,36641,MOBILE,1,4,1,5,0,10,0,0,FALSE
US,AL,36644,MOBILE,1,4,1,5,0,10,0,0,FALSE
US,AL,36652,MOBILE,1,4,1,5,0,10,0,0,FALSE
US,AL,36660,MOBILE,1,4,1,5,0,10,0,0,FALSE
US,AL,36663,CHICKASAW,2,4,1.5,4.5,0,10,0,0,FALSE
US,AL,36670,MOBILE,1,4,1,5,0,10,0,0,FALSE
US,AL,36671,CHICKASAW,1,4,1.5,4.5,0,10,0,0,FALSE
US,AL,36675,MOBILE,1,4,1,5,0,10,0,0,FALSE
US,AL,36685,MOBILE,1,4,1,5,0,10,0,0,FALSE
US,AL,36688,MOBILE COUNTY,1,4,1.5,0,0,5.5,0,0,FALSE
US,AL,36689,MOBILE,1,4,1,5,0,10,0,0,FALSE
US,AL,36691,MOBILE,1,4,1,5,0,10,0,0,FALSE
US,AL,36693,MOBILE,1,4,1,5,0,10,0,0,FALSE
US,AL,36695,MOBILE PJ,1,4,1.5,0,2.5,8,0,0,FALSE
US,AL,36701,SELMA,2,4,1.5,4.5,0,10,0,0,FALSE
US,AL,36703,SELMA,2,4,1.5,4.5,0,10,0,0,FALSE
US,AL,36720,WILCOX COUNTY,1,4,4.5,0,0,8.5,0,0,FALSE
US,AL,36721,WILCOX COUNTY,1,4,4.5,0,0,8.5,0,0,FALSE
US,AL,36722,WILCOX COUNTY,1,4,4.5,0,0,8.5,0,0,FALSE
US,AL,36723,WILCOX COUNTY,1,4,4.5,0,0,8.5,0,0,FALSE
US,AL,36726,WILCOX COUNTY,1,4,4.5,0,0,8.5,0,0,FALSE
US,AL,36727,CLARKE COUNTY,1,4,1,0,0,5,0,0,FALSE
US,AL,36728,WILCOX COUNTY,1,4,4.5,0,0,8.5,0,0,FALSE
US,AL,36732,DEMOPOLIS,1,4,2,3,0,9,0,0,FALSE
US,AL,36736,MARENGO COUNTY,1,4,2,0,0,6,0,0,FALSE
US,AL,36738,MARENGO COUNTY,1,4,2,0,0,6,0,0,FALSE
US,AL,36740,FORKLAND,1,4,3,2,0,9,0,0,FALSE
US,AL,36741,WILCOX COUNTY,1,4,4.5,0,0,8.5,0,0,FALSE
US,AL,36742,MARENGO COUNTY,1,4,2,0,0,6,0,0,FALSE
US,AL,36744,HALE COUNTY,1,4,3,0,0,7,0,0,FALSE
US,AL,36745,MARENGO COUNTY,1,4,2,0,0,6,0,0,FALSE
US,AL,36748,LINDEN,1,4,2,3,0,9,0,0,FALSE
US,AL,36749,AUTAUGA COUNTY,1,4,2,0,0,6,0,0,FALSE
US,AL,36750,CHILTON COUNTY,1,4,4,0,0,8,0,0,FALSE
US,AL,36751,WILCOX COUNTY,1,4,4.5,0,0,8.5,0,0,FALSE
US,AL,36752,LOWNDES COUNTY,2,4,4,0,0,8,0,0,FALSE
US,AL,36753,WILCOX COUNTY,1,4,4.5,0,0,8.5,0,0,FALSE
US,AL,36754,MARENGO COUNTY,1,4,2,0,0,6,0,0,FALSE
US,AL,36756,MARION,2,4,3,3,0,10,0,0,FALSE
US,AL,36758,DALLAS COUNTY,1,4,1.5,0,0,5.5,0,0,FALSE
US,AL,36759,DALLAS COUNTY,1,4,1.5,0,0,5.5,0,0,FALSE
US,AL,36761,DALLAS COUNTY,2,4,1.5,0,0,5.5,0,0,FALSE
US,AL,36762,CLARKE COUNTY,1,4,1,0,0,5,0,0,FALSE
US,AL,36763,MYRTLEWOOD,1,4,2,2,0,8,0,0,FALSE
US,AL,36764,MARENGO COUNTY,1,4,2,0,0,6,0,0,FALSE
US,AL,36765,HALE COUNTY,1,4,3,0,0,7,0,0,FALSE
US,AL,36766,WILCOX COUNTY,1,4,4.5,0,0,8.5,0,0,FALSE
US,AL,36767,DALLAS COUNTY,1,4,1.5,0,0,5.5,0,0,FALSE
US,AL,36768,WILCOX COUNTY,1,4,4.5,0,0,8.5,0,0,FALSE
US,AL,36769,WILCOX COUNTY,1,4,4.5,0,0,8.5,0,0,FALSE
US,AL,36773,DALLAS COUNTY,1,4,1.5,0,0,5.5,0,0,FALSE
US,AL,36775,DALLAS COUNTY,1,4,1.5,0,0,5.5,0,0,FALSE
US,AL,36776,HALE COUNTY,1,4,3,0,0,7,0,0,FALSE
US,AL,36782,MARENGO COUNTY,1,4,2,0,0,6,0,0,FALSE
US,AL,36783,MARENGO COUNTY,1,4,2,0,0,6,0,0,FALSE
US,AL,36784,THOMASVILLE,1,4,1,5,0,10,0,0,FALSE
US,AL,36785,LOWNDES COUNTY,2,4,4,0,0,8,0,0,FALSE
US,AL,36786,UNIONTOWN,1,4,3,3,0,10,0,0,FALSE
US,AL,36790,CHILTON COUNTY,1,4,4,0,0,8,0,0,FALSE
US,AL,36792,BIBB COUNTY,1,4,4,0,0,8,0,0,FALSE
US,AL,36793,BIBB COUNTY,1,4,4,0,0,8,0,0,FALSE
US,AL,36801,OPELIKA,1,4,1,4,0,9,0,0,FALSE
US,AL,36803,OPELIKA,1,4,1,4,0,9,0,0,FALSE
US,AL,36804,OPELIKA UN,1,4,3,0,0,7,0,0,FALSE
US,AL,36830,AUBURN,1,4,1,4,0,9,0,0,FALSE
US,AL,36831,AUBURN,1,4,1,4,0,9,0,0,FALSE
US,AL,36832,AUBURN,1,4,1,4,0,9,0,0,FALSE
US,AL,36849,AUBURN,1,4,1,4,0,9,0,0,FALSE
US,AL,36850,TALLAPOOSA COUNTY,1,4,2,0,0,6,0,0,FALSE
US,AL,36851,RUSSELL CO (RM/7057),1,4,4,0,0,8,0,0,FALSE
US,AL,36852,OPELIKA UN,1,4,3,0,0,7,0,0,FALSE
US,AL,36853,TALLAPOOSA COUNTY,1,4,2,0,0,6,0,0,FALSE
US,AL,36854,VALLEY,5,4,1,5,0,10,0,0,FALSE
US,AL,36855,CHAMBERS COUNTY,1,4,5,0,0,9,0,0,FALSE
US,AL,36856,RUSSELL CO (RM/7057),1,4,4,0,0,8,0,0,FALSE
US,AL,36858,RUSSELL CO (RM/7057),1,4,4,0,0,8,0,0,FALSE
US,AL,36859,RUSSELL CO (RM/7057),1,4,4,0,0,8,0,0,FALSE
US,AL,36860,RUSSELL CO (RM/7057),1,4,4,0,0,8,0,0,FALSE
US,AL,36861,JACKSONS GAP PJ,1,4,2,0,1.5,7.5,0,0,FALSE
US,AL,36862,CHAMBERS COUNTY,2,4,5,0,0,9,0,0,FALSE
US,AL,36863,LANETT,2,4,1,5,0,10,0,0,FALSE
US,AL,36865,LOACHAPOKA,1,4,4,0,0,8,0,0,FALSE
US,AL,36866,MACON COUNTY,1,4,2.5,0,0,6.5,0,0,FALSE
US,AL,36867,PHENIX CITY (RUSSELL CO),2,4,1,4.5,0,9.5,0,0,FALSE
US,AL,36868,PHENIX CITY (RUSSELL CO),2,4,1,4.5,0,9.5,0,0,FALSE
US,AL,36869,PHENIX CITY (RUSSELL CO),2,4,1,4.5,0,9.5,0,0,FALSE
US,AL,36870,PHENIX PJ (LEE CO),2,4,3.5,0,2.25,9.75,0,0,FALSE
US,AL,36871,RUSSELL CO (RM/7057),1,4,4,0,0,8,0,0,FALSE
US,AL,36874,LEE COUNTY,1,4,4,0,0,8,0,0,FALSE
US,AL,36875,RUSSELL CO (RM/7057),1,4,4,0,0,8,0,0,FALSE
US,AL,36877,SMITHS STATION,2,4,4,1,0,9,0,0,FALSE
US,AL,36879,LEE COUNTY,2,4,4,0,0,8,0,0,FALSE
US,AL,36901,SUMTER COUNTY,1,4,3,0,0,7,0,0,FALSE
US,AL,36904,CHOCTAW COUNTY,1,4,3,0,0,7,0,0,FALSE
US,AL,36907,SUMTER COUNTY,1,4,3,0,0,7,0,0,FALSE
US,AL,36908,CHOCTAW COUNTY,1,4,3,0,0,7,0,0,FALSE
US,AL,36910,CHOCTAW COUNTY,1,4,3,0,0,7,0,0,FALSE
US,AL,36912,CHOCTAW COUNTY,1,4,3,0,0,7,0,0,FALSE
US,AL,36913,CHOCTAW COUNTY,1,4,3,0,0,7,0,0,FALSE
US,AL,36915,CHOCTAW COUNTY,1,4,3,0,0,7,0,0,FALSE
US,AL,36916,PENNINGTON,1,4,3,3,0,10,0,0,FALSE
US,AL,36919,CHOCTAW COUNTY,1,4,3,0,0,7,0,0,FALSE
US,AL,36921,CHOCTAW COUNTY,1,4,3,0,0,7,0,0,FALSE
US,AL,36922,CHOCTAW COUNTY,1,4,3,0,0,7,0,0,FALSE
US,AL,36925,YORK,2,4,3,4,0,11,0,0,FALSE
