country,state,zipcode,tax_region_name,RiskLevel,state_rate,county_rate,city_rate,special_rate,combined_rate,medicinal_excise,adult_excise,has_medical_excise
US,AR,71601,PINE BLUFF,4,6.5,1.25,2.25,0,10,0,0,FALSE
US,AR,71602,PINE BLUFF,2,6.5,1.25,2.25,0,10,0,0,FALSE
US,AR,71603,PINE BLUFF,1,6.5,1.25,2.25,0,10,0,0,FALSE
US,AR,71630,ARKANSAS CITY,1,6.5,1.5,0,0,8,0,0,FALSE
US,AR,71631,BRADLEY COUNTY,3,6.5,2,0,0,8.5,0,0,FALSE
US,AR,71635,ASHLEY COUNTY,2,6.5,1.5,0,0,8,0,0,FALSE
US,AR,71638,DERMOTT,1,6.5,2,2,0,10.5,0,0,FALSE
US,AR,71639,DUMAS,1,6.5,1.5,2.5,0,10.5,0,0,FALSE
US,AR,71640,EUDORA,1,6.5,2,2,0,10.5,0,0,FALSE
US,AR,71642,ASHLEY COUNTY,2,6.5,1.5,0,0,8,0,0,FALSE
US,AR,71643,GOULD,3,6.5,2,3,0,11.5,0,0,FALSE
US,AR,71644,JEFFERSON COUNTY,3,6.5,1.25,0,0,7.75,0,0,FALSE
US,AR,71646,ASHLEY COUNTY,9,6.5,1.5,0,0,8,0,0,FALSE
US,AR,71647,BRADLEY COUNTY,8,6.5,2,0,0,8.5,0,0,FALSE
US,AR,71651,BRADLEY COUNTY,2,6.5,2,0,0,8.5,0,0,FALSE
US,AR,71652,CLEVELAND COUNTY,2,6.5,3.25,0,0,9.75,0,0,FALSE
US,AR,71653,LAKE VILLAGE,1,6.5,2,2,0,10.5,0,0,FALSE
US,AR,71654,MCGEHEE,1,6.5,1.5,3,0,11,0,0,FALSE
US,AR,71655,MONTICELLO,1,6.5,2.25,1,0,9.75,0,0,FALSE
US,AR,71658,ASHLEY COUNTY,4,6.5,1.5,0,0,8,0,0,FALSE
US,AR,71659,JEFFERSON COUNTY,2,6.5,1.25,0,0,7.75,0,0,FALSE
US,AR,71660,CLEVELAND COUNTY,3,6.5,3.25,0,0,9.75,0,0,FALSE
US,AR,71661,ASHLEY COUNTY,2,6.5,1.5,0,0,8,0,0,FALSE
US,AR,71662,DESHA COUNTY,1,6.5,1.5,0,0,8,0,0,FALSE
US,AR,71663,ASHLEY COUNTY,1,6.5,1.5,0,0,8,0,0,FALSE
US,AR,71665,CLEVELAND COUNTY,11,6.5,3.25,0,0,9.75,0,0,FALSE
US,AR,71667,LINCOLN COUNTY,8,6.5,2,0,0,8.5,0,0,FALSE
US,AR,71670,DESHA COUNTY,1,6.5,1.5,0,0,8,0,0,FALSE
US,AR,71671,WARREN,5,6.5,2,1,0,9.5,0,0,FALSE
US,AR,71674,DESHA COUNTY,1,6.5,1.5,0,0,8,0,0,FALSE
US,AR,71675,DREW COUNTY,1,6.5,2.25,0,0,8.75,0,0,FALSE
US,AR,71676,ASHLEY COUNTY,1,6.5,1.5,0,0,8,0,0,FALSE
US,AR,71677,WINCHESTER,1,6.5,2.25,0,0,8.75,0,0,FALSE
US,AR,71678,LINCOLN COUNTY,1,6.5,2,0,0,8.5,0,0,FALSE
US,AR,71701,CAMDEN,1,6.5,3,1.75,0,11.25,0,0,FALSE
US,AR,71720,OUACHITA COUNTY,1,6.5,3,0,0,9.5,0,0,FALSE
US,AR,71721,CLARK COUNTY,1,6.5,1.5,0,0,8,0,0,FALSE
US,AR,71722,BLUFF CITY,1,6.5,2,0,0,8.5,0,0,FALSE
US,AR,71724,CALION,1,6.5,2,0,0,8.5,0,0,FALSE
US,AR,71725,DALLAS COUNTY,1,6.5,2,0,0,8.5,0,0,FALSE
US,AR,71726,OUACHITA COUNTY,1,6.5,3,0,0,9.5,0,0,FALSE
US,AR,71728,CLARK COUNTY,1,6.5,1.5,0,0,8,0,0,FALSE
US,AR,71730,EL DORADO,1,6.5,2,1.25,0,9.75,0,0,FALSE
US,AR,71731,EL DORADO,1,6.5,2,1.25,0,9.75,0,0,FALSE
US,AR,71740,COLUMBIA COUNTY,1,6.5,1.5,0,0,8,0,0,FALSE
US,AR,71742,FORDYCE,1,6.5,2,1.5,0,10,0,0,FALSE
US,AR,71743,GURDON,1,6.5,1.5,1.5,0,9.5,0,0,FALSE
US,AR,71744,CALHOUN COUNTY,1,6.5,2.5,0,0,9,0,0,FALSE
US,AR,71745,HARRELL,1,6.5,2.5,0,0,9,0,0,FALSE
US,AR,71747,UNION COUNTY,1,6.5,2,0,0,8.5,0,0,FALSE
US,AR,71748,DALLAS COUNTY,1,6.5,2,0,0,8.5,0,0,FALSE
US,AR,71749,UNION COUNTY,1,6.5,2,0,0,8.5,0,0,FALSE
US,AR,71750,UNION COUNTY,1,6.5,2,0,0,8.5,0,0,FALSE
US,AR,71751,OUACHITA COUNTY,1,6.5,3,0,0,9.5,0,0,FALSE
US,AR,71752,COLUMBIA COUNTY,1,6.5,1.5,0,0,8,0,0,FALSE
US,AR,71753,MAGNOLIA,1,6.5,1.5,2.375,0,10.375,0,0,FALSE
US,AR,71754,MAGNOLIA,1,6.5,1.5,2.375,0,10.375,0,0,FALSE
US,AR,71758,UNION COUNTY,1,6.5,2,0,0,8.5,0,0,FALSE
US,AR,71759,NORPHLET,1,6.5,2,0,0,8.5,0,0,FALSE
US,AR,71762,SMACKOVER,1,6.5,2,0,0,8.5,0,0,FALSE
US,AR,71763,DALLAS COUNTY,2,6.5,2,0,0,8.5,0,0,FALSE
US,AR,71764,OUACHITA COUNTY,1,6.5,3,0,0,9.5,0,0,FALSE
US,AR,71765,UNION COUNTY,1,6.5,2,0,0,8.5,0,0,FALSE
US,AR,71766,THORNTON,1,6.5,2.5,1,0,10,0,0,FALSE
US,AR,71770,COLUMBIA COUNTY,1,6.5,1.5,0,0,8,0,0,FALSE
US,AR,71772,WHELEN SPRINGS,1,6.5,1.5,0,0,8,0,0,FALSE
US,AR,71801,HOPE,1,6.5,2,1,0,9.5,0,0,FALSE
US,AR,71820,LITTLE RIVER COUNTY,1,6.5,2.25,0,0,8.75,0,0,FALSE
US,AR,71822,ASHDOWN,1,6.5,2.25,2,0,10.75,0,0,FALSE
US,AR,71823,BEN LOMOND,1,6.5,2.125,0,0,8.625,0,0,FALSE
US,AR,71825,HEMPSTEAD COUNTY,1,6.5,2,0,0,8.5,0,0,FALSE
US,AR,71826,LAFAYETTE COUNTY,1,6.5,2.25,0,0,8.75,0,0,FALSE
US,AR,71827,LAFAYETTE COUNTY,1,6.5,2.25,0,0,8.75,0,0,FALSE
US,AR,71828,CALE,1,6.5,2,0,0,8.5,0,0,FALSE
US,AR,71831,HEMPSTEAD COUNTY,1,6.5,2,0,0,8.5,0,0,FALSE
US,AR,71832,DE QUEEN,1,6.5,2.125,1,0,9.625,0,0,FALSE
US,AR,71833,HOWARD COUNTY,1,6.5,2.75,0,0,9.25,0,0,FALSE
US,AR,71834,MILLER COUNTY,1,6.5,1.25,0,0,7.75,0,0,FALSE
US,AR,71835,NEVADA COUNTY,1,6.5,2,0,0,8.5,0,0,FALSE
US,AR,71836,LITTLE RIVER COUNTY,1,6.5,2.25,0,0,8.75,0,0,FALSE
US,AR,71837,MILLER COUNTY,1,6.5,1.25,0,0,7.75,0,0,FALSE
US,AR,71838,HEMPSTEAD COUNTY,1,6.5,2,0,0,8.5,0,0,FALSE
US,AR,71839,GARLAND (CITY),1,6.5,1.25,1,0,8.75,0,0,FALSE
US,AR,71840,MILLER COUNTY,1,6.5,1.25,0,0,7.75,0,0,FALSE
US,AR,71841,SEVIER COUNTY,1,6.5,2.125,0,0,8.625,0,0,FALSE
US,AR,71842,SEVIER COUNTY,1,6.5,2.125,0,0,8.625,0,0,FALSE
US,AR,71845,LEWISVILLE,1,6.5,2.25,1,0,9.75,0,0,FALSE
US,AR,71846,SEVIER COUNTY,1,6.5,2.125,0,0,8.625,0,0,FALSE
US,AR,71847,HEMPSTEAD COUNTY,1,6.5,2,0,0,8.5,0,0,FALSE
US,AR,71851,HOWARD COUNTY,1,6.5,2.75,0,0,9.25,0,0,FALSE
US,AR,71852,NASHVILLE,1,6.5,2.75,1,0,10.25,0,0,FALSE
US,AR,71853,LITTLE RIVER COUNTY,1,6.5,2.25,0,0,8.75,0,0,FALSE
US,AR,71854,TEXARKANA,1,6.5,1.25,2.5,0,10.25,0,0,FALSE
US,AR,71855,HEMPSTEAD COUNTY,1,6.5,2,0,0,8.5,0,0,FALSE
US,AR,71857,PRESCOTT,3,6.5,2,1,0,9.5,0,0,FALSE
US,AR,71858,NEVADA COUNTY,1,6.5,2,0,0,8.5,0,0,FALSE
US,AR,71859,HEMPSTEAD COUNTY,2,6.5,2,0,0,8.5,0,0,FALSE
US,AR,71860,STAMPS,1,6.5,2.25,1,0,9.75,0,0,FALSE
US,AR,71861,COLUMBIA COUNTY,1,6.5,1.5,0,0,8,0,0,FALSE
US,AR,71862,HEMPSTEAD COUNTY,1,6.5,2,0,0,8.5,0,0,FALSE
US,AR,71864,WILLISVILLE,1,6.5,2,0,0,8.5,0,0,FALSE
US,AR,71865,WILTON,1,6.5,2.25,1,0,9.75,0,0,FALSE
US,AR,71866,LITTLE RIVER COUNTY,1,6.5,2.25,0,0,8.75,0,0,FALSE
US,AR,71901,HOT SPRINGS (CITY),15,6.5,1.5,1.5,0,9.5,0,0,FALSE
US,AR,71902,HOT SPRINGS (CITY),2,6.5,1.5,1.5,0,9.5,0,0,FALSE
US,AR,71903,HOT SPRINGS (CITY),2,6.5,1.5,1.5,0,9.5,0,0,FALSE
US,AR,71909,GARLAND COUNTY,3,6.5,1.5,0,0,8,0,0,FALSE
US,AR,71910,GARLAND COUNTY,3,6.5,1.5,0,0,8,0,0,FALSE
US,AR,71913,HOT SPRINGS (CITY),3,6.5,1.5,1.5,0,9.5,0,0,FALSE
US,AR,71914,HOT SPRINGS (CITY),2,6.5,1.5,1.5,0,9.5,0,0,FALSE
US,AR,71921,CLARK COUNTY,7,6.5,1.5,0,0,8,0,0,FALSE
US,AR,71922,ANTOINE,1,6.5,2,0,0,8.5,0,0,FALSE
US,AR,71923,ARKADELPHIA,10,6.5,1.5,1,0,9,0,0,FALSE
US,AR,71929,HOT SPRING COUNTY,1,6.5,1.5,0,0,8,0,0,FALSE
US,AR,71932,SCOTT COUNTY,1,6.5,2.625,0,0,9.125,0,0,FALSE
US,AR,71933,HOT SPRING COUNTY,1,6.5,1.5,0,0,8,0,0,FALSE
US,AR,71935,MONTGOMERY COUNTY,4,6.5,3,0,0,9.5,0,0,FALSE
US,AR,71937,POLK COUNTY,2,6.5,2,0,0,8.5,0,0,FALSE
US,AR,71940,PIKE COUNTY,6,6.5,2,0,0,8.5,0,0,FALSE
US,AR,71941,HOT SPRING COUNTY,1,6.5,1.5,0,0,8,0,0,FALSE
US,AR,71942,FRIENDSHIP,1,6.5,1.5,0,0,8,0,0,FALSE
US,AR,71943,GLENWOOD,2,6.5,2,1.5,0,10,0,0,FALSE
US,AR,71944,POLK COUNTY,1,6.5,2,0,0,8.5,0,0,FALSE
US,AR,71945,POLK COUNTY,1,6.5,2,0,0,8.5,0,0,FALSE
US,AR,71949,GARLAND COUNTY,3,6.5,1.5,0,0,8,0,0,FALSE
US,AR,71950,PIKE COUNTY,1,6.5,2,0,0,8.5,0,0,FALSE
US,AR,71952,PIKE COUNTY,1,6.5,2,0,0,8.5,0,0,FALSE
US,AR,71953,MENA,13,6.5,2,1,0,9.5,0,0,FALSE
US,AR,71956,GARLAND COUNTY,1,6.5,1.5,0,0,8,0,0,FALSE
US,AR,71957,MONTGOMERY COUNTY,1,6.5,3,0,0,9.5,0,0,FALSE
US,AR,71958,MURFREESBORO,4,6.5,2,1.5,0,10,0,0,FALSE
US,AR,71959,PIKE COUNTY,1,6.5,2,0,0,8.5,0,0,FALSE
US,AR,71960,MONTGOMERY COUNTY,1,6.5,3,0,0,9.5,0,0,FALSE
US,AR,71961,MONTGOMERY COUNTY,4,6.5,3,0,0,9.5,0,0,FALSE
US,AR,71962,CLARK COUNTY,1,6.5,1.5,0,0,8,0,0,FALSE
US,AR,71964,GARLAND COUNTY,1,6.5,1.5,0,0,8,0,0,FALSE
US,AR,71965,MONTGOMERY COUNTY,1,6.5,3,0,0,9.5,0,0,FALSE
US,AR,71966,ODEN,2,6.5,3,0,0,9.5,0,0,FALSE
US,AR,71968,GARLAND COUNTY,2,6.5,1.5,0,0,8,0,0,FALSE
US,AR,71969,MONTGOMERY COUNTY,2,6.5,3,0,0,9.5,0,0,FALSE
US,AR,71970,MONTGOMERY COUNTY,1,6.5,3,0,0,9.5,0,0,FALSE
US,AR,71971,HOWARD COUNTY,2,6.5,2.75,0,0,9.25,0,0,FALSE
US,AR,71972,POLK COUNTY,1,6.5,2,0,0,8.5,0,0,FALSE
US,AR,71973,POLK COUNTY,1,6.5,2,0,0,8.5,0,0,FALSE
US,AR,71998,ARKADELPHIA,1,6.5,1.5,1,0,9,0,0,FALSE
US,AR,71999,ARKADELPHIA,1,6.5,1.5,1,0,9,0,0,FALSE
US,AR,72001,PERRY COUNTY,1,6.5,2.25,0,0,8.75,0,0,FALSE
US,AR,72002,SALINE,1,6.5,0.375,0,0,6.875,0,0,FALSE
US,AR,72003,ARKANSAS COUNTY,1,6.5,1,0,0,7.5,0,0,FALSE
US,AR,72004,JEFFERSON COUNTY,1,6.5,1.25,0,0,7.75,0,0,FALSE
US,AR,72005,JACKSON COUNTY,2,6.5,2.25,0,0,8.75,0,0,FALSE
US,AR,72006,AUGUSTA,1,6.5,2,1,0,9.5,0,0,FALSE
US,AR,72007,LONOKE COUNTY,1,6.5,1,0,0,7.5,0,0,FALSE
US,AR,72010,BALD KNOB,1,6.5,1.75,1.5,0,9.75,0,0,FALSE
US,AR,72011,SALINE,1,6.5,0.375,0,0,6.875,0,0,FALSE
US,AR,72012,BEEBE,1,6.5,1.75,1,0,9.25,0,0,FALSE
US,AR,72013,VAN BUREN COUNTY,1,6.5,1.5,0,0,8,0,0,FALSE
US,AR,72014,BEEDEVILLE,1,6.5,2.25,0.5,0,9.25,0,0,FALSE
US,AR,72015,BENTON,4,6.5,0.375,2.5,0,9.375,0,0,FALSE
US,AR,72016,PERRY COUNTY,3,6.5,2.25,0,0,8.75,0,0,FALSE
US,AR,72017,PRAIRIE COUNTY,1,6.5,1.5,0,0,8,0,0,FALSE
US,AR,72018,BENTON,1,6.5,0.375,2.5,0,9.375,0,0,FALSE
US,AR,72019,SALINE,2,6.5,0.375,0,0,6.875,0,0,FALSE
US,AR,72020,JACKSON COUNTY,1,6.5,2.25,0,0,8.75,0,0,FALSE
US,AR,72021,BRINKLEY,1,6.5,0,3,0,9.5,0,0,FALSE
US,AR,72022,BRYANT,2,6.5,0.375,3,0,9.875,0,0,FALSE
US,AR,72023,CABOT,1,6.5,1,2,0,9.5,0,0,FALSE
US,AR,72024,LONOKE COUNTY,2,6.5,1,0,0,7.5,0,0,FALSE
US,AR,72025,PERRY COUNTY,5,6.5,2.25,0,0,8.75,0,0,FALSE
US,AR,72026,ARKANSAS COUNTY,1,6.5,1,0,0,7.5,0,0,FALSE
US,AR,72027,CONWAY COUNTY,1,6.5,1.75,0,0,8.25,0,0,FALSE
US,AR,72028,IZARD COUNTY,1,6.5,0.5,0,0,7,0,0,FALSE
US,AR,72029,CLARENDON,1,6.5,0,3,0,9.5,0,0,FALSE
US,AR,72030,CONWAY COUNTY,1,6.5,1.75,0,0,8.25,0,0,FALSE
US,AR,72031,VAN BUREN COUNTY,11,6.5,1.5,0,0,8,0,0,FALSE
US,AR,72032,CONWAY (CITY),10,6.5,0.5,2.125,0,9.125,0,0,FALSE
US,AR,72033,CONWAY (CITY),2,6.5,0.5,2.125,0,9.125,0,0,FALSE
US,AR,72034,CONWAY (CITY),2,6.5,0.5,2.125,0,9.125,0,0,FALSE
US,AR,72035,CONWAY (CITY),2,6.5,0.5,2.125,0,9.125,0,0,FALSE
US,AR,72036,COTTON PLANT,1,6.5,2,1,0,9.5,0,0,FALSE
US,AR,72037,COY,1,6.5,1,0,0,7.5,0,0,FALSE
US,AR,72038,ARKANSAS COUNTY,1,6.5,1,0,0,7.5,0,0,FALSE
US,AR,72039,VAN BUREN COUNTY,4,6.5,1.5,0,0,8,0,0,FALSE
US,AR,72040,DES ARC,1,6.5,1.5,3,0,11,0,0,FALSE
US,AR,72041,PRAIRIE COUNTY,1,6.5,1.5,0,0,8,0,0,FALSE
US,AR,72042,DEWITT,1,6.5,1,3.5,0,11,0,0,FALSE
US,AR,72043,DIAZ,1,6.5,2.25,1,0,9.75,0,0,FALSE
US,AR,72044,CLEBURNE COUNTY,1,6.5,1.625,0,0,8.125,0,0,FALSE
US,AR,72045,WHITE COUNTY,1,6.5,1.75,0,0,8.25,0,0,FALSE
US,AR,72046,ENGLAND,1,6.5,1,3,0,10.5,0,0,FALSE
US,AR,72047,FAULKNER COUNTY,2,6.5,0.5,0,0,7,0,0,FALSE
US,AR,72048,ARKANSAS COUNTY,1,6.5,1,0,0,7.5,0,0,FALSE
US,AR,72051,STONE COUNTY,1,6.5,1,0,0,7.5,0,0,FALSE
US,AR,72052,GARNER,1,6.5,1.75,0,0,8.25,0,0,FALSE
US,AR,72053,LONOKE COUNTY,1,6.5,1,0,0,7.5,0,0,FALSE
US,AR,72055,ARKANSAS COUNTY,1,6.5,1,0,0,7.5,0,0,FALSE
US,AR,72057,GRANT COUNTY,1,6.5,1.25,0,0,7.75,0,0,FALSE
US,AR,72058,FAULKNER COUNTY,6,6.5,0.5,0,0,7,0,0,FALSE
US,AR,72059,ST. FRANCIS COUNTY,1,6.5,2,0,0,8.5,0,0,FALSE
US,AR,72060,PRAIRIE COUNTY,1,6.5,1.5,0,0,8,0,0,FALSE
US,AR,72061,GUY,1,6.5,0.5,1.5,0,8.5,0,0,FALSE
US,AR,72063,CONWAY COUNTY,1,6.5,1.75,0,0,8.25,0,0,FALSE
US,AR,72064,HAZEN,1,6.5,1.5,3,0,11,0,0,FALSE
US,AR,72065,SALINE,2,6.5,0.375,0,0,6.875,0,0,FALSE
US,AR,72066,PRAIRIE COUNTY,1,6.5,1.5,0,0,8,0,0,FALSE
US,AR,72067,CLEBURNE COUNTY,2,6.5,1.625,0,0,8.125,0,0,FALSE
US,AR,72068,HIGGINSON,2,6.5,1.75,1,0,9.25,0,0,FALSE
US,AR,72069,MONROE,5,6.5,0,0,0,6.5,0,0,FALSE
US,AR,72070,PERRY COUNTY,3,6.5,2.25,0,0,8.75,0,0,FALSE
US,AR,72072,LONOKE COUNTY,1,6.5,1,0,0,7.5,0,0,FALSE
US,AR,72073,ARKANSAS COUNTY,1,6.5,1,0,0,7.5,0,0,FALSE
US,AR,72074,HUNTER,1,6.5,2,0,0,8.5,0,0,FALSE
US,AR,72075,JACKSONPORT,1,6.5,2.25,0,0,8.75,0,0,FALSE
US,AR,72076,JACKSONVILLE,3,6.5,1,2,0,9.5,0,0,FALSE
US,AR,72078,JACKSONVILLE,1,6.5,1,2,0,9.5,0,0,FALSE
US,AR,72079,JEFFERSON COUNTY,1,6.5,1.25,0,0,7.75,0,0,FALSE
US,AR,72080,VAN BUREN COUNTY,1,6.5,1.5,0,0,8,0,0,FALSE
US,AR,72081,WHITE COUNTY,3,6.5,1.75,0,0,8.25,0,0,FALSE
US,AR,72082,KENSETT,1,6.5,1.75,0,0,8.25,0,0,FALSE
US,AR,72083,KEO,1,6.5,1,1,0,8.5,0,0,FALSE
US,AR,72084,LEOLA,4,6.5,1.25,0,0,7.75,0,0,FALSE
US,AR,72085,LETONA,1,6.5,1.75,0,0,8.25,0,0,FALSE
US,AR,72086,LONOKE COUNTY,4,6.5,1,0,0,7.5,0,0,FALSE
US,AR,72087,SALINE,2,6.5,0.375,0,0,6.875,0,0,FALSE
US,AR,72088,FAIRFIELD BAY (VAN BUREN CO),2,6.5,1.5,1.5,0,9.5,0,0,FALSE
US,AR,72089,BRYANT,1,6.5,0.375,3,0,9.875,0,0,FALSE
US,AR,72099,JACKSONVILLE,1,6.5,1,2,0,9.5,0,0,FALSE
US,AR,72101,WOODRUFF COUNTY,1,6.5,2,0,0,8.5,0,0,FALSE
US,AR,72102,WHITE COUNTY,1,6.5,1.75,0,0,8.25,0,0,FALSE
US,AR,72103,SALINE,3,6.5,0.375,0,0,6.875,0,0,FALSE
US,AR,72104,HOT SPRING COUNTY,1,6.5,1.5,0,0,8,0,0,FALSE
US,AR,72105,HOT SPRING COUNTY,1,6.5,1.5,0,0,8,0,0,FALSE
US,AR,72106,FAULKNER COUNTY,2,6.5,0.5,0,0,7,0,0,FALSE
US,AR,72107,MENIFEE,1,6.5,1.75,3,0,11.25,0,0,FALSE
US,AR,72108,ST. FRANCIS COUNTY,1,6.5,2,0,0,8.5,0,0,FALSE
US,AR,72110,MORRILTON,1,6.5,1.75,1,0,9.25,0,0,FALSE
US,AR,72111,FAULKNER COUNTY,3,6.5,0.5,0,0,7,0,0,FALSE
US,AR,72112,NEWPORT,9,6.5,2.25,1.5,0,10.25,0,0,FALSE
US,AR,72113,MAUMELLE,2,6.5,1,2,0,9.5,0,0,FALSE
US,AR,72114,NORTH LITTLE ROCK,1,6.5,1,2,0,9.5,0,0,FALSE
US,AR,72115,NORTH LITTLE ROCK,1,6.5,1,2,0,9.5,0,0,FALSE
US,AR,72116,NORTH LITTLE ROCK,1,6.5,1,2,0,9.5,0,0,FALSE
US,AR,72117,NORTH LITTLE ROCK,8,6.5,1,2,0,9.5,0,0,FALSE
US,AR,72118,NORTH LITTLE ROCK,5,6.5,1,2,0,9.5,0,0,FALSE
US,AR,72119,NORTH LITTLE ROCK,1,6.5,1,2,0,9.5,0,0,FALSE
US,AR,72120,SHERWOOD,2,6.5,1,2,0,9.5,0,0,FALSE
US,AR,72121,WHITE COUNTY,6,6.5,1.75,0,0,8.25,0,0,FALSE
US,AR,72122,SALINE,1,6.5,0.375,0,0,6.875,0,0,FALSE
US,AR,72123,PATTERSON,1,6.5,2,1,0,9.5,0,0,FALSE
US,AR,72124,NORTH LITTLE ROCK,3,6.5,1,2,0,9.5,0,0,FALSE
US,AR,72125,PERRY COUNTY,1,6.5,2.25,0,0,8.75,0,0,FALSE
US,AR,72126,PERRY COUNTY,7,6.5,2.25,0,0,8.75,0,0,FALSE
US,AR,72127,CONWAY COUNTY,1,6.5,1.75,0,0,8.25,0,0,FALSE
US,AR,72128,GRANT COUNTY,1,6.5,1.25,0,0,7.75,0,0,FALSE
US,AR,72129,GRANT COUNTY,2,6.5,1.25,0,0,7.75,0,0,FALSE
US,AR,72130,CLEBURNE COUNTY,2,6.5,1.625,0,0,8.125,0,0,FALSE
US,AR,72131,CLEBURNE COUNTY,3,6.5,1.625,0,0,8.125,0,0,FALSE
US,AR,72132,JEFFERSON COUNTY,3,6.5,1.25,0,0,7.75,0,0,FALSE
US,AR,72133,JEFFERSON COUNTY,1,6.5,1.25,0,0,7.75,0,0,FALSE
US,AR,72134,MONROE,3,6.5,0,0,0,6.5,0,0,FALSE
US,AR,72135,PULASKI COUNTY,3,6.5,1,0,0,7.5,0,0,FALSE
US,AR,72136,WHITE COUNTY,2,6.5,1.75,0,0,8.25,0,0,FALSE
US,AR,72137,WHITE COUNTY,2,6.5,1.75,0,0,8.25,0,0,FALSE
US,AR,72139,RUSSELL,1,6.5,1.75,0,0,8.25,0,0,FALSE
US,AR,72140,ST. CHARLES,1,6.5,1,2,0,9.5,0,0,FALSE
US,AR,72141,VAN BUREN COUNTY,1,6.5,1.5,0,0,8,0,0,FALSE
US,AR,72142,PULASKI COUNTY,4,6.5,1,0,0,7.5,0,0,FALSE
US,AR,72143,SEARCY (CITY),2,6.5,1.75,1.5,0,9.75,0,0,FALSE
US,AR,72145,SEARCY (CITY),1,6.5,1.75,1.5,0,9.75,0,0,FALSE
US,AR,72149,SEARCY (CITY),1,6.5,1.75,1.5,0,9.75,0,0,FALSE
US,AR,72150,GRANT COUNTY,5,6.5,1.25,0,0,7.75,0,0,FALSE
US,AR,72152,JEFFERSON COUNTY,2,6.5,1.25,0,0,7.75,0,0,FALSE
US,AR,72153,VAN BUREN COUNTY,3,6.5,1.5,0,0,8,0,0,FALSE
US,AR,72156,CONWAY COUNTY,1,6.5,1.75,0,0,8.25,0,0,FALSE
US,AR,72157,CONWAY COUNTY,1,6.5,1.75,0,0,8.25,0,0,FALSE
US,AR,72160,STUTTGART,1,6.5,1,3,0,10.5,0,0,FALSE
US,AR,72164,LONOKE COUNTY,1,6.5,1,0,0,7.5,0,0,FALSE
US,AR,72165,INDEPENDENCE COUNTY,1,6.5,1.5,0,0,8,0,0,FALSE
US,AR,72166,ARKANSAS COUNTY,1,6.5,1,0,0,7.5,0,0,FALSE
US,AR,72167,SALINE,2,6.5,0.375,0,0,6.875,0,0,FALSE
US,AR,72168,JEFFERSON COUNTY,1,6.5,1.25,0,0,7.75,0,0,FALSE
US,AR,72169,JACKSON COUNTY,1,6.5,2.25,0,0,8.75,0,0,FALSE
US,AR,72170,ULM,1,6.5,1.5,0,0,8,0,0,FALSE
US,AR,72173,FAULKNER COUNTY,2,6.5,0.5,0,0,7,0,0,FALSE
US,AR,72175,JEFFERSON COUNTY,1,6.5,1.25,0,0,7.75,0,0,FALSE
US,AR,72176,LONOKE COUNTY,3,6.5,1,0,0,7.5,0,0,FALSE
US,AR,72178,WEST POINT,1,6.5,1.75,0,0,8.25,0,0,FALSE
US,AR,72179,CLEBURNE COUNTY,2,6.5,1.625,0,0,8.125,0,0,FALSE
US,AR,72180,PULASKI COUNTY,1,6.5,1,0,0,7.5,0,0,FALSE
US,AR,72181,FAULKNER COUNTY,1,6.5,0.5,0,0,7,0,0,FALSE
US,AR,72182,JEFFERSON COUNTY,1,6.5,1.25,0,0,7.75,0,0,FALSE
US,AR,72183,LONOKE COUNTY,1,6.5,1,0,0,7.5,0,0,FALSE
US,AR,72190,NORTH LITTLE ROCK,1,6.5,1,2,0,9.5,0,0,FALSE
US,AR,72199,PULASKI COUNTY,2,6.5,1,0,0,7.5,0,0,FALSE
US,AR,72201,LITTLE ROCK,1,6.5,1,1.5,0,9,0,0,FALSE
US,AR,72202,LITTLE ROCK,1,6.5,1,1.5,0,9,0,0,FALSE
US,AR,72203,LITTLE ROCK,1,6.5,1,1.5,0,9,0,0,FALSE
US,AR,72204,LITTLE ROCK,1,6.5,1,1.5,0,9,0,0,FALSE
US,AR,72205,LITTLE ROCK,1,6.5,1,1.5,0,9,0,0,FALSE
US,AR,72206,PULASKI COUNTY,1,6.5,1,0,0,7.5,0,0,FALSE
US,AR,72207,LITTLE ROCK,2,6.5,1,1.5,0,9,0,0,FALSE
US,AR,72209,LITTLE ROCK,1,6.5,1,1.5,0,9,0,0,FALSE
US,AR,72210,PULASKI COUNTY,1,6.5,1,0,0,7.5,0,0,FALSE
US,AR,72211,LITTLE ROCK,1,6.5,1,1.5,0,9,0,0,FALSE
US,AR,72212,LITTLE ROCK,1,6.5,1,1.5,0,9,0,0,FALSE
US,AR,72214,LITTLE ROCK,1,6.5,1,1.5,0,9,0,0,FALSE
US,AR,72215,LITTLE ROCK,1,6.5,1,1.5,0,9,0,0,FALSE
US,AR,72216,LITTLE ROCK,1,6.5,1,1.5,0,9,0,0,FALSE
US,AR,72217,LITTLE ROCK,1,6.5,1,1.5,0,9,0,0,FALSE
US,AR,72219,LITTLE ROCK,1,6.5,1,1.5,0,9,0,0,FALSE
US,AR,72221,LITTLE ROCK,1,6.5,1,1.5,0,9,0,0,FALSE
US,AR,72222,LITTLE ROCK,1,6.5,1,1.5,0,9,0,0,FALSE
US,AR,72223,LITTLE ROCK,1,6.5,1,1.5,0,9,0,0,FALSE
US,AR,72225,LITTLE ROCK,1,6.5,1,1.5,0,9,0,0,FALSE
US,AR,72227,LITTLE ROCK,1,6.5,1,1.5,0,9,0,0,FALSE
US,AR,72231,NORTH LITTLE ROCK,1,6.5,1,2,0,9.5,0,0,FALSE
US,AR,72255,LITTLE ROCK,1,6.5,1,1.5,0,9,0,0,FALSE
US,AR,72260,LITTLE ROCK,1,6.5,1,1.5,0,9,0,0,FALSE
US,AR,72301,WEST MEMPHIS,1,6.5,2.75,1.5,0,10.75,0,0,FALSE
US,AR,72310,MISSISSIPPI COUNTY,1,6.5,2.5,0,0,9,0,0,FALSE
US,AR,72311,AUBREY,1,6.5,1,0,0,7.5,0,0,FALSE
US,AR,72312,ST. FRANCIS COUNTY,1,6.5,2,0,0,8.5,0,0,FALSE
US,AR,72313,BASSETT,1,6.5,2.5,0,0,9,0,0,FALSE
US,AR,72315,BLYTHEVILLE,2,6.5,2.5,1.5,0,10.5,0,0,FALSE
US,AR,72316,BLYTHEVILLE,1,6.5,2.5,1.5,0,10.5,0,0,FALSE
US,AR,72320,LEE COUNTY,1,6.5,1,0,0,7.5,0,0,FALSE
US,AR,72321,BURDETTE,2,6.5,2.5,0,0,9,0,0,FALSE
US,AR,72322,CALDWELL,1,6.5,2,0,0,8.5,0,0,FALSE
US,AR,72324,CROSS COUNTY,1,6.5,3,0,0,9.5,0,0,FALSE
US,AR,72325,CLARKEDALE,1,6.5,2.75,0,0,9.25,0,0,FALSE
US,AR,72326,ST. FRANCIS COUNTY,1,6.5,2,0,0,8.5,0,0,FALSE
US,AR,72327,CRITTENDEN COUNTY,2,6.5,2.75,0,0,9.25,0,0,FALSE
US,AR,72328,PHILLIPS COUNTY,1,6.5,2,0,0,8.5,0,0,FALSE
US,AR,72329,MISSISSIPPI COUNTY,1,6.5,2.5,0,0,9,0,0,FALSE
US,AR,72330,MISSISSIPPI COUNTY,1,6.5,2.5,0,0,9,0,0,FALSE
US,AR,72331,EARLE,2,6.5,2.75,2,0,11.25,0,0,FALSE
US,AR,72332,EDMONDSON,1,6.5,2.75,0,0,9.25,0,0,FALSE
US,AR,72333,PHILLIPS COUNTY,1,6.5,2,0,0,8.5,0,0,FALSE
US,AR,72335,FORREST,1,6.5,2,1.875,0,10.375,0,0,FALSE
US,AR,72338,MISSISSIPPI COUNTY,1,6.5,2.5,0,0,9,0,0,FALSE
US,AR,72339,GILMORE,1,6.5,2.75,1,0,10.25,0,0,FALSE
US,AR,72340,ST. FRANCIS COUNTY,1,6.5,2,0,0,8.5,0,0,FALSE
US,AR,72341,HAYNES,1,6.5,1,0,0,7.5,0,0,FALSE
US,AR,72342,WEST HELENA,1,6.5,2,2,0,10.5,0,0,FALSE
US,AR,72346,ST. FRANCIS COUNTY,1,6.5,2,0,0,8.5,0,0,FALSE
US,AR,72347,CROSS COUNTY,1,6.5,3,0,0,9.5,0,0,FALSE
US,AR,72348,CRITTENDEN COUNTY,1,6.5,2.75,0,0,9.25,0,0,FALSE
US,AR,72350,MISSISSIPPI COUNTY,1,6.5,2.5,0,0,9,0,0,FALSE
US,AR,72351,KEISER,1,6.5,2.5,2,0,11,0,0,FALSE
US,AR,72352,LA GRANGE,1,6.5,1,0,0,7.5,0,0,FALSE
US,AR,72353,PHILLIPS COUNTY,1,6.5,2,0,0,8.5,0,0,FALSE
US,AR,72354,LE PANTO,1,6.5,1.25,2.25,0,10,0,0,FALSE
US,AR,72355,PHILLIPS COUNTY,1,6.5,2,0,0,8.5,0,0,FALSE
US,AR,72358,LUXORA,2,6.5,2.5,1,0,10,0,0,FALSE
US,AR,72359,MADISON (CITY),1,6.5,2,1,0,9.5,0,0,FALSE
US,AR,72360,MARIANNA,1,6.5,1,2,0,9.5,0,0,FALSE
US,AR,72364,MARION (CITY),1,6.5,2.75,2,0,11.25,0,0,FALSE
US,AR,72365,MARKED TREE,1,6.5,1.25,2,0,9.75,0,0,FALSE
US,AR,72366,PHILLIPS COUNTY,1,6.5,2,0,0,8.5,0,0,FALSE
US,AR,72367,PHILLIPS COUNTY,1,6.5,2,0,0,8.5,0,0,FALSE
US,AR,72368,LEE COUNTY,1,6.5,1,0,0,7.5,0,0,FALSE
US,AR,72369,PHILLIPS COUNTY,1,6.5,2,0,0,8.5,0,0,FALSE
US,AR,72370,OSCEOLA,1,6.5,2.5,1,0,10,0,0,FALSE
US,AR,72372,ST. FRANCIS COUNTY,1,6.5,2,0,0,8.5,0,0,FALSE
US,AR,72373,CROSS COUNTY,1,6.5,3,0,0,9.5,0,0,FALSE
US,AR,72374,PHILLIPS COUNTY,1,6.5,2,0,0,8.5,0,0,FALSE
US,AR,72376,CRITTENDEN COUNTY,1,6.5,2.75,0,0,9.25,0,0,FALSE
US,AR,72377,POINSETT COUNTY,1,6.5,1.25,0,0,7.75,0,0,FALSE
US,AR,72379,DESHA COUNTY,1,6.5,1.5,0,0,8,0,0,FALSE
US,AR,72383,PHILLIPS COUNTY,1,6.5,2,0,0,8.5,0,0,FALSE
US,AR,72384,CRITTENDEN COUNTY,1,6.5,2.75,0,0,9.25,0,0,FALSE
US,AR,72386,POINSETT COUNTY,1,6.5,1.25,0,0,7.75,0,0,FALSE
US,AR,72387,CROSS COUNTY,1,6.5,3,0,0,9.5,0,0,FALSE
US,AR,72389,PHILLIPS COUNTY,1,6.5,2,0,0,8.5,0,0,FALSE
US,AR,72390,WEST HELENA,1,6.5,2,2,0,10.5,0,0,FALSE
US,AR,72391,MISSISSIPPI COUNTY,1,6.5,2.5,0,0,9,0,0,FALSE
US,AR,72392,WHEATLEY,1,6.5,2,1,0,9.5,0,0,FALSE
US,AR,72394,ST. FRANCIS COUNTY,1,6.5,2,0,0,8.5,0,0,FALSE
US,AR,72395,WILSON,1,6.5,2.5,1,0,10,0,0,FALSE
US,AR,72396,WYNNE,1,6.5,3,1,0,10.5,0,0,FALSE
US,AR,72401,JONESBORO,1,6.5,1,1,0,8.5,0,0,FALSE
US,AR,72402,JONESBORO,1,6.5,1,1,0,8.5,0,0,FALSE
US,AR,72403,JONESBORO,1,6.5,1,1,0,8.5,0,0,FALSE
US,AR,72404,JONESBORO,1,6.5,1,1,0,8.5,0,0,FALSE
US,AR,72405,JONESBORO,1,6.5,1,1,0,8.5,0,0,FALSE
US,AR,72410,LAWRENCE COUNTY,1,6.5,2.5,0,0,9,0,0,FALSE
US,AR,72411,BAY,1,6.5,1,1,0,8.5,0,0,FALSE
US,AR,72412,GREENE COUNTY,1,6.5,1.75,0,0,8.25,0,0,FALSE
US,AR,72413,RANDOLPH COUNTY,1,6.5,1.25,0,0,7.75,0,0,FALSE
US,AR,72414,CRAIGHEAD COUNTY,1,6.5,1,0,0,7.5,0,0,FALSE
US,AR,72415,BLACK ROCK,1,6.5,2.5,1,0,10,0,0,FALSE
US,AR,72416,CRAIGHEAD COUNTY,1,6.5,1,0,0,7.5,0,0,FALSE
US,AR,72417,BROOKLAND,1,6.5,1,3,0,10.5,0,0,FALSE
US,AR,72419,CRAIGHEAD COUNTY,1,6.5,1,0,0,7.5,0,0,FALSE
US,AR,72421,CRAIGHEAD COUNTY,1,6.5,1,0,0,7.5,0,0,FALSE
US,AR,72422,CORNING,1,6.5,1.5,1.75,0,9.75,0,0,FALSE
US,AR,72424,LAWRENCE COUNTY,1,6.5,2.5,0,0,9,0,0,FALSE
US,AR,72425,GREENE COUNTY,1,6.5,1.75,0,0,8.25,0,0,FALSE
US,AR,72426,DELL,1,6.5,2.5,0,0,9,0,0,FALSE
US,AR,72427,EGYPT,1,6.5,1,0,0,7.5,0,0,FALSE
US,AR,72428,ETOWAH,1,6.5,2.5,1,0,10,0,0,FALSE
US,AR,72429,POINSETT COUNTY,1,6.5,1.25,0,0,7.75,0,0,FALSE
US,AR,72430,CLAY COUNTY,1,6.5,1.5,0,0,8,0,0,FALSE
US,AR,72431,LAWRENCE COUNTY,1,6.5,2.5,0,0,9,0,0,FALSE
US,AR,72432,POINSETT COUNTY,1,6.5,1.25,0,0,7.75,0,0,FALSE
US,AR,72433,HOXIE,1,6.5,2.5,1,0,10,0,0,FALSE
US,AR,72434,RANDOLPH COUNTY,1,6.5,1.25,0,0,7.75,0,0,FALSE
US,AR,72435,CLAY COUNTY,2,6.5,1.5,0,0,8,0,0,FALSE
US,AR,72436,GREENE COUNTY,2,6.5,1.75,0,0,8.25,0,0,FALSE
US,AR,72437,CRAIGHEAD COUNTY,1,6.5,1,0,0,7.5,0,0,FALSE
US,AR,72438,LEACHVILLE,1,6.5,2.5,0,0,9,0,0,FALSE
US,AR,72440,LYNN,1,6.5,2.5,0,0,9,0,0,FALSE
US,AR,72441,CLAY COUNTY,1,6.5,1.5,0,0,8,0,0,FALSE
US,AR,72442,MISSISSIPPI COUNTY,1,6.5,2.5,0,0,9,0,0,FALSE
US,AR,72443,GREENE COUNTY,1,6.5,1.75,0,0,8.25,0,0,FALSE
US,AR,72444,RANDOLPH COUNTY,1,6.5,1.25,0,0,7.75,0,0,FALSE
US,AR,72445,MINTURN,1,6.5,2.5,0,0,9,0,0,FALSE
US,AR,72447,MONETTE,1,6.5,1,1,0,8.5,0,0,FALSE
US,AR,72449,LAWRENCE COUNTY,1,6.5,2.5,0,0,9,0,0,FALSE
US,AR,72450,PARAGOULD,1,6.5,1.75,0.75,0,9,0,0,FALSE
US,AR,72451,PARAGOULD,1,6.5,1.75,0.75,0,9,0,0,FALSE
US,AR,72453,CLAY COUNTY,1,6.5,1.5,0,0,8,0,0,FALSE
US,AR,72454,PIGGOTT,1,6.5,1.5,2,0,10,0,0,FALSE
US,AR,72455,RANDOLPH COUNTY,1,6.5,1.25,0,0,7.75,0,0,FALSE
US,AR,72456,CLAY COUNTY,1,6.5,1.5,0,0,8,0,0,FALSE
US,AR,72457,PORTIA,1,6.5,2.5,1,0,10,0,0,FALSE
US,AR,72458,LAWRENCE COUNTY,1,6.5,2.5,0,0,9,0,0,FALSE
US,AR,72459,RANDOLPH COUNTY,1,6.5,1.25,0,0,7.75,0,0,FALSE
US,AR,72460,RANDOLPH COUNTY,1,6.5,1.25,0,0,7.75,0,0,FALSE
US,AR,72461,RECTOR,1,6.5,1.5,2,0,10,0,0,FALSE
US,AR,72462,REYNO,1,6.5,1.25,0,0,7.75,0,0,FALSE
US,AR,72464,CLAY COUNTY,1,6.5,1.5,0,0,8,0,0,FALSE
US,AR,72465,SEDGWICK,1,6.5,2.5,0,0,9,0,0,FALSE
US,AR,72466,LAWRENCE COUNTY,1,6.5,2.5,0,0,9,0,0,FALSE
US,AR,72467,JONESBORO,1,6.5,1,1,0,8.5,0,0,FALSE
US,AR,72469,LAWRENCE COUNTY,2,6.5,2.5,0,0,9,0,0,FALSE
US,AR,72470,CLAY COUNTY,1,6.5,1.5,0,0,8,0,0,FALSE
US,AR,72471,SWIFTON,1,6.5,2.25,1,0,9.75,0,0,FALSE
US,AR,72472,TRUMANN,1,6.5,1.25,2,0,9.75,0,0,FALSE
US,AR,72473,TUCKERMAN,1,6.5,2.25,1.25,0,10,0,0,FALSE
US,AR,72474,GREENE COUNTY,1,6.5,1.75,0,0,8.25,0,0,FALSE
US,AR,72475,WALDENBURG,1,6.5,1.25,1.5,0,9.25,0,0,FALSE
US,AR,72476,WALNUT RIDGE,1,6.5,2.5,2,0,11,0,0,FALSE
US,AR,72478,RANDOLPH COUNTY,1,6.5,1.25,0,0,7.75,0,0,FALSE
US,AR,72479,POINSETT COUNTY,1,6.5,1.25,0,0,7.75,0,0,FALSE
US,AR,72482,SHARP COUNTY,1,6.5,1.75,0,0,8.25,0,0,FALSE
US,AR,72501,INDEPENDENCE COUNTY,1,6.5,1.5,0,0,8,0,0,FALSE
US,AR,72512,HORSESHOE BEND (IZARD CO),2,6.5,0.5,2,0,9,0,0,FALSE
US,AR,72513,FULTON COUNTY,1,6.5,3,0,0,9.5,0,0,FALSE
US,AR,72515,FULTON COUNTY,1,6.5,3,0,0,9.5,0,0,FALSE
US,AR,72517,IZARD COUNTY,1,6.5,0.5,0,0,7,0,0,FALSE
US,AR,72519,BAXTER COUNTY,2,6.5,1.25,0,0,7.75,0,0,FALSE
US,AR,72520,FULTON COUNTY,1,6.5,3,0,0,9.5,0,0,FALSE
US,AR,72521,SHARP COUNTY,1,6.5,1.75,0,0,8.25,0,0,FALSE
US,AR,72522,INDEPENDENCE COUNTY,1,6.5,1.5,0,0,8,0,0,FALSE
US,AR,72523,CLEBURNE COUNTY,1,6.5,1.625,0,0,8.125,0,0,FALSE
US,AR,72524,INDEPENDENCE COUNTY,1,6.5,1.5,0,0,8,0,0,FALSE
US,AR,72526,CUSHMAN,1,6.5,1.5,0,0,8,0,0,FALSE
US,AR,72527,INDEPENDENCE COUNTY,1,6.5,1.5,0,0,8,0,0,FALSE
US,AR,72528,IZARD COUNTY,1,6.5,0.5,0,0,7,0,0,FALSE
US,AR,72529,CHEROKEE VILLAGE,2,6.5,1.75,1,0,9.25,0,0,FALSE
US,AR,72530,CLEBURNE COUNTY,2,6.5,1.625,0,0,8.125,0,0,FALSE
US,AR,72531,BAXTER COUNTY,1,6.5,1.25,0,0,7.75,0,0,FALSE
US,AR,72532,SHARP COUNTY,1,6.5,1.75,0,0,8.25,0,0,FALSE
US,AR,72533,STONE COUNTY,1,6.5,1,0,0,7.5,0,0,FALSE
US,AR,72534,INDEPENDENCE COUNTY,1,6.5,1.5,0,0,8,0,0,FALSE
US,AR,72536,FRANKLIN (CITY),2,6.5,0.5,1,0,8,0,0,FALSE
US,AR,72537,BAXTER COUNTY,1,6.5,1.25,0,0,7.75,0,0,FALSE
US,AR,72538,FULTON COUNTY,1,6.5,3,0,0,9.5,0,0,FALSE
US,AR,72539,FULTON COUNTY,1,6.5,3,0,0,9.5,0,0,FALSE
US,AR,72540,IZARD COUNTY,1,6.5,0.5,0,0,7,0,0,FALSE
US,AR,72542,SHARP COUNTY,2,6.5,1.75,0,0,8.25,0,0,FALSE
US,AR,72543,CLEBURNE COUNTY,2,6.5,1.625,0,0,8.125,0,0,FALSE
US,AR,72544,BAXTER COUNTY,1,6.5,1.25,0,0,7.75,0,0,FALSE
US,AR,72545,HEBER SPRINGS,1,6.5,1.625,1,0,9.125,0,0,FALSE
US,AR,72546,CLEBURNE COUNTY,1,6.5,1.625,0,0,8.125,0,0,FALSE
US,AR,72550,INDEPENDENCE COUNTY,1,6.5,1.5,0,0,8,0,0,FALSE
US,AR,72553,MAGNESS,1,6.5,1.5,0,0,8,0,0,FALSE
US,AR,72554,FULTON COUNTY,1,6.5,3,0,0,9.5,0,0,FALSE
US,AR,72555,STONE COUNTY,1,6.5,1,0,0,7.5,0,0,FALSE
US,AR,72556,IZARD COUNTY,3,6.5,0.5,0,0,7,0,0,FALSE
US,AR,72560,STONE COUNTY,1,6.5,1,0,0,7.5,0,0,FALSE
US,AR,72561,IZARD COUNTY,1,6.5,0.5,0,0,7,0,0,FALSE
US,AR,72562,NEWARK,1,6.5,1.5,0,0,8,0,0,FALSE
US,AR,72564,INDEPENDENCE COUNTY,1,6.5,1.5,0,0,8,0,0,FALSE
US,AR,72565,OXFORD,1,6.5,0.5,1,0,8,0,0,FALSE
US,AR,72566,IZARD COUNTY,1,6.5,0.5,0,0,7,0,0,FALSE
US,AR,72567,STONE COUNTY,1,6.5,1,0,0,7.5,0,0,FALSE
US,AR,72568,INDEPENDENCE COUNTY,1,6.5,1.5,0,0,8,0,0,FALSE
US,AR,72569,SHARP COUNTY,1,6.5,1.75,0,0,8.25,0,0,FALSE
US,AR,72571,INDEPENDENCE COUNTY,1,6.5,1.5,0,0,8,0,0,FALSE
US,AR,72572,LAWRENCE COUNTY,1,6.5,2.5,0,0,9,0,0,FALSE
US,AR,72573,IZARD COUNTY,1,6.5,0.5,0,0,7,0,0,FALSE
US,AR,72575,INDEPENDENCE COUNTY,1,6.5,1.5,0,0,8,0,0,FALSE
US,AR,72576,FULTON COUNTY,2,6.5,3,0,0,9.5,0,0,FALSE
US,AR,72577,IZARD COUNTY,1,6.5,0.5,0,0,7,0,0,FALSE
US,AR,72578,FULTON COUNTY,1,6.5,3,0,0,9.5,0,0,FALSE
US,AR,72579,INDEPENDENCE COUNTY,1,6.5,1.5,0,0,8,0,0,FALSE
US,AR,72581,CLEBURNE COUNTY,1,6.5,1.625,0,0,8.125,0,0,FALSE
US,AR,72583,FULTON COUNTY,1,6.5,3,0,0,9.5,0,0,FALSE
US,AR,72584,IZARD COUNTY,2,6.5,0.5,0,0,7,0,0,FALSE
US,AR,72585,IZARD COUNTY,2,6.5,0.5,0,0,7,0,0,FALSE
US,AR,72587,IZARD COUNTY,1,6.5,0.5,0,0,7,0,0,FALSE
US,AR,72601,BOONE COUNTY,2,6.5,1.25,0,0,7.75,0,0,FALSE
US,AR,72602,HARRISON,1,6.5,1.25,1.25,0,9,0,0,FALSE
US,AR,72611,CARROLL COUNTY,1,6.5,0.5,0,0,7,0,0,FALSE
US,AR,72613,BEAVER,1,6.5,0.5,0,0,7,0,0,FALSE
US,AR,72615,BERGMAN,1,6.5,1.25,0,0,7.75,0,0,FALSE
US,AR,72616,CARROLL COUNTY,5,6.5,0.5,0,0,7,0,0,FALSE
US,AR,72617,BAXTER COUNTY,2,6.5,1.25,0,0,7.75,0,0,FALSE
US,AR,72619,BULL SHOALS,1,6.5,1.75,2,0,10.25,0,0,FALSE
US,AR,72623,BAXTER COUNTY,1,6.5,1.25,0,0,7.75,0,0,FALSE
US,AR,72624,NEWTON COUNTY,1,6.5,1,0,0,7.5,0,0,FALSE
US,AR,72626,COTTER,1,6.5,1.25,2,0,9.75,0,0,FALSE
US,AR,72628,NEWTON COUNTY,4,6.5,1,0,0,7.5,0,0,FALSE
US,AR,72629,VAN BUREN COUNTY,1,6.5,1.5,0,0,8,0,0,FALSE
US,AR,72631,CARROLL COUNTY,3,6.5,0.5,0,0,7,0,0,FALSE
US,AR,72632,CARROLL COUNTY,2,6.5,0.5,0,0,7,0,0,FALSE
US,AR,72633,BOONE COUNTY,1,6.5,1.25,0,0,7.75,0,0,FALSE
US,AR,72634,MARION COUNTY,2,6.5,1.75,0,0,8.25,0,0,FALSE
US,AR,72635,BAXTER COUNTY,4,6.5,1.25,0,0,7.75,0,0,FALSE
US,AR,72636,GILBERT,1,6.5,1.5,1,0,9,0,0,FALSE
US,AR,72638,CARROLL COUNTY,2,6.5,0.5,0,0,7,0,0,FALSE
US,AR,72639,SEARCY COUNTY,1,6.5,1.5,0,0,8,0,0,FALSE
US,AR,72640,NEWTON COUNTY,1,6.5,1,0,0,7.5,0,0,FALSE
US,AR,72641,JASPER,5,6.5,1,2,0,9.5,0,0,FALSE
US,AR,72642,BAXTER COUNTY,1,6.5,1.25,0,0,7.75,0,0,FALSE
US,AR,72644,BOONE COUNTY,2,6.5,1.25,0,0,7.75,0,0,FALSE
US,AR,72645,SEARCY COUNTY,1,6.5,1.5,0,0,8,0,0,FALSE
US,AR,72648,NEWTON COUNTY,4,6.5,1,0,0,7.5,0,0,FALSE
US,AR,72650,SEARCY COUNTY,1,6.5,1.5,0,0,8,0,0,FALSE
US,AR,72651,BAXTER COUNTY,1,6.5,1.25,0,0,7.75,0,0,FALSE
US,AR,72653,BAXTER COUNTY,2,6.5,1.25,0,0,7.75,0,0,FALSE
US,AR,72654,MOUNTAIN HOME,1,6.5,1.25,1.375,0,9.125,0,0,FALSE
US,AR,72655,NEWTON COUNTY,2,6.5,1,0,0,7.5,0,0,FALSE
US,AR,72657,STONE COUNTY,1,6.5,1,0,0,7.5,0,0,FALSE
US,AR,72658,BAXTER COUNTY,2,6.5,1.25,0,0,7.75,0,0,FALSE
US,AR,72659,NORFORK,1,6.5,1.25,1,0,8.75,0,0,FALSE
US,AR,72660,CARROLL COUNTY,1,6.5,0.5,0,0,7,0,0,FALSE
US,AR,72661,MARION COUNTY,2,6.5,1.75,0,0,8.25,0,0,FALSE
US,AR,72662,BOONE COUNTY,1,6.5,1.25,0,0,7.75,0,0,FALSE
US,AR,72663,STONE COUNTY,1,6.5,1,0,0,7.5,0,0,FALSE
US,AR,72666,NEWTON COUNTY,1,6.5,1,0,0,7.5,0,0,FALSE
US,AR,72668,MARION COUNTY,1,6.5,1.75,0,0,8.25,0,0,FALSE
US,AR,72669,PINDALL,1,6.5,1.5,0,0,8,0,0,FALSE
US,AR,72670,NEWTON COUNTY,1,6.5,1,0,0,7.5,0,0,FALSE
US,AR,72672,PYATT,1,6.5,1.75,0.5,0,8.75,0,0,FALSE
US,AR,72675,SEARCY COUNTY,1,6.5,1.5,0,0,8,0,0,FALSE
US,AR,72677,SUMMIT,1,6.5,1.75,1,0,9.25,0,0,FALSE
US,AR,72679,POPE COUNTY,1,6.5,1,0,0,7.5,0,0,FALSE
US,AR,72680,STONE COUNTY,1,6.5,1,0,0,7.5,0,0,FALSE
US,AR,72682,MARION COUNTY,2,6.5,1.75,0,0,8.25,0,0,FALSE
US,AR,72683,NEWTON COUNTY,1,6.5,1,0,0,7.5,0,0,FALSE
US,AR,72685,NEWTON COUNTY,3,6.5,1,0,0,7.5,0,0,FALSE
US,AR,72686,SEARCY COUNTY,1,6.5,1.5,0,0,8,0,0,FALSE
US,AR,72687,MARION COUNTY,1,6.5,1.75,0,0,8.25,0,0,FALSE
US,AR,72701,FAYETTEVILLE,1,6.5,1.25,2,0,9.75,0,0,FALSE
US,AR,72702,FAYETTEVILLE,1,6.5,1.25,2,0,9.75,0,0,FALSE
US,AR,72703,FAYETTEVILLE,1,6.5,1.25,2,0,9.75,0,0,FALSE
US,AR,72704,FAYETTEVILLE,2,6.5,1.25,2,0,9.75,0,0,FALSE
US,AR,72711,AVOCA,1,6.5,1,1,0,8.5,0,0,FALSE
US,AR,72712,BENTONVILLE,1,6.5,1,2,0,9.5,0,0,FALSE
US,AR,72713,BENTONVILLE,1,6.5,1,2,0,9.5,0,0,FALSE
US,AR,72714,BELLA VISTA,1,6.5,1,1,0,8.5,0,0,FALSE
US,AR,72715,BELLA VISTA,2,6.5,1,1,0,8.5,0,0,FALSE
US,AR,72716,BENTONVILLE,1,6.5,1,2,0,9.5,0,0,FALSE
US,AR,72717,WASHINGTON COUNTY,1,6.5,1.25,0,0,7.75,0,0,FALSE
US,AR,72718,CAVE SPRINGS,1,6.5,1,1,0,8.5,0,0,FALSE
US,AR,72719,CENTERTON,1,6.5,1,2,0,9.5,0,0,FALSE
US,AR,72721,MADISON COUNTY,1,6.5,2,0,0,8.5,0,0,FALSE
US,AR,72722,BENTON COUNTY,1,6.5,1,0,0,7.5,0,0,FALSE
US,AR,72727,MADISON COUNTY,1,6.5,2,0,0,8.5,0,0,FALSE
US,AR,72728,ELM SPRINGS (WASHINGTON CO),1,6.5,1.25,1,0,8.75,0,0,FALSE
US,AR,72729,WASHINGTON COUNTY,1,6.5,1.25,0,0,7.75,0,0,FALSE
US,AR,72730,FARMINGTON,2,6.5,1.25,2,0,9.75,0,0,FALSE
US,AR,72732,BENTON COUNTY,1,6.5,1,0,0,7.5,0,0,FALSE
US,AR,72733,GATEWAY,1,6.5,1,0,0,7.5,0,0,FALSE
US,AR,72734,BENTON COUNTY,2,6.5,1,0,0,7.5,0,0,FALSE
US,AR,72735,GOSHEN,1,6.5,1.25,1,0,8.75,0,0,FALSE
US,AR,72736,BENTON COUNTY,1,6.5,1,0,0,7.5,0,0,FALSE
US,AR,72737,FAYETTEVILLE,1,6.5,1.25,2,0,9.75,0,0,FALSE
US,AR,72738,MADISON COUNTY,1,6.5,2,0,0,8.5,0,0,FALSE
US,AR,72739,GRAVETTE,1,6.5,1,2,0,9.5,0,0,FALSE
US,AR,72740,MADISON COUNTY,1,6.5,2,0,0,8.5,0,0,FALSE
US,AR,72741,WASHINGTON COUNTY,1,6.5,1.25,0,0,7.75,0,0,FALSE
US,AR,72742,MADISON COUNTY,1,6.5,2,0,0,8.5,0,0,FALSE
US,AR,72744,WASHINGTON COUNTY,1,6.5,1.25,0,0,7.75,0,0,FALSE
US,AR,72745,LOWELL,1,6.5,1,2,0,9.5,0,0,FALSE
US,AR,72747,BENTON COUNTY,1,6.5,1,0,0,7.5,0,0,FALSE
US,AR,72749,WASHINGTON COUNTY,1,6.5,1.25,0,0,7.75,0,0,FALSE
US,AR,72751,PEA RIDGE,1,6.5,1,1,0,8.5,0,0,FALSE
US,AR,72752,MADISON COUNTY,1,6.5,2,0,0,8.5,0,0,FALSE
US,AR,72753,WASHINGTON COUNTY,1,6.5,1.25,0,0,7.75,0,0,FALSE
US,AR,72756,ROGERS,2,6.5,1,2,0,9.5,0,0,FALSE
US,AR,72757,ROGERS,1,6.5,1,2,0,9.5,0,0,FALSE
US,AR,72758,ROGERS,1,6.5,1,2,0,9.5,0,0,FALSE
US,AR,72760,MADISON COUNTY,1,6.5,2,0,0,8.5,0,0,FALSE
US,AR,72761,SILOAM SPRINGS,1,6.5,1,2,0,9.5,0,0,FALSE
US,AR,72762,SPRINGDALE (WASHINGTON CO),1,6.5,1.25,2,0,9.75,0,0,FALSE
US,AR,72764,SPRINGDALE (WASHINGTON CO),3,6.5,1.25,2,0,9.75,0,0,FALSE
US,AR,72765,SPRINGDALE (WASHINGTON CO),1,6.5,1.25,2,0,9.75,0,0,FALSE
US,AR,72766,SPRINGDALE (WASHINGTON CO),1,6.5,1.25,2,0,9.75,0,0,FALSE
US,AR,72768,BENTON COUNTY,1,6.5,1,0,0,7.5,0,0,FALSE
US,AR,72769,WASHINGTON COUNTY,1,6.5,1.25,0,0,7.75,0,0,FALSE
US,AR,72770,TONTITOWN,1,6.5,1.25,2.75,0,10.5,0,0,FALSE
US,AR,72773,MADISON COUNTY,1,6.5,2,0,0,8.5,0,0,FALSE
US,AR,72774,WASHINGTON COUNTY,1,6.5,1.25,0,0,7.75,0,0,FALSE
US,AR,72776,MADISON COUNTY,1,6.5,2,0,0,8.5,0,0,FALSE
US,AR,72801,RUSSELLVILLE,1,6.5,1,1.5,0,9,0,0,FALSE
US,AR,72802,POPE COUNTY,1,6.5,1,0,0,7.5,0,0,FALSE
US,AR,72811,RUSSELLVILLE,1,6.5,1,1.5,0,9,0,0,FALSE
US,AR,72812,RUSSELLVILLE,1,6.5,1,1.5,0,9,0,0,FALSE
US,AR,72820,FRANKLIN COUNTY,1,6.5,2,0,0,8.5,0,0,FALSE
US,AR,72821,FRANKLIN COUNTY,2,6.5,2,0,0,8.5,0,0,FALSE
US,AR,72823,POPE COUNTY,2,6.5,1,0,0,7.5,0,0,FALSE
US,AR,72824,YELL COUNTY,1,6.5,1.875,0,0,8.375,0,0,FALSE
US,AR,72826,BLUE MOUNTAIN,1,6.5,2,1,0,9.5,0,0,FALSE
US,AR,72827,YELL COUNTY,1,6.5,1.875,0,0,8.375,0,0,FALSE
US,AR,72828,YELL COUNTY,1,6.5,1.875,0,0,8.375,0,0,FALSE
US,AR,72829,PERRY COUNTY,1,6.5,2.25,0,0,8.75,0,0,FALSE
US,AR,72830,JOHNSON COUNTY,1,6.5,1,0,0,7.5,0,0,FALSE
US,AR,72832,COAL HILL,1,6.5,1,1,0,8.5,0,0,FALSE
US,AR,72833,YELL COUNTY,1,6.5,1.875,0,0,8.375,0,0,FALSE
US,AR,72834,YELL COUNTY,1,6.5,1.875,0,0,8.375,0,0,FALSE
US,AR,72835,LOGAN COUNTY,1,6.5,2,0,0,8.5,0,0,FALSE
US,AR,72837,POPE COUNTY,1,6.5,1,0,0,7.5,0,0,FALSE
US,AR,72838,YELL COUNTY,1,6.5,1.875,0,0,8.375,0,0,FALSE
US,AR,72839,JOHNSON COUNTY,1,6.5,1,0,0,7.5,0,0,FALSE
US,AR,72840,JOHNSON COUNTY,2,6.5,1,0,0,7.5,0,0,FALSE
US,AR,72841,SCOTT COUNTY,1,6.5,2.625,0,0,9.125,0,0,FALSE
US,AR,72842,YELL COUNTY,1,6.5,1.875,0,0,8.375,0,0,FALSE
US,AR,72843,POPE COUNTY,1,6.5,1,0,0,7.5,0,0,FALSE
US,AR,72845,KNOXVILLE,1,6.5,1,0,0,7.5,0,0,FALSE
US,AR,72846,JOHNSON COUNTY,1,6.5,1,0,0,7.5,0,0,FALSE
US,AR,72847,POPE COUNTY,1,6.5,1,0,0,7.5,0,0,FALSE
US,AR,72851,LOGAN COUNTY,1,6.5,2,0,0,8.5,0,0,FALSE
US,AR,72852,JOHNSON COUNTY,1,6.5,1,0,0,7.5,0,0,FALSE
US,AR,72853,YELL COUNTY,1,6.5,1.875,0,0,8.375,0,0,FALSE
US,AR,72854,JOHNSON COUNTY,1,6.5,1,0,0,7.5,0,0,FALSE
US,AR,72855,PARIS,1,6.5,2,1.5,0,10,0,0,FALSE
US,AR,72856,POPE COUNTY,1,6.5,1,0,0,7.5,0,0,FALSE
US,AR,72857,YELL COUNTY,1,6.5,1.875,0,0,8.375,0,0,FALSE
US,AR,72858,POTTSVILLE,1,6.5,1,1.5,0,9,0,0,FALSE
US,AR,72860,YELL COUNTY,1,6.5,1.875,0,0,8.375,0,0,FALSE
US,AR,72863,LOGAN COUNTY,1,6.5,2,0,0,8.5,0,0,FALSE
US,AR,72865,LOGAN COUNTY,1,6.5,2,0,0,8.5,0,0,FALSE
US,AR,72901,FORT SMITH,1,6.5,1.25,2,0,9.75,0,0,FALSE
US,AR,72902,FORT SMITH,1,6.5,1.25,2,0,9.75,0,0,FALSE
US,AR,72903,FORT SMITH,1,6.5,1.25,2,0,9.75,0,0,FALSE
US,AR,72904,FORT SMITH,1,6.5,1.25,2,0,9.75,0,0,FALSE
US,AR,72905,FORT SMITH,2,6.5,1.25,2,0,9.75,0,0,FALSE
US,AR,72906,FORT SMITH,1,6.5,1.25,2,0,9.75,0,0,FALSE
US,AR,72908,FORT SMITH,1,6.5,1.25,2,0,9.75,0,0,FALSE
US,AR,72913,FORT SMITH,1,6.5,1.25,2,0,9.75,0,0,FALSE
US,AR,72914,FORT SMITH,1,6.5,1.25,2,0,9.75,0,0,FALSE
US,AR,72916,SEBASTIAN COUNTY,2,6.5,1.25,0,0,7.75,0,0,FALSE
US,AR,72917,FORT SMITH,1,6.5,1.25,2,0,9.75,0,0,FALSE
US,AR,72918,FORT SMITH,1,6.5,1.25,2,0,9.75,0,0,FALSE
US,AR,72919,FORT SMITH,1,6.5,1.25,2,0,9.75,0,0,FALSE
US,AR,72921,CRAWFORD COUNTY,1,6.5,1.75,0,0,8.25,0,0,FALSE
US,AR,72923,BARLING,1,6.5,1.25,2,0,9.75,0,0,FALSE
US,AR,72926,SCOTT COUNTY,1,6.5,2.625,0,0,9.125,0,0,FALSE
US,AR,72927,LOGAN COUNTY,1,6.5,2,0,0,8.5,0,0,FALSE
US,AR,72928,FRANKLIN COUNTY,1,6.5,2,0,0,8.5,0,0,FALSE
US,AR,72930,FRANKLIN COUNTY,1,6.5,2,0,0,8.5,0,0,FALSE
US,AR,72932,CEDARVILLE,1,6.5,1.75,1,0,9.25,0,0,FALSE
US,AR,72933,CHARLESTON,1,6.5,2,1.5,0,10,0,0,FALSE
US,AR,72934,CRAWFORD COUNTY,1,6.5,1.75,0,0,8.25,0,0,FALSE
US,AR,72935,DYER,1,6.5,1.75,1,0,9.25,0,0,FALSE
US,AR,72936,SEBASTIAN COUNTY,1,6.5,1.25,0,0,7.75,0,0,FALSE
US,AR,72937,SEBASTIAN COUNTY,1,6.5,1.25,0,0,7.75,0,0,FALSE
US,AR,72938,HARTFORD,1,6.5,1.25,2,0,9.75,0,0,FALSE
US,AR,72940,SEBASTIAN COUNTY,1,6.5,1.25,0,0,7.75,0,0,FALSE
US,AR,72941,SEBASTIAN COUNTY,3,6.5,1.25,0,0,7.75,0,0,FALSE
US,AR,72943,LOGAN COUNTY,1,6.5,2,0,0,8.5,0,0,FALSE
US,AR,72944,SEBASTIAN COUNTY,2,6.5,1.25,0,0,7.75,0,0,FALSE
US,AR,72945,MIDLAND,1,6.5,1.25,0,0,7.75,0,0,FALSE
US,AR,72946,CRAWFORD COUNTY,1,6.5,1.75,0,0,8.25,0,0,FALSE
US,AR,72947,CRAWFORD COUNTY,1,6.5,1.75,0,0,8.25,0,0,FALSE
US,AR,72948,CRAWFORD COUNTY,1,6.5,1.75,0,0,8.25,0,0,FALSE
US,AR,72949,FRANKLIN COUNTY,1,6.5,2,0,0,8.5,0,0,FALSE
US,AR,72950,SCOTT COUNTY,1,6.5,2.625,0,0,9.125,0,0,FALSE
US,AR,72951,FRANKLIN COUNTY,1,6.5,2,0,0,8.5,0,0,FALSE
US,AR,72952,CRAWFORD COUNTY,1,6.5,1.75,0,0,8.25,0,0,FALSE
US,AR,72955,CRAWFORD COUNTY,1,6.5,1.75,0,0,8.25,0,0,FALSE
US,AR,72956,VAN BUREN (CITY),1,6.5,1.75,2,0,10.25,0,0,FALSE
US,AR,72957,VAN BUREN (CITY),1,6.5,1.75,2,0,10.25,0,0,FALSE
US,AR,72958,SCOTT COUNTY,2,6.5,2.625,0,0,9.125,0,0,FALSE
US,AR,72959,WASHINGTON COUNTY,1,6.5,1.25,0,0,7.75,0,0,FALSE
