country,state,zipcode,tax_region_name,RiskLevel,state_rate,county_rate,city_rate,special_rate,combined_rate,medicinal_excise,adult_excise,has_medical_excise
US,CA,90001,LOS ANGELES COUNTY,2,6,0.25,0,3.25,9.5,0,0,FALSE
US,CA,90002,LOS ANGELES,2,6,0.25,0,3.25,9.5,0,0,FALSE
US,CA,90003,LOS ANGELES,1,6,0.25,0,3.25,9.5,0,0,FALSE
US,CA,90004,LOS ANGELES,2,6,0.25,0,3.25,9.5,0,0,FALSE
US,CA,90005,LOS ANGELES,2,6,0.25,0,3.25,9.5,0,0,FALSE
US,CA,90006,LOS ANGELES,2,6,0.25,0,3.25,9.5,0,0,FALSE
US,CA,90007,LOS ANGELES,2,6,0.25,0,3.25,9.5,0,0,FALSE
US,CA,90008,LOS ANGELES,5,6,0.25,0,3.25,9.5,0,0,FALSE
US,CA,90009,LOS ANGELES TOURISM MARKETING DISTRICT,1,6,0.25,0,3.25,9.5,0,0,FALSE
US,CA,90010,LOS ANGELES,2,6,0.25,0,3.25,9.5,0,0,FALSE
US,CA,90011,LOS ANGELES,1,6,0.25,0,3.25,9.5,0,0,FALSE
US,CA,90012,LOS ANGELES,3,6,0.25,0,3.25,9.5,0,0,FALSE
US,CA,90013,LOS ANGELES,3,6,0.25,0,3.25,9.5,0,0,FALSE
US,CA,90014,LOS ANGELES,1,6,0.25,0,3.25,9.5,0,0,FALSE
US,CA,90015,LOS ANGELES,1,6,0.25,0,3.25,9.5,0,0,FALSE
US,CA,90016,LOS ANGELES,2,6,0.25,0,3.25,9.5,0,0,FALSE
US,CA,90017,LOS ANGELES,2,6,0.25,0,3.25,9.5,0,0,FALSE
US,CA,90018,LOS ANGELES,3,6,0.25,0,3.25,9.5,0,0,FALSE
US,CA,90019,LOS ANGELES,2,6,0.25,0,3.25,9.5,0,0,FALSE
US,CA,90020,LOS ANGELES,2,6,0.25,0,3.25,9.5,0,0,FALSE
US,CA,90021,LOS ANGELES,2,6,0.25,0,3.25,9.5,0,0,FALSE
US,CA,90022,LOS ANGELES COUNTY,3,6,0.25,0,3.25,9.5,0,0,FALSE
US,CA,90023,LOS ANGELES,3,6,0.25,0,3.25,9.5,0,0,FALSE
US,CA,90024,LOS ANGELES,2,6,0.25,0,3.25,9.5,0,0,FALSE
US,CA,90025,LOS ANGELES,2,6,0.25,0,3.25,9.5,0,0,FALSE
US,CA,90026,LOS ANGELES,5,6,0.25,0,3.25,9.5,0,0,FALSE
US,CA,90027,LOS ANGELES,3,6,0.25,0,3.25,9.5,0,0,FALSE
US,CA,90028,LOS ANGELES,2,6,0.25,0,3.25,9.5,0,0,FALSE
US,CA,90029,LOS ANGELES,2,6,0.25,0,3.25,9.5,0,0,FALSE
US,CA,90030,LOS ANGELES,1,6,0.25,0,3.25,9.5,0,0,FALSE
US,CA,90031,LOS ANGELES,2,6,0.25,0,3.25,9.5,0,0,FALSE
US,CA,90032,LOS ANGELES,1,6,0.25,0,3.25,9.5,0,0,FALSE
US,CA,90033,LOS ANGELES,2,6,0.25,0,3.25,9.5,0,0,FALSE
US,CA,90034,LOS ANGELES,2,6,0.25,0,3.25,9.5,0,0,FALSE
US,CA,90035,LOS ANGELES,2,6,0.25,0,3.25,9.5,0,0,FALSE
US,CA,90036,LOS ANGELES,4,6,0.25,0,3.25,9.5,0,0,FALSE
US,CA,90037,LOS ANGELES,2,6,0.25,0,3.25,9.5,0,0,FALSE
US,CA,90038,LOS ANGELES,4,6,0.25,0,3.25,9.5,0,0,FALSE
US,CA,90039,LOS ANGELES,2,6,0.25,0,3.25,9.5,0,0,FALSE
US,CA,90040,COMMERCE,2,6,0.25,0.5,3.25,10,0,0,FALSE
US,CA,90041,LOS ANGELES,2,6,0.25,0,3.25,9.5,0,0,FALSE
US,CA,90042,LOS ANGELES,2,6,0.25,0,3.25,9.5,0,0,FALSE
US,CA,90043,LOS ANGELES,4,6,0.25,0,3.25,9.5,0,0,FALSE
US,CA,90044,LOS ANGELES,2,6,0.25,0,3.25,9.5,0,0,FALSE
US,CA,90045,LOS ANGELES,3,6,0.25,0,3.25,9.5,0,0,FALSE
US,CA,90046,LOS ANGELES,2,6,0.25,0,3.25,9.5,0,0,FALSE
US,CA,90047,LOS ANGELES,2,6,0.25,0,3.25,9.5,0,0,FALSE
US,CA,90048,LOS ANGELES,4,6,0.25,0,3.25,9.5,0,0,FALSE
US,CA,90049,LOS ANGELES,2,6,0.25,0,3.25,9.5,0,0,FALSE
US,CA,90050,LOS ANGELES,1,6,0.25,0,3.25,9.5,0,0,FALSE
US,CA,90051,LOS ANGELES,1,6,0.25,0,3.25,9.5,0,0,FALSE
US,CA,90052,LOS ANGELES,1,6,0.25,0,3.25,9.5,0,0,FALSE
US,CA,90053,LOS ANGELES,1,6,0.25,0,3.25,9.5,0,0,FALSE
US,CA,90054,LOS ANGELES,1,6,0.25,0,3.25,9.5,0,0,FALSE
US,CA,90055,LOS ANGELES,1,6,0.25,0,3.25,9.5,0,0,FALSE
US,CA,90056,LOS ANGELES COUNTY,4,6,0.25,0,3.25,9.5,0,0,FALSE
US,CA,90057,LOS ANGELES,2,6,0.25,0,3.25,9.5,0,0,FALSE
US,CA,90058,VERNON,2,6,0.25,0,3.25,9.5,0,0,FALSE
US,CA,90059,LOS ANGELES,2,6,0.25,0,3.25,9.5,0,0,FALSE
US,CA,90060,LOS ANGELES,1,6,0.25,0,3.25,9.5,0,0,FALSE
US,CA,90061,LOS ANGELES,1,6,0.25,0,3.25,9.5,0,0,FALSE
US,CA,90062,LOS ANGELES,2,6,0.25,0,3.25,9.5,0,0,FALSE
US,CA,90063,LOS ANGELES COUNTY,2,6,0.25,0,3.25,9.5,0,0,FALSE
US,CA,90064,LOS ANGELES,2,6,0.25,0,3.25,9.5,0,0,FALSE
US,CA,90065,LOS ANGELES,3,6,0.25,0,3.25,9.5,0,0,FALSE
US,CA,90066,LOS ANGELES,2,6,0.25,0,3.25,9.5,0,0,FALSE
US,CA,90067,LOS ANGELES,2,6,0.25,0,3.25,9.5,0,0,FALSE
US,CA,90068,LOS ANGELES,2,6,0.25,0,3.25,9.5,0,0,FALSE
US,CA,90069,WEST HOLLYWOOD BUSINESS IMPROVEMENT AREA,2,6,0.25,0,3.25,9.5,0,0,FALSE
US,CA,90070,LOS ANGELES,1,6,0.25,0,3.25,9.5,0,0,FALSE
US,CA,90071,LOS ANGELES,1,6,0.25,0,3.25,9.5,0,0,FALSE
US,CA,90072,LOS ANGELES,1,6,0.25,0,3.25,9.5,0,0,FALSE
US,CA,90073,LOS ANGELES COUNTY,1,6,0.25,0,3.25,9.5,0,0,FALSE
US,CA,90074,LOS ANGELES,1,6,0.25,0,3.25,9.5,0,0,FALSE
US,CA,90075,LOS ANGELES,1,6,0.25,0,3.25,9.5,0,0,FALSE
US,CA,90076,LOS ANGELES,1,6,0.25,0,3.25,9.5,0,0,FALSE
US,CA,90077,LOS ANGELES,2,6,0.25,0,3.25,9.5,0,0,FALSE
US,CA,90078,LOS ANGELES,2,6,0.25,0,3.25,9.5,0,0,FALSE
US,CA,90079,LOS ANGELES,1,6,0.25,0,3.25,9.5,0,0,FALSE
US,CA,90081,LOS ANGELES,1,6,0.25,0,3.25,9.5,0,0,FALSE
US,CA,90082,LOS ANGELES,1,6,0.25,0,3.25,9.5,0,0,FALSE
US,CA,90083,LOS ANGELES,1,6,0.25,0,3.25,9.5,0,0,FALSE
US,CA,90084,LOS ANGELES,1,6,0.25,0,3.25,9.5,0,0,FALSE
US,CA,90086,LOS ANGELES,1,6,0.25,0,3.25,9.5,0,0,FALSE
US,CA,90087,LOS ANGELES,1,6,0.25,0,3.25,9.5,0,0,FALSE
US,CA,90088,LOS ANGELES,1,6,0.25,0,3.25,9.5,0,0,FALSE
US,CA,90089,LOS ANGELES,1,6,0.25,0,3.25,9.5,0,0,FALSE
US,CA,90090,LOS ANGELES,2,6,0.25,0,3.25,9.5,0,0,FALSE
US,CA,90091,LOS ANGELES COUNTY,2,6,0.25,0,3.25,9.5,0,0,FALSE
US,CA,90093,LOS ANGELES,1,6,0.25,0,3.25,9.5,0,0,FALSE
US,CA,90094,LOS ANGELES,2,6,0.25,0,3.25,9.5,0,0,FALSE
US,CA,90095,LOS ANGELES COUNTY,1,6,0.25,0,3.25,9.5,0,0,FALSE
US,CA,90096,LOS ANGELES,1,6,0.25,0,3.25,9.5,0,0,FALSE
US,CA,90099,LOS ANGELES,1,6,0.25,0,3.25,9.5,0,0,FALSE
US,CA,90101,BELL,1,6,0.25,0,3.25,9.5,0,0,FALSE
US,CA,90201,BELL GARDENS,3,6,0.25,0,3.25,9.5,0,0,FALSE
US,CA,90202,BELL GARDENS,2,6,0.25,0,3.25,9.5,0,0,FALSE
US,CA,90209,BEVERLY HILLS,1,6,0.25,0,3.25,9.5,0,0,FALSE
US,CA,90210,BEVERLY HILLS,1,6,0.25,0,3.25,9.5,0,0,FALSE
US,CA,90211,BEVERLY HILLS,1,6,0.25,0,3.25,9.5,0,0,FALSE
US,CA,90212,BEVERLY HILLS,1,6,0.25,0,3.25,9.5,0,0,FALSE
US,CA,90213,BEVERLY HILLS,1,6,0.25,0,3.25,9.5,0,0,FALSE
US,CA,90220,COMPTON,3,6,0.25,1,3,10.25,0,0,FALSE
US,CA,90221,COMPTON,2,6,0.25,1,3,10.25,0,0,FALSE
US,CA,90222,COMPTON,2,6,0.25,1,3,10.25,0,0,FALSE
US,CA,90223,COMPTON,1,6,0.25,1,3,10.25,0,0,FALSE
US,CA,90224,COMPTON,2,6,0.25,1,3,10.25,0,0,FALSE
US,CA,90230,CULVER CITY,2,6,0.25,0.75,3.25,10.25,0,0,FALSE
US,CA,90231,CULVER CITY,1,6,0.25,0.75,3.25,10.25,0,0,FALSE
US,CA,90232,CULVER CITY,1,6,0.25,0.75,3.25,10.25,0,0,FALSE
US,CA,90233,CULVER CITY,1,6,0.25,0.75,3.25,10.25,0,0,FALSE
US,CA,90239,DOWNEY,1,6,0.25,0.5,3.25,10,0,0,FALSE
US,CA,90240,DOWNEY,1,6,0.25,0.5,3.25,10,0,0,FALSE
US,CA,90241,DOWNEY,1,6,0.25,0.5,3.25,10,0,0,FALSE
US,CA,90242,DOWNEY,1,6,0.25,0.5,3.25,10,0,0,FALSE
US,CA,90245,EL SEGUNDO,1,6,0.25,0,3.25,9.5,0,0,FALSE
US,CA,90247,GARDENA,1,6,0.25,0,3.25,9.5,0,0,FALSE
US,CA,90248,LOS ANGELES,1,6,0.25,0,3.25,9.5,0,0,FALSE
US,CA,90249,GARDENA,1,6,0.25,0,3.25,9.5,0,0,FALSE
US,CA,90250,LOS ANGELES COUNTY DISTRICT TAX SP,3,6,0.25,0.75,3.25,10.25,0,0,FALSE
US,CA,90251,LOS ANGELES COUNTY DISTRICT TAX SP,1,6,0.25,0.75,3.25,10.25,0,0,FALSE
US,CA,90254,HERMOSA BEACH,1,6,0.25,0,3.25,9.5,0,0,FALSE
US,CA,90255,HUNTINGTON PARK,2,6,0.25,0.75,3.25,10.25,0,0,FALSE
US,CA,90260,LAWNDALE,1,6,0.25,0.75,3.25,10.25,0,0,FALSE
US,CA,90261,LOS ANGELES COUNTY DISTRICT TAX SP,1,6,0.25,0.75,3.25,10.25,0,0,FALSE
US,CA,90262,LYNWOOD,1,6,0.25,1,3,10.25,0,0,FALSE
US,CA,90263,LOS ANGELES COUNTY,1,6,0.25,0,3.25,9.5,0,0,FALSE
US,CA,90264,MALIBU,1,6,0.25,0,3.25,9.5,0,0,FALSE
US,CA,90265,MALIBU,1,6,0.25,0,3.25,9.5,0,0,FALSE
US,CA,90266,MANHATTAN BEACH,1,6,0.25,0,3.25,9.5,0,0,FALSE
US,CA,90267,MANHATTAN BEACH,1,6,0.25,0,3.25,9.5,0,0,FALSE
US,CA,90270,MAYWOOD,2,6,0.25,0,3.25,9.5,0,0,FALSE
US,CA,90272,LOS ANGELES,1,6,0.25,0,3.25,9.5,0,0,FALSE
US,CA,90274,ROLLING HILLS ESTATES,4,6,0.25,0,3.25,9.5,0,0,FALSE
US,CA,90275,RANCHO PALOS VERDES,4,6,0.25,0,3.25,9.5,0,0,FALSE
US,CA,90277,REDONDO BEACH,1,6,0.25,0,3.25,9.5,0,0,FALSE
US,CA,90278,REDONDO BEACH,1,6,0.25,0,3.25,9.5,0,0,FALSE
US,CA,90280,SOUTH GATE,1,6,0.25,1,3,10.25,0,0,FALSE
US,CA,90290,LOS ANGELES COUNTY,1,6,0.25,0,3.25,9.5,0,0,FALSE
US,CA,90291,LOS ANGELES,2,6,0.25,0,3.25,9.5,0,0,FALSE
US,CA,90292,LOS ANGELES,2,6,0.25,0,3.25,9.5,0,0,FALSE
US,CA,90293,LOS ANGELES,2,6,0.25,0,3.25,9.5,0,0,FALSE
US,CA,90294,LOS ANGELES,1,6,0.25,0,3.25,9.5,0,0,FALSE
US,CA,90295,LOS ANGELES,2,6,0.25,0,3.25,9.5,0,0,FALSE
US,CA,90296,LOS ANGELES,2,6,0.25,0,3.25,9.5,0,0,FALSE
US,CA,90301,INGLEWOOD,1,6,0.25,0.5,3.25,10,0,0,FALSE
US,CA,90302,INGLEWOOD,1,6,0.25,0.5,3.25,10,0,0,FALSE
US,CA,90303,INGLEWOOD,1,6,0.25,0.5,3.25,10,0,0,FALSE
US,CA,90304,LOS ANGELES COUNTY,2,6,0.25,0,3.25,9.5,0,0,FALSE
US,CA,90305,INGLEWOOD,1,6,0.25,0.5,3.25,10,0,0,FALSE
US,CA,90306,INGLEWOOD,1,6,0.25,0.5,3.25,10,0,0,FALSE
US,CA,90307,INGLEWOOD,1,6,0.25,0.5,3.25,10,0,0,FALSE
US,CA,90308,INGLEWOOD,1,6,0.25,0.5,3.25,10,0,0,FALSE
US,CA,90309,INGLEWOOD,1,6,0.25,0.5,3.25,10,0,0,FALSE
US,CA,90310,INGLEWOOD,1,6,0.25,0.5,3.25,10,0,0,FALSE
US,CA,90311,INGLEWOOD,1,6,0.25,0.5,3.25,10,0,0,FALSE
US,CA,90401,SANTA MONICA TOURISM MARKETING DISTRICT,1,6,0.25,1,3,10.25,0,0,FALSE
US,CA,90402,SANTA MONICA TOURISM MARKETING DISTRICT,1,6,0.25,1,3,10.25,0,0,FALSE
US,CA,90403,SANTA MONICA TOURISM MARKETING DISTRICT,1,6,0.25,1,3,10.25,0,0,FALSE
US,CA,90404,SANTA MONICA TOURISM MARKETING DISTRICT,1,6,0.25,1,3,10.25,0,0,FALSE
US,CA,90405,SANTA MONICA TOURISM MARKETING DISTRICT,1,6,0.25,1,3,10.25,0,0,FALSE
US,CA,90406,SANTA MONICA TOURISM MARKETING DISTRICT,1,6,0.25,1,3,10.25,0,0,FALSE
US,CA,90408,SANTA MONICA TOURISM MARKETING DISTRICT,1,6,0.25,1,3,10.25,0,0,FALSE
US,CA,90409,SANTA MONICA TOURISM MARKETING DISTRICT,1,6,0.25,1,3,10.25,0,0,FALSE
US,CA,90501,TORRANCE TOURISM BUSINESS IMPROVEMENT DISTRICT,1,6,0.25,0,3.25,9.5,0,0,FALSE
US,CA,90502,LOS ANGELES COUNTY,1,6,0.25,0,3.25,9.5,0,0,FALSE
US,CA,90503,TORRANCE TOURISM BUSINESS IMPROVEMENT DISTRICT,1,6,0.25,0,3.25,9.5,0,0,FALSE
US,CA,90504,TORRANCE TOURISM BUSINESS IMPROVEMENT DISTRICT,1,6,0.25,0,3.25,9.5,0,0,FALSE
US,CA,90505,TORRANCE TOURISM BUSINESS IMPROVEMENT DISTRICT,1,6,0.25,0,3.25,9.5,0,0,FALSE
US,CA,90506,LOS ANGELES COUNTY,1,6,0.25,0,3.25,9.5,0,0,FALSE
US,CA,90507,TORRANCE TOURISM BUSINESS IMPROVEMENT DISTRICT,1,6,0.25,0,3.25,9.5,0,0,FALSE
US,CA,90508,TORRANCE TOURISM BUSINESS IMPROVEMENT DISTRICT,1,6,0.25,0,3.25,9.5,0,0,FALSE
US,CA,90510,TORRANCE TOURISM BUSINESS IMPROVEMENT DISTRICT,1,6,0.25,0,3.25,9.5,0,0,FALSE
US,CA,90601,WHITTIER,3,6,0.25,0,3.25,9.5,0,0,FALSE
US,CA,90602,WHITTIER,1,6,0.25,0,3.25,9.5,0,0,FALSE
US,CA,90603,WHITTIER,1,6,0.25,0,3.25,9.5,0,0,FALSE
US,CA,90604,LOS ANGELES COUNTY,1,6,0.25,0,3.25,9.5,0,0,FALSE
US,CA,90605,LOS ANGELES COUNTY,1,6,0.25,0,3.25,9.5,0,0,FALSE
US,CA,90606,LOS ANGELES COUNTY,2,6,0.25,0,3.25,9.5,0,0,FALSE
US,CA,90607,WHITTIER,1,6,0.25,0,3.25,9.5,0,0,FALSE
US,CA,90608,WHITTIER,1,6,0.25,0,3.25,9.5,0,0,FALSE
US,CA,90609,WHITTIER,1,6,0.25,0,3.25,9.5,0,0,FALSE
US,CA,90620,BUENA PARK,1,6,0.25,0,1.5,7.75,0,0,FALSE
US,CA,90621,BUENA PARK,1,6,0.25,0,1.5,7.75,0,0,FALSE
US,CA,90622,BUENA PARK,1,6,0.25,0,1.5,7.75,0,0,FALSE
US,CA,90623,LA PALMA,2,6,0.25,1,1.5,8.75,0,0,FALSE
US,CA,90630,CYPRESS,1,6,0.25,0,1.5,7.75,0,0,FALSE
US,CA,90631,LA HABRA,2,6,0.25,0.5,1.5,8.25,0,0,FALSE
US,CA,90632,LA HABRA,1,6,0.25,0.5,1.5,8.25,0,0,FALSE
US,CA,90633,LA HABRA,1,6,0.25,0.5,1.5,8.25,0,0,FALSE
US,CA,90637,LA MIRADA,1,6,0.25,0,3.25,9.5,0,0,FALSE
US,CA,90638,LA MIRADA,3,6,0.25,0,3.25,9.5,0,0,FALSE
US,CA,90639,LA MIRADA,1,6,0.25,0,3.25,9.5,0,0,FALSE
US,CA,90640,MONTEBELLO,1,6,0.25,0,3.25,9.5,0,0,FALSE
US,CA,90650,NORWALK,1,6,0.25,0,3.25,9.5,0,0,FALSE
US,CA,90651,NORWALK,1,6,0.25,0,3.25,9.5,0,0,FALSE
US,CA,90652,NORWALK,1,6,0.25,0,3.25,9.5,0,0,FALSE
US,CA,90660,PICO RIVERA,1,6,0.25,1,3,10.25,0,0,FALSE
US,CA,90662,PICO RIVERA,1,6,0.25,1,3,10.25,0,0,FALSE
US,CA,90670,SANTA FE SPRINGS,1,6,0.25,1,3.25,10.5,0,0,FALSE
US,CA,90671,SANTA FE SPRINGS,1,6,0.25,1,3.25,10.5,0,0,FALSE
US,CA,90680,STANTON,1,6,0.25,1,1.5,8.75,0,0,FALSE
US,CA,90701,ARTESIA,2,6,0.25,0,3.25,9.5,0,0,FALSE
US,CA,90702,ARTESIA,1,6,0.25,0,3.25,9.5,0,0,FALSE
US,CA,90703,CERRITOS,2,6,0.25,0,3.25,9.5,0,0,FALSE
US,CA,90704,AVALON,3,6,0.25,0.5,3.25,10,0,0,FALSE
US,CA,90706,BELLFLOWER,1,6,0.25,0,3.25,9.5,0,0,FALSE
US,CA,90707,BELLFLOWER,1,6,0.25,0,3.25,9.5,0,0,FALSE
US,CA,90710,LOS ANGELES,1,6,0.25,0,3.25,9.5,0,0,FALSE
US,CA,90711,LAKEWOOD,1,6,0.25,0,3.25,9.5,0,0,FALSE
US,CA,90712,LAKEWOOD,1,6,0.25,0,3.25,9.5,0,0,FALSE
US,CA,90713,LAKEWOOD,1,6,0.25,0,3.25,9.5,0,0,FALSE
US,CA,90714,LAKEWOOD,1,6,0.25,0,3.25,9.5,0,0,FALSE
US,CA,90715,LAKEWOOD,1,6,0.25,0,3.25,9.5,0,0,FALSE
US,CA,90716,HAWAIIAN GARDENS,2,6,0.25,0,3.25,9.5,0,0,FALSE
US,CA,90717,LOMITA,1,6,0.25,0,3.25,9.5,0,0,FALSE
US,CA,90720,LOS ALAMITOS,3,6,0.25,0,1.5,7.75,0,0,FALSE
US,CA,90721,LOS ALAMITOS,1,6,0.25,0,1.5,7.75,0,0,FALSE
US,CA,90723,PARAMOUNT,1,6,0.25,0,3.25,9.5,0,0,FALSE
US,CA,90731,LOS ANGELES,3,6,0.25,0,3.25,9.5,0,0,FALSE
US,CA,90732,LOS ANGELES,1,6,0.25,0,3.25,9.5,0,0,FALSE
US,CA,90733,LOS ANGELES,1,6,0.25,0,3.25,9.5,0,0,FALSE
US,CA,90734,RANCHO PALOS VERDES,1,6,0.25,0,3.25,9.5,0,0,FALSE
US,CA,90740,SEAL BEACH,1,6,0.25,1,1.5,8.75,0,0,FALSE
US,CA,90742,HUNTINGTON BEACH TOURISM BID,1,6,0.25,0,1.5,7.75,0,0,FALSE
US,CA,90743,SEAL BEACH,1,6,0.25,1,1.5,8.75,0,0,FALSE
US,CA,90744,LOS ANGELES,1,6,0.25,0,3.25,9.5,0,0,FALSE
US,CA,90745,CARSON,2,6,0.25,0,3.25,9.5,0,0,FALSE
US,CA,90746,CARSON,2,6,0.25,0,3.25,9.5,0,0,FALSE
US,CA,90747,CARSON,2,6,0.25,0,3.25,9.5,0,0,FALSE
US,CA,90748,LOS ANGELES,1,6,0.25,0,3.25,9.5,0,0,FALSE
US,CA,90749,CARSON,2,6,0.25,0,3.25,9.5,0,0,FALSE
US,CA,90755,SIGNAL HILL,2,6,0.25,0,3.25,9.5,0,0,FALSE
US,CA,90801,LONG BEACH,1,6,0.25,1,3,10.25,0,0,FALSE
US,CA,90802,LONG BEACH,1,6,0.25,1,3,10.25,0,0,FALSE
US,CA,90803,LONG BEACH,3,6,0.25,1,3,10.25,0,0,FALSE
US,CA,90804,LONG BEACH,2,6,0.25,1,3,10.25,0,0,FALSE
US,CA,90805,LONG BEACH,3,6,0.25,1,3,10.25,0,0,FALSE
US,CA,90806,LONG BEACH,1,6,0.25,1,3,10.25,0,0,FALSE
US,CA,90807,LONG BEACH,3,6,0.25,1,3,10.25,0,0,FALSE
US,CA,90808,LONG BEACH,1,6,0.25,1,3,10.25,0,0,FALSE
US,CA,90809,LONG BEACH TOURISM BIA,1,6,0.25,1,3,10.25,0,0,FALSE
US,CA,90810,LONG BEACH,4,6,0.25,1,3,10.25,0,0,FALSE
US,CA,90813,LONG BEACH,1,6,0.25,1,3,10.25,0,0,FALSE
US,CA,90814,LONG BEACH,1,6,0.25,1,3,10.25,0,0,FALSE
US,CA,90815,LONG BEACH,1,6,0.25,1,3,10.25,0,0,FALSE
US,CA,90822,LONG BEACH,1,6,0.25,1,3,10.25,0,0,FALSE
US,CA,90831,LONG BEACH TOURISM BIA,1,6,0.25,1,3,10.25,0,0,FALSE
US,CA,90832,LONG BEACH TOURISM BIA,1,6,0.25,1,3,10.25,0,0,FALSE
US,CA,90833,LONG BEACH TOURISM BIA,1,6,0.25,1,3,10.25,0,0,FALSE
US,CA,90840,LONG BEACH,1,6,0.25,1,3,10.25,0,0,FALSE
US,CA,90844,LONG BEACH,1,6,0.25,1,3,10.25,0,0,FALSE
US,CA,90846,LONG BEACH,1,6,0.25,1,3.25,10.5,0,0,FALSE
US,CA,90853,LONG BEACH,1,6,0.25,1,3,10.25,0,0,FALSE
US,CA,90895,CARSON,1,6,0.25,0,3.25,9.5,0,0,FALSE
US,CA,90899,LONG BEACH TOURISM BIA,1,6,0.25,1,3,10.25,0,0,FALSE
US,CA,91001,LOS ANGELES COUNTY,1,6,0.25,0,3.25,9.5,0,0,FALSE
US,CA,91003,LOS ANGELES COUNTY,1,6,0.25,0,3.25,9.5,0,0,FALSE
US,CA,91006,ARCADIA,1,6,0.25,0,3.25,9.5,0,0,FALSE
US,CA,91007,ARCADIA,1,6,0.25,0,3.25,9.5,0,0,FALSE
US,CA,91008,BRADBURY,2,6,0.25,0,3.25,9.5,0,0,FALSE
US,CA,91009,DUARTE,1,6,0.25,0,3.25,9.5,0,0,FALSE
US,CA,91010,DUARTE,3,6,0.25,0,3.25,9.5,0,0,FALSE
US,CA,91011,LA CANADA FLINTRIDGE,3,6,0.25,0,3.25,9.5,0,0,FALSE
US,CA,91012,LA CANADA FLINTRIDGE,2,6,0.25,0,3.25,9.5,0,0,FALSE
US,CA,91016,MONROVIA,1,6,0.25,0,3.25,9.5,0,0,FALSE
US,CA,91017,MONROVIA,1,6,0.25,0,3.25,9.5,0,0,FALSE
US,CA,91020,LOS ANGELES COUNTY,1,6,0.25,0,3.25,9.5,0,0,FALSE
US,CA,91021,LOS ANGELES COUNTY,1,6,0.25,0,3.25,9.5,0,0,FALSE
US,CA,91023,LOS ANGELES COUNTY,1,6,0.25,0,3.25,9.5,0,0,FALSE
US,CA,91024,SIERRA MADRE,1,6,0.25,0,3.25,9.5,0,0,FALSE
US,CA,91025,SIERRA MADRE,1,6,0.25,0,3.25,9.5,0,0,FALSE
US,CA,91030,SOUTH PASADENA,1,6,0.25,0,3.25,9.5,0,0,FALSE
US,CA,91031,SOUTH PASADENA,1,6,0.25,0,3.25,9.5,0,0,FALSE
US,CA,91040,LOS ANGELES,2,6,0.25,0,3.25,9.5,0,0,FALSE
US,CA,91041,LOS ANGELES,1,6,0.25,0,3.25,9.5,0,0,FALSE
US,CA,91042,LOS ANGELES,1,6,0.25,0,3.25,9.5,0,0,FALSE
US,CA,91043,LOS ANGELES,1,6,0.25,0,3.25,9.5,0,0,FALSE
US,CA,91046,GLENDALE,1,6,0.25,0.75,3.25,10.25,0,0,FALSE
US,CA,91066,ARCADIA,1,6,0.25,0,3.25,9.5,0,0,FALSE
US,CA,91077,ARCADIA,1,6,0.25,0,3.25,9.5,0,0,FALSE
US,CA,91101,PASADENA TOURISM BUSINESS IMPROVEMENT DISTRICT,1,6,0.25,0.75,3.25,10.25,0,0,FALSE
US,CA,91102,PASADENA TOURISM BUSINESS IMPROVEMENT DISTRICT,1,6,0.25,0.75,3.25,10.25,0,0,FALSE
US,CA,91103,PASADENA TOURISM BUSINESS IMPROVEMENT DISTRICT,1,6,0.25,0.75,3.25,10.25,0,0,FALSE
US,CA,91104,PASADENA TOURISM BUSINESS IMPROVEMENT DISTRICT,1,6,0.25,0.75,3.25,10.25,0,0,FALSE
US,CA,91105,PASADENA TOURISM BUSINESS IMPROVEMENT DISTRICT,1,6,0.25,0.75,3.25,10.25,0,0,FALSE
US,CA,91106,PASADENA TOURISM BUSINESS IMPROVEMENT DISTRICT,1,6,0.25,0.75,3.25,10.25,0,0,FALSE
US,CA,91107,PASADENA TOURISM BUSINESS IMPROVEMENT DISTRICT,1,6,0.25,0.75,3.25,10.25,0,0,FALSE
US,CA,91108,SAN MARINO,2,6,0.25,0,3.25,9.5,0,0,FALSE
US,CA,91109,PASADENA TOURISM BUSINESS IMPROVEMENT DISTRICT,1,6,0.25,0.75,3.25,10.25,0,0,FALSE
US,CA,91114,PASADENA TOURISM BUSINESS IMPROVEMENT DISTRICT,1,6,0.25,0.75,3.25,10.25,0,0,FALSE
US,CA,91115,PASADENA TOURISM BUSINESS IMPROVEMENT DISTRICT,1,6,0.25,0.75,3.25,10.25,0,0,FALSE
US,CA,91116,PASADENA TOURISM BUSINESS IMPROVEMENT DISTRICT,1,6,0.25,0.75,3.25,10.25,0,0,FALSE
US,CA,91117,PASADENA TOURISM BUSINESS IMPROVEMENT DISTRICT,1,6,0.25,0.75,3.25,10.25,0,0,FALSE
US,CA,91118,SAN MARINO,2,6,0.25,0,3.25,9.5,0,0,FALSE
US,CA,91121,PASADENA TOURISM BUSINESS IMPROVEMENT DISTRICT,1,6,0.25,0.75,3.25,10.25,0,0,FALSE
US,CA,91123,PASADENA TOURISM BUSINESS IMPROVEMENT DISTRICT,1,6,0.25,0.75,3.25,10.25,0,0,FALSE
US,CA,91124,PASADENA TOURISM BUSINESS IMPROVEMENT DISTRICT,1,6,0.25,0.75,3.25,10.25,0,0,FALSE
US,CA,91125,PASADENA TOURISM BUSINESS IMPROVEMENT DISTRICT,1,6,0.25,0.75,3.25,10.25,0,0,FALSE
US,CA,91126,PASADENA TOURISM BUSINESS IMPROVEMENT DISTRICT,1,6,0.25,0.75,3.25,10.25,0,0,FALSE
US,CA,91129,PASADENA TOURISM BUSINESS IMPROVEMENT DISTRICT,1,6,0.25,0.75,3.25,10.25,0,0,FALSE
US,CA,91182,PASADENA TOURISM BUSINESS IMPROVEMENT DISTRICT,1,6,0.25,0.75,3.25,10.25,0,0,FALSE
US,CA,91184,PASADENA TOURISM BUSINESS IMPROVEMENT DISTRICT,1,6,0.25,0.75,3.25,10.25,0,0,FALSE
US,CA,91185,PASADENA TOURISM BUSINESS IMPROVEMENT DISTRICT,1,6,0.25,0.75,3.25,10.25,0,0,FALSE
US,CA,91188,PASADENA TOURISM BUSINESS IMPROVEMENT DISTRICT,1,6,0.25,0.75,3.25,10.25,0,0,FALSE
US,CA,91189,PASADENA TOURISM BUSINESS IMPROVEMENT DISTRICT,1,6,0.25,0.75,3.25,10.25,0,0,FALSE
US,CA,91199,PASADENA TOURISM BUSINESS IMPROVEMENT DISTRICT,1,6,0.25,0.75,3.25,10.25,0,0,FALSE
US,CA,91201,GLENDALE,1,6,0.25,0.75,3.25,10.25,0,0,FALSE
US,CA,91202,GLENDALE,1,6,0.25,0.75,3.25,10.25,0,0,FALSE
US,CA,91203,GLENDALE,1,6,0.25,0.75,3.25,10.25,0,0,FALSE
US,CA,91204,GLENDALE,1,6,0.25,0.75,3.25,10.25,0,0,FALSE
US,CA,91205,GLENDALE,1,6,0.25,0.75,3.25,10.25,0,0,FALSE
US,CA,91206,GLENDALE,1,6,0.25,0.75,3.25,10.25,0,0,FALSE
US,CA,91207,GLENDALE,1,6,0.25,0.75,3.25,10.25,0,0,FALSE
US,CA,91208,GLENDALE,1,6,0.25,0.75,3.25,10.25,0,0,FALSE
US,CA,91209,GLENDALE,1,6,0.25,0.75,3.25,10.25,0,0,FALSE
US,CA,91210,GLENDALE,1,6,0.25,0.75,3.25,10.25,0,0,FALSE
US,CA,91214,GLENDALE,2,6,0.25,0.75,3.25,10.25,0,0,FALSE
US,CA,91221,GLENDALE,1,6,0.25,0.75,3.25,10.25,0,0,FALSE
US,CA,91222,GLENDALE,1,6,0.25,0.75,3.25,10.25,0,0,FALSE
US,CA,91224,GLENDALE,2,6,0.25,0.75,3.25,10.25,0,0,FALSE
US,CA,91225,GLENDALE,1,6,0.25,0.75,3.25,10.25,0,0,FALSE
US,CA,91226,GLENDALE,1,6,0.25,0.75,3.25,10.25,0,0,FALSE
US,CA,91301,AGOURA HILLS,8,6,0.25,0,3.25,9.5,0,0,FALSE
US,CA,91302,CALABASAS,4,6,0.25,0,3.25,9.5,0,0,FALSE
US,CA,91303,LOS ANGELES,2,6,0.25,0,3.25,9.5,0,0,FALSE
US,CA,91304,LOS ANGELES,3,6,0.25,0,3.25,9.5,0,0,FALSE
US,CA,91305,LOS ANGELES,1,6,0.25,0,3.25,9.5,0,0,FALSE
US,CA,91306,LOS ANGELES,2,6,0.25,0,3.25,9.5,0,0,FALSE
US,CA,91307,LOS ANGELES,3,6,0.25,0,3.25,9.5,0,0,FALSE
US,CA,91308,LOS ANGELES,2,6,0.25,0,3.25,9.5,0,0,FALSE
US,CA,91309,LOS ANGELES,1,6,0.25,0,3.25,9.5,0,0,FALSE
US,CA,91311,LOS ANGELES,1,6,0.25,0,3.25,9.5,0,0,FALSE
US,CA,91313,LOS ANGELES,1,6,0.25,0,3.25,9.5,0,0,FALSE
US,CA,91316,LOS ANGELES,2,6,0.25,0,3.25,9.5,0,0,FALSE
US,CA,91319,THOUSAND OAKS,1,6,0.25,0,1,7.25,0,0,FALSE
US,CA,91320,THOUSAND OAKS,3,6,0.25,0,1,7.25,0,0,FALSE
US,CA,91321,SANTA CLARITA TOURISM MARKETING DISTRICT,3,6,0.25,0,3.25,9.5,0,0,FALSE
US,CA,91322,SANTA CLARITA TOURISM MARKETING DISTRICT,2,6,0.25,0,3.25,9.5,0,0,FALSE
US,CA,91324,LOS ANGELES,1,6,0.25,0,3.25,9.5,0,0,FALSE
US,CA,91325,LOS ANGELES,1,6,0.25,0,3.25,9.5,0,0,FALSE
US,CA,91326,LOS ANGELES,2,6,0.25,0,3.25,9.5,0,0,FALSE
US,CA,91327,LOS ANGELES,2,6,0.25,0,3.25,9.5,0,0,FALSE
US,CA,91328,LOS ANGELES,1,6,0.25,0,3.25,9.5,0,0,FALSE
US,CA,91329,LOS ANGELES,1,6,0.25,0,3.25,9.5,0,0,FALSE
US,CA,91330,LOS ANGELES,1,6,0.25,0,3.25,9.5,0,0,FALSE
US,CA,91331,LOS ANGELES,4,6,0.25,0,3.25,9.5,0,0,FALSE
US,CA,91333,LOS ANGELES,1,6,0.25,0,3.25,9.5,0,0,FALSE
US,CA,91334,LOS ANGELES,2,6,0.25,0,3.25,9.5,0,0,FALSE
US,CA,91335,LOS ANGELES,3,6,0.25,0,3.25,9.5,0,0,FALSE
US,CA,91337,LOS ANGELES,1,6,0.25,0,3.25,9.5,0,0,FALSE
US,CA,91340,SAN FERNANDO,1,6,0.25,0.5,3.25,10,0,0,FALSE
US,CA,91341,SAN FERNANDO,1,6,0.25,0.5,3.25,10,0,0,FALSE
US,CA,91342,LOS ANGELES,3,6,0.25,0,3.25,9.5,0,0,FALSE
US,CA,91343,LOS ANGELES,3,6,0.25,0,3.25,9.5,0,0,FALSE
US,CA,91344,LOS ANGELES,2,6,0.25,0,3.25,9.5,0,0,FALSE
US,CA,91345,LOS ANGELES,2,6,0.25,0,3.25,9.5,0,0,FALSE
US,CA,91346,LOS ANGELES,2,6,0.25,0,3.25,9.5,0,0,FALSE
US,CA,91350,SANTA CLARITA TOURISM MARKETING DISTRICT,7,6,0.25,0,3.25,9.5,0,0,FALSE
US,CA,91351,SANTA CLARITA TOURISM MARKETING DISTRICT,3,6,0.25,0,3.25,9.5,0,0,FALSE
US,CA,91352,LOS ANGELES,4,6,0.25,0,3.25,9.5,0,0,FALSE
US,CA,91353,LOS ANGELES,1,6,0.25,0,3.25,9.5,0,0,FALSE
US,CA,91354,SANTA CLARITA TOURISM MARKETING DISTRICT,3,6,0.25,0,3.25,9.5,0,0,FALSE
US,CA,91355,SANTA CLARITA TOURISM MARKETING DISTRICT,3,6,0.25,0,3.25,9.5,0,0,FALSE
US,CA,91356,LOS ANGELES,1,6,0.25,0,3.25,9.5,0,0,FALSE
US,CA,91357,LOS ANGELES,1,6,0.25,0,3.25,9.5,0,0,FALSE
US,CA,91358,THOUSAND OAKS,1,6,0.25,0,1,7.25,0,0,FALSE
US,CA,91359,THOUSAND OAKS,1,6,0.25,0,1,7.25,0,0,FALSE
US,CA,91360,THOUSAND OAKS,1,6,0.25,0,1,7.25,0,0,FALSE
US,CA,91361,THOUSAND OAKS,4,6,0.25,0,1,7.25,0,0,FALSE
US,CA,91362,THOUSAND OAKS,2,6,0.25,0,1,7.25,0,0,FALSE
US,CA,91364,LOS ANGELES,1,6,0.25,0,3.25,9.5,0,0,FALSE
US,CA,91365,LOS ANGELES,1,6,0.25,0,3.25,9.5,0,0,FALSE
US,CA,91367,LOS ANGELES,1,6,0.25,0,3.25,9.5,0,0,FALSE
US,CA,91371,LOS ANGELES,1,6,0.25,0,3.25,9.5,0,0,FALSE
US,CA,91372,CALABASAS,2,6,0.25,0,3.25,9.5,0,0,FALSE
US,CA,91376,AGOURA HILLS,3,6,0.25,0,3.25,9.5,0,0,FALSE
US,CA,91377,VENTURA CO LOCAL TAX SL,3,6,0.25,0,1,7.25,0,0,FALSE
US,CA,91380,SANTA CLARITA TOURISM MARKETING DISTRICT,3,6,0.25,0,3.25,9.5,0,0,FALSE
US,CA,91381,LOS ANGELES COUNTY,5,6,0.25,0,3.25,9.5,0,0,FALSE
US,CA,91382,SANTA CLARITA TOURISM MARKETING DISTRICT,1,6,0.25,0,3.25,9.5,0,0,FALSE
US,CA,91383,SANTA CLARITA TOURISM MARKETING DISTRICT,1,6,0.25,0,3.25,9.5,0,0,FALSE
US,CA,91384,LOS ANGELES COUNTY,3,6,0.25,0,3.25,9.5,0,0,FALSE
US,CA,91385,SANTA CLARITA TOURISM MARKETING DISTRICT,3,6,0.25,0,3.25,9.5,0,0,FALSE
US,CA,91386,SANTA CLARITA TOURISM MARKETING DISTRICT,3,6,0.25,0,3.25,9.5,0,0,FALSE
US,CA,91387,SANTA CLARITA TOURISM MARKETING DISTRICT,3,6,0.25,0,3.25,9.5,0,0,FALSE
US,CA,91390,LOS ANGELES COUNTY,8,6,0.25,0,3.25,9.5,0,0,FALSE
US,CA,91392,LOS ANGELES,1,6,0.25,0,3.25,9.5,0,0,FALSE
US,CA,91393,LOS ANGELES,2,6,0.25,0,3.25,9.5,0,0,FALSE
US,CA,91394,LOS ANGELES,1,6,0.25,0,3.25,9.5,0,0,FALSE
US,CA,91395,LOS ANGELES,1,6,0.25,0,3.25,9.5,0,0,FALSE
US,CA,91396,LOS ANGELES,2,6,0.25,0,3.25,9.5,0,0,FALSE
US,CA,91401,LOS ANGELES,3,6,0.25,0,3.25,9.5,0,0,FALSE
US,CA,91402,LOS ANGELES,2,6,0.25,0,3.25,9.5,0,0,FALSE
US,CA,91403,LOS ANGELES,2,6,0.25,0,3.25,9.5,0,0,FALSE
US,CA,91404,LOS ANGELES,1,6,0.25,0,3.25,9.5,0,0,FALSE
US,CA,91405,LOS ANGELES,2,6,0.25,0,3.25,9.5,0,0,FALSE
US,CA,91406,LOS ANGELES,2,6,0.25,0,3.25,9.5,0,0,FALSE
US,CA,91407,LOS ANGELES,1,6,0.25,0,3.25,9.5,0,0,FALSE
US,CA,91408,LOS ANGELES,1,6,0.25,0,3.25,9.5,0,0,FALSE
US,CA,91409,LOS ANGELES,1,6,0.25,0,3.25,9.5,0,0,FALSE
US,CA,91411,LOS ANGELES,2,6,0.25,0,3.25,9.5,0,0,FALSE
US,CA,91412,LOS ANGELES,2,6,0.25,0,3.25,9.5,0,0,FALSE
US,CA,91413,LOS ANGELES,2,6,0.25,0,3.25,9.5,0,0,FALSE
US,CA,91416,LOS ANGELES,2,6,0.25,0,3.25,9.5,0,0,FALSE
US,CA,91423,LOS ANGELES,2,6,0.25,0,3.25,9.5,0,0,FALSE
US,CA,91426,LOS ANGELES,2,6,0.25,0,3.25,9.5,0,0,FALSE
US,CA,91436,LOS ANGELES,2,6,0.25,0,3.25,9.5,0,0,FALSE
US,CA,91470,LOS ANGELES,1,6,0.25,0,3.25,9.5,0,0,FALSE
US,CA,91482,LOS ANGELES,1,6,0.25,0,3.25,9.5,0,0,FALSE
US,CA,91495,LOS ANGELES,2,6,0.25,0,3.25,9.5,0,0,FALSE
US,CA,91496,LOS ANGELES,1,6,0.25,0,3.25,9.5,0,0,FALSE
US,CA,91501,BURBANK,2,6,0.25,0.75,3.25,10.25,0,0,FALSE
US,CA,91502,BURBANK,1,6,0.25,0.75,3.25,10.25,0,0,FALSE
US,CA,91503,BURBANK,1,6,0.25,0.75,3.25,10.25,0,0,FALSE
US,CA,91504,BURBANK,1,6,0.25,0.75,3.25,10.25,0,0,FALSE
US,CA,91505,BURBANK,1,6,0.25,0.75,3.25,10.25,0,0,FALSE
US,CA,91506,BURBANK,1,6,0.25,0.75,3.25,10.25,0,0,FALSE
US,CA,91507,BURBANK,2,6,0.25,0.75,3.25,10.25,0,0,FALSE
US,CA,91508,BURBANK,1,6,0.25,0.75,3.25,10.25,0,0,FALSE
US,CA,91510,BURBANK,1,6,0.25,0.75,3.25,10.25,0,0,FALSE
US,CA,91521,BURBANK,1,6,0.25,0.75,3.25,10.25,0,0,FALSE
US,CA,91522,BURBANK,1,6,0.25,0.75,3.25,10.25,0,0,FALSE
US,CA,91523,BURBANK,1,6,0.25,0.75,3.25,10.25,0,0,FALSE
US,CA,91526,BURBANK,1,6,0.25,0.75,3.25,10.25,0,0,FALSE
US,CA,91601,LOS ANGELES,3,6,0.25,0,3.25,9.5,0,0,FALSE
US,CA,91602,LOS ANGELES,4,6,0.25,0,3.25,9.5,0,0,FALSE
US,CA,91603,LOS ANGELES,1,6,0.25,0,3.25,9.5,0,0,FALSE
US,CA,91604,LOS ANGELES,2,6,0.25,0,3.25,9.5,0,0,FALSE
US,CA,91605,LOS ANGELES,1,6,0.25,0,3.25,9.5,0,0,FALSE
US,CA,91606,LOS ANGELES,2,6,0.25,0,3.25,9.5,0,0,FALSE
US,CA,91607,LOS ANGELES,4,6,0.25,0,3.25,9.5,0,0,FALSE
US,CA,91608,LOS ANGELES COUNTY,1,6,0.25,0,3.25,9.5,0,0,FALSE
US,CA,91609,LOS ANGELES,1,6,0.25,0,3.25,9.5,0,0,FALSE
US,CA,91610,LOS ANGELES,2,6,0.25,0,3.25,9.5,0,0,FALSE
US,CA,91611,LOS ANGELES,1,6,0.25,0,3.25,9.5,0,0,FALSE
US,CA,91612,LOS ANGELES,1,6,0.25,0,3.25,9.5,0,0,FALSE
US,CA,91614,LOS ANGELES,2,6,0.25,0,3.25,9.5,0,0,FALSE
US,CA,91615,LOS ANGELES,1,6,0.25,0,3.25,9.5,0,0,FALSE
US,CA,91617,LOS ANGELES,2,6,0.25,0,3.25,9.5,0,0,FALSE
US,CA,91618,LOS ANGELES,1,6,0.25,0,3.25,9.5,0,0,FALSE
US,CA,91701,RANCHO CUCAMONGA,2,6,0.25,0,1.5,7.75,0,0,FALSE
US,CA,91702,AZUSA,2,6,0.25,0,3.25,9.5,0,0,FALSE
US,CA,91706,BALDWIN PARK,2,6,0.25,0,3.25,9.5,0,0,FALSE
US,CA,91708,CHINO,1,6,0.25,0,1.5,7.75,0,0,FALSE
US,CA,91709,CHINO HILLS,1,6,0.25,0,1.5,7.75,0,0,FALSE
US,CA,91710,CHINO,3,6,0.25,0,1.5,7.75,0,0,FALSE
US,CA,91711,CLAREMONT,1,6,0.25,0,3.25,9.5,0,0,FALSE
US,CA,91714,INDUSTRY,1,6,0.25,0,3.25,9.5,0,0,FALSE
US,CA,91715,INDUSTRY,1,6,0.25,0,3.25,9.5,0,0,FALSE
US,CA,91722,COVINA,1,6,0.25,0.75,3.25,10.25,0,0,FALSE
US,CA,91723,COVINA,1,6,0.25,0.75,3.25,10.25,0,0,FALSE
US,CA,91724,COVINA,2,6,0.25,0.75,3.25,10.25,0,0,FALSE
US,CA,91729,RANCHO CUCAMONGA,2,6,0.25,0,1.5,7.75,0,0,FALSE
US,CA,91730,RANCHO CUCAMONGA,2,6,0.25,0,1.5,7.75,0,0,FALSE
US,CA,91731,EL MONTE,1,6,0.25,0.5,3.25,10,0,0,FALSE
US,CA,91732,EL MONTE,2,6,0.25,0.5,3.25,10,0,0,FALSE
US,CA,91733,SOUTH EL MONTE,2,6,0.25,0.5,3.25,10,0,0,FALSE
US,CA,91734,EL MONTE,1,6,0.25,0.5,3.25,10,0,0,FALSE
US,CA,91737,RANCHO CUCAMONGA,2,6,0.25,0,1.5,7.75,0,0,FALSE
US,CA,91739,RANCHO CUCAMONGA,2,6,0.25,0,1.5,7.75,0,0,FALSE
US,CA,91740,GLENDORA,1,6,0.25,0.75,3.25,10.25,0,0,FALSE
US,CA,91741,GLENDORA,1,6,0.25,0.75,3.25,10.25,0,0,FALSE
US,CA,91743,ONTARIO,1,6,0.25,0,1.5,7.75,0,0,FALSE
US,CA,91744,LA PUENTE,2,6,0.25,0.5,3.25,10,0,0,FALSE
US,CA,91745,LOS ANGELES COUNTY,3,6,0.25,0,3.25,9.5,0,0,FALSE
US,CA,91746,LOS ANGELES COUNTY,3,6,0.25,0,3.25,9.5,0,0,FALSE
US,CA,91747,LA PUENTE,1,6,0.25,0.5,3.25,10,0,0,FALSE
US,CA,91748,LOS ANGELES COUNTY,4,6,0.25,0,3.25,9.5,0,0,FALSE
US,CA,91750,LA VERNE,1,6,0.25,0,3.25,9.5,0,0,FALSE
US,CA,91752,JURUPA VALLEY,4,6,0.25,0,1.5,7.75,0,0,FALSE
US,CA,91754,MONTEREY PARK,1,6,0.25,0,3.25,9.5,0,0,FALSE
US,CA,91755,MONTEREY PARK,1,6,0.25,0,3.25,9.5,0,0,FALSE
US,CA,91756,MONTEREY PARK,2,6,0.25,0,3.25,9.5,0,0,FALSE
US,CA,91759,SAN BERNARDINO COUNTY,1,6,0.25,0,1.5,7.75,0,0,FALSE
US,CA,91761,ONTARIO,1,6,0.25,0,1.5,7.75,0,0,FALSE
US,CA,91762,ONTARIO,2,6,0.25,0,1.5,7.75,0,0,FALSE
US,CA,91763,MONTCLAIR,1,6,0.25,0.25,1.5,8,0,0,FALSE
US,CA,91764,ONTARIO,1,6,0.25,0,1.5,7.75,0,0,FALSE
US,CA,91765,DIAMOND BAR,2,6,0.25,0,3.25,9.5,0,0,FALSE
US,CA,91766,POMONA,2,6,0.25,0.75,3.25,10.25,0,0,FALSE
US,CA,91767,POMONA,1,6,0.25,0.75,3.25,10.25,0,0,FALSE
US,CA,91768,POMONA,1,6,0.25,0.75,3.25,10.25,0,0,FALSE
US,CA,91769,POMONA,1,6,0.25,0.75,3.25,10.25,0,0,FALSE
US,CA,91770,ROSEMEAD,1,6,0.25,0,3.25,9.5,0,0,FALSE
US,CA,91771,LOS ANGELES COUNTY,1,6,0.25,0,3.25,9.5,0,0,FALSE
US,CA,91772,LOS ANGELES COUNTY,1,6,0.25,0,3.25,9.5,0,0,FALSE
US,CA,91773,SAN DIMAS,1,6,0.25,0,3.25,9.5,0,0,FALSE
US,CA,91775,LOS ANGELES COUNTY,1,6,0.25,0,3.25,9.5,0,0,FALSE
US,CA,91776,SAN GABRIEL,1,6,0.25,0,3.25,9.5,0,0,FALSE
US,CA,91778,SAN GABRIEL,1,6,0.25,0,3.25,9.5,0,0,FALSE
US,CA,91780,TEMPLE CITY,1,6,0.25,0,3.25,9.5,0,0,FALSE
US,CA,91784,UPLAND,1,6,0.25,0,1.5,7.75,0,0,FALSE
US,CA,91785,UPLAND,1,6,0.25,0,1.5,7.75,0,0,FALSE
US,CA,91786,UPLAND,1,6,0.25,0,1.5,7.75,0,0,FALSE
US,CA,91788,WALNUT,1,6,0.25,0,3.25,9.5,0,0,FALSE
US,CA,91789,WALNUT,2,6,0.25,0,3.25,9.5,0,0,FALSE
US,CA,91790,WEST COVINA,1,6,0.25,0,3.25,9.5,0,0,FALSE
US,CA,91791,WEST COVINA,1,6,0.25,0,3.25,9.5,0,0,FALSE
US,CA,91792,WEST COVINA,1,6,0.25,0,3.25,9.5,0,0,FALSE
US,CA,91793,WEST COVINA,1,6,0.25,0,3.25,9.5,0,0,FALSE
US,CA,91801,ALHAMBRA,1,6,0.25,0,3.25,9.5,0,0,FALSE
US,CA,91802,ALHAMBRA,1,6,0.25,0,3.25,9.5,0,0,FALSE
US,CA,91803,ALHAMBRA,1,6,0.25,0,3.25,9.5,0,0,FALSE
US,CA,91804,ALHAMBRA,1,6,0.25,0,3.25,9.5,0,0,FALSE
US,CA,91896,ALHAMBRA,1,6,0.25,0,3.25,9.5,0,0,FALSE
US,CA,91899,ALHAMBRA,2,6,0.25,0,3.25,9.5,0,0,FALSE
US,CA,91901,SAN DIEGO COUNTY,1,6,0.25,0,1.5,7.75,0,0,FALSE
US,CA,91902,SAN DIEGO COUNTY,1,6,0.25,0,1.5,7.75,0,0,FALSE
US,CA,91903,SAN DIEGO COUNTY,1,6,0.25,0,1.5,7.75,0,0,FALSE
US,CA,91905,SAN DIEGO COUNTY,1,6,0.25,0,1.5,7.75,0,0,FALSE
US,CA,91906,SAN DIEGO COUNTY,1,6,0.25,0,1.5,7.75,0,0,FALSE
US,CA,91908,SAN DIEGO COUNTY,1,6,0.25,0,1.5,7.75,0,0,FALSE
US,CA,91910,CHULA VISTA,1,6,0.25,1,1.5,8.75,0,0,FALSE
US,CA,91911,CHULA VISTA,1,6,0.25,1,1.5,8.75,0,0,FALSE
US,CA,91912,CHULA VISTA,1,6,0.25,1,1.5,8.75,0,0,FALSE
US,CA,91913,CHULA VISTA,1,6,0.25,1,1.5,8.75,0,0,FALSE
US,CA,91914,CHULA VISTA,1,6,0.25,1,1.5,8.75,0,0,FALSE
US,CA,91915,CHULA VISTA,1,6,0.25,1,1.5,8.75,0,0,FALSE
US,CA,91916,SAN DIEGO COUNTY,1,6,0.25,0,1.5,7.75,0,0,FALSE
US,CA,91917,SAN DIEGO COUNTY,1,6,0.25,0,1.5,7.75,0,0,FALSE
US,CA,91921,CHULA VISTA,1,6,0.25,1,1.5,8.75,0,0,FALSE
US,CA,91931,SAN DIEGO COUNTY,1,6,0.25,0,1.5,7.75,0,0,FALSE
US,CA,91932,IMPERIAL BEACH,1,6,0.25,0,1.5,7.75,0,0,FALSE
US,CA,91933,IMPERIAL BEACH,1,6,0.25,0,1.5,7.75,0,0,FALSE
US,CA,91934,SAN DIEGO COUNTY,1,6,0.25,0,1.5,7.75,0,0,FALSE
US,CA,91935,SAN DIEGO COUNTY,1,6,0.25,0,1.5,7.75,0,0,FALSE
US,CA,91941,LA MESA,1,6,0.25,0.75,1.5,8.5,0,0,FALSE
US,CA,91942,LA MESA,1,6,0.25,0.75,1.5,8.5,0,0,FALSE
US,CA,91943,LA MESA,1,6,0.25,0.75,1.5,8.5,0,0,FALSE
US,CA,91944,LA MESA,1,6,0.25,0.75,1.5,8.5,0,0,FALSE
US,CA,91945,LEMON GROVE,1,6,0.25,0,1.5,7.75,0,0,FALSE
US,CA,91946,LEMON GROVE,1,6,0.25,0,1.5,7.75,0,0,FALSE
US,CA,91948,SAN DIEGO COUNTY,1,6,0.25,0,1.5,7.75,0,0,FALSE
US,CA,91950,NATIONAL CITY,2,6,0.25,1,1.5,8.75,0,0,FALSE
US,CA,91951,NATIONAL CITY,1,6,0.25,1,1.5,8.75,0,0,FALSE
US,CA,91962,SAN DIEGO COUNTY,1,6,0.25,0,1.5,7.75,0,0,FALSE
US,CA,91963,SAN DIEGO COUNTY,1,6,0.25,0,1.5,7.75,0,0,FALSE
US,CA,91976,SAN DIEGO COUNTY,1,6,0.25,0,1.5,7.75,0,0,FALSE
US,CA,91977,SAN DIEGO COUNTY,1,6,0.25,0,1.5,7.75,0,0,FALSE
US,CA,91978,SAN DIEGO COUNTY,1,6,0.25,0,1.5,7.75,0,0,FALSE
US,CA,91979,SAN DIEGO COUNTY,1,6,0.25,0,1.5,7.75,0,0,FALSE
US,CA,91980,SAN DIEGO COUNTY,1,6,0.25,0,1.5,7.75,0,0,FALSE
US,CA,92003,SAN DIEGO COUNTY,1,6,0.25,0,1.5,7.75,0,0,FALSE
US,CA,92004,SAN DIEGO COUNTY,1,6,0.25,0,1.5,7.75,0,0,FALSE
US,CA,92007,ENCINITAS,2,6,0.25,0,1.5,7.75,0,0,FALSE
US,CA,92008,CARLSBAD,1,6,0.25,0,1.5,7.75,0,0,FALSE
US,CA,92009,CARLSBAD,3,6,0.25,0,1.5,7.75,0,0,FALSE
US,CA,92010,CARLSBAD,1,6,0.25,0,1.5,7.75,0,0,FALSE
US,CA,92011,CARLSBAD,3,6,0.25,0,1.5,7.75,0,0,FALSE
US,CA,92013,CARLSBAD,1,6,0.25,0,1.5,7.75,0,0,FALSE
US,CA,92014,DEL MAR,1,6,0.25,1,1.5,8.75,0,0,FALSE
US,CA,92018,CARLSBAD,1,6,0.25,0,1.5,7.75,0,0,FALSE
US,CA,92019,SAN DIEGO COUNTY,1,6,0.25,0,1.5,7.75,0,0,FALSE
US,CA,92020,EL CAJON,1,6,0.25,0.5,1.5,8.25,0,0,FALSE
US,CA,92021,SAN DIEGO COUNTY,3,6,0.25,0,1.5,7.75,0,0,FALSE
US,CA,92022,EL CAJON,1,6,0.25,0.5,1.5,8.25,0,0,FALSE
US,CA,92023,ENCINITAS,1,6,0.25,0,1.5,7.75,0,0,FALSE
US,CA,92024,ENCINITAS,3,6,0.25,0,1.5,7.75,0,0,FALSE
US,CA,92025,ESCONDIDO,1,6,0.25,0,1.5,7.75,0,0,FALSE
US,CA,92026,ESCONDIDO,2,6,0.25,0,1.5,7.75,0,0,FALSE
US,CA,92027,ESCONDIDO,1,6,0.25,0,1.5,7.75,0,0,FALSE
US,CA,92028,SAN DIEGO COUNTY,2,6,0.25,0,1.5,7.75,0,0,FALSE
US,CA,92029,ESCONDIDO,2,6,0.25,0,1.5,7.75,0,0,FALSE
US,CA,92030,ESCONDIDO,1,6,0.25,0,1.5,7.75,0,0,FALSE
US,CA,92033,ESCONDIDO,1,6,0.25,0,1.5,7.75,0,0,FALSE
US,CA,92036,SAN DIEGO COUNTY,1,6,0.25,0,1.5,7.75,0,0,FALSE
US,CA,92037,SAN DIEGO CITY,1,6,0.25,0,1.5,7.75,0,0,FALSE
US,CA,92038,SAN DIEGO CITY,1,6,0.25,0,1.5,7.75,0,0,FALSE
US,CA,92039,SAN DIEGO CITY,1,6,0.25,0,1.5,7.75,0,0,FALSE
US,CA,92040,SAN DIEGO COUNTY,1,6,0.25,0,1.5,7.75,0,0,FALSE
US,CA,92046,ESCONDIDO,1,6,0.25,0,1.5,7.75,0,0,FALSE
US,CA,92049,OCEANSIDE TOURISM MARKETING DISTRICT,1,6,0.25,0.5,1.5,8.25,0,0,FALSE
US,CA,92051,OCEANSIDE TOURISM MARKETING DISTRICT,1,6,0.25,0.5,1.5,8.25,0,0,FALSE
US,CA,92052,OCEANSIDE TOURISM MARKETING DISTRICT,1,6,0.25,0.5,1.5,8.25,0,0,FALSE
US,CA,92054,OCEANSIDE TOURISM MARKETING DISTRICT,3,6,0.25,0.5,1.5,8.25,0,0,FALSE
US,CA,92055,POWAY,3,6,0.25,0,1.5,7.75,0,0,FALSE
US,CA,92056,OCEANSIDE TOURISM MARKETING DISTRICT,1,6,0.25,0.5,1.5,8.25,0,0,FALSE
US,CA,92057,OCEANSIDE TOURISM MARKETING DISTRICT,1,6,0.25,0.5,1.5,8.25,0,0,FALSE
US,CA,92058,OCEANSIDE TOURISM MARKETING DISTRICT,1,6,0.25,0.5,1.5,8.25,0,0,FALSE
US,CA,92059,SAN DIEGO COUNTY,1,6,0.25,0,1.5,7.75,0,0,FALSE
US,CA,92060,POWAY,1,6,0.25,0,1.5,7.75,0,0,FALSE
US,CA,92061,SAN DIEGO COUNTY,2,6,0.25,0,1.5,7.75,0,0,FALSE
US,CA,92064,POWAY,1,6,0.25,0,1.5,7.75,0,0,FALSE
US,CA,92065,SAN DIEGO COUNTY,1,6,0.25,0,1.5,7.75,0,0,FALSE
US,CA,92066,SAN DIEGO COUNTY,2,6,0.25,0,1.5,7.75,0,0,FALSE
US,CA,92067,SAN DIEGO COUNTY,1,6,0.25,0,1.5,7.75,0,0,FALSE
US,CA,92068,OCEANSIDE TOURISM MARKETING DISTRICT,2,6,0.25,0.5,1.5,8.25,0,0,FALSE
US,CA,92069,SAN MARCOS,2,6,0.25,0,1.5,7.75,0,0,FALSE
US,CA,92070,SAN DIEGO COUNTY,1,6,0.25,0,1.5,7.75,0,0,FALSE
US,CA,92071,SANTEE,1,6,0.25,0,1.5,7.75,0,0,FALSE
US,CA,92072,SANTEE,1,6,0.25,0,1.5,7.75,0,0,FALSE
US,CA,92074,POWAY,1,6,0.25,0,1.5,7.75,0,0,FALSE
US,CA,92075,SOLANA BEACH,1,6,0.25,0,1.5,7.75,0,0,FALSE
US,CA,92078,SAN MARCOS,3,6,0.25,0,1.5,7.75,0,0,FALSE
US,CA,92079,SAN MARCOS,1,6,0.25,0,1.5,7.75,0,0,FALSE
US,CA,92081,VISTA,1,6,0.25,0.5,1.5,8.25,0,0,FALSE
US,CA,92082,SAN DIEGO COUNTY,1,6,0.25,0,1.5,7.75,0,0,FALSE
US,CA,92083,VISTA,1,6,0.25,0.5,1.5,8.25,0,0,FALSE
US,CA,92084,VISTA,1,6,0.25,0.5,1.5,8.25,0,0,FALSE
US,CA,92085,VISTA,1,6,0.25,0.5,1.5,8.25,0,0,FALSE
US,CA,92086,SAN DIEGO COUNTY,1,6,0.25,0,1.5,7.75,0,0,FALSE
US,CA,92088,SAN DIEGO COUNTY,1,6,0.25,0,1.5,7.75,0,0,FALSE
US,CA,92091,SAN DIEGO COUNTY,1,6,0.25,0,1.5,7.75,0,0,FALSE
US,CA,92092,SAN DIEGO CITY,1,6,0.25,0,1.5,7.75,0,0,FALSE
US,CA,92093,SAN DIEGO CITY,1,6,0.25,0,1.5,7.75,0,0,FALSE
US,CA,92096,SAN MARCOS,1,6,0.25,0,1.5,7.75,0,0,FALSE
US,CA,92101,SAN DIEGO CITY,1,6,0.25,0,1.5,7.75,0,0,FALSE
US,CA,92102,SAN DIEGO CITY,1,6,0.25,0,1.5,7.75,0,0,FALSE
US,CA,92103,SAN DIEGO CITY,1,6,0.25,0,1.5,7.75,0,0,FALSE
US,CA,92104,SAN DIEGO CITY,1,6,0.25,0,1.5,7.75,0,0,FALSE
US,CA,92105,SAN DIEGO CITY,1,6,0.25,0,1.5,7.75,0,0,FALSE
US,CA,92106,SAN DIEGO CITY,1,6,0.25,0,1.5,7.75,0,0,FALSE
US,CA,92107,SAN DIEGO CITY,2,6,0.25,0,1.5,7.75,0,0,FALSE
US,CA,92108,SAN DIEGO CITY,1,6,0.25,0,1.5,7.75,0,0,FALSE
US,CA,92109,SAN DIEGO CITY,2,6,0.25,0,1.5,7.75,0,0,FALSE
US,CA,92110,SAN DIEGO CITY,1,6,0.25,0,1.5,7.75,0,0,FALSE
US,CA,92111,SAN DIEGO CITY,1,6,0.25,0,1.5,7.75,0,0,FALSE
US,CA,92112,SAN DIEGO CITY,1,6,0.25,0,1.5,7.75,0,0,FALSE
US,CA,92113,SAN DIEGO CITY,1,6,0.25,0,1.5,7.75,0,0,FALSE
US,CA,92114,SAN DIEGO CITY,1,6,0.25,0,1.5,7.75,0,0,FALSE
US,CA,92115,SAN DIEGO CITY,1,6,0.25,0,1.5,7.75,0,0,FALSE
US,CA,92116,SAN DIEGO CITY,1,6,0.25,0,1.5,7.75,0,0,FALSE
US,CA,92117,SAN DIEGO CITY,1,6,0.25,0,1.5,7.75,0,0,FALSE
US,CA,92118,CORONADO,2,6,0.25,0,1.5,7.75,0,0,FALSE
US,CA,92119,SAN DIEGO CITY,1,6,0.25,0,1.5,7.75,0,0,FALSE
US,CA,92120,SAN DIEGO CITY,1,6,0.25,0,1.5,7.75,0,0,FALSE
US,CA,92121,SAN DIEGO CITY,1,6,0.25,0,1.5,7.75,0,0,FALSE
US,CA,92122,SAN DIEGO CITY,1,6,0.25,0,1.5,7.75,0,0,FALSE
US,CA,92123,SAN DIEGO CITY,1,6,0.25,0,1.5,7.75,0,0,FALSE
US,CA,92124,SAN DIEGO CITY,1,6,0.25,0,1.5,7.75,0,0,FALSE
US,CA,92126,SAN DIEGO CITY,1,6,0.25,0,1.5,7.75,0,0,FALSE
US,CA,92127,SAN DIEGO CITY,1,6,0.25,0,1.5,7.75,0,0,FALSE
US,CA,92128,SAN DIEGO CITY,2,6,0.25,0,1.5,7.75,0,0,FALSE
US,CA,92129,SAN DIEGO CITY,1,6,0.25,0,1.5,7.75,0,0,FALSE
US,CA,92130,SAN DIEGO CITY,1,6,0.25,0,1.5,7.75,0,0,FALSE
US,CA,92131,SAN DIEGO CITY,1,6,0.25,0,1.5,7.75,0,0,FALSE
US,CA,92132,SAN DIEGO CITY,1,6,0.25,0,1.5,7.75,0,0,FALSE
US,CA,92134,SAN DIEGO CITY,1,6,0.25,0,1.5,7.75,0,0,FALSE
US,CA,92135,POWAY,1,6,0.25,0,1.5,7.75,0,0,FALSE
US,CA,92136,SAN DIEGO CITY,1,6,0.25,0,1.5,7.75,0,0,FALSE
US,CA,92137,POWAY,1,6,0.25,0,1.5,7.75,0,0,FALSE
US,CA,92138,POWAY,1,6,0.25,0,1.5,7.75,0,0,FALSE
US,CA,92139,SAN DIEGO CITY,1,6,0.25,0,1.5,7.75,0,0,FALSE
US,CA,92140,SAN DIEGO CITY,1,6,0.25,0,1.5,7.75,0,0,FALSE
US,CA,92142,SAN DIEGO CITY,1,6,0.25,0,1.5,7.75,0,0,FALSE
US,CA,92143,SAN DIEGO CITY,1,6,0.25,0,1.5,7.75,0,0,FALSE
US,CA,92145,SAN DIEGO CITY,1,6,0.25,0,1.5,7.75,0,0,FALSE
US,CA,92147,SAN DIEGO CITY,1,6,0.25,0,1.5,7.75,0,0,FALSE
US,CA,92149,SAN DIEGO CITY,1,6,0.25,0,1.5,7.75,0,0,FALSE
US,CA,92150,SAN DIEGO CITY,1,6,0.25,0,1.5,7.75,0,0,FALSE
US,CA,92152,SAN DIEGO CITY,1,6,0.25,0,1.5,7.75,0,0,FALSE
US,CA,92153,SAN DIEGO CITY,2,6,0.25,0,1.5,7.75,0,0,FALSE
US,CA,92154,SAN DIEGO CITY,1,6,0.25,0,1.5,7.75,0,0,FALSE
US,CA,92155,CORONADO,1,6,0.25,0,1.5,7.75,0,0,FALSE
US,CA,92158,SAN DIEGO COUNTY,1,6,0.25,0,1.5,7.75,0,0,FALSE
US,CA,92159,SAN DIEGO CITY,1,6,0.25,0,1.5,7.75,0,0,FALSE
US,CA,92160,SAN DIEGO CITY,1,6,0.25,0,1.5,7.75,0,0,FALSE
US,CA,92161,SAN DIEGO CITY,1,6,0.25,0,1.5,7.75,0,0,FALSE
US,CA,92163,SAN DIEGO CITY,1,6,0.25,0,1.5,7.75,0,0,FALSE
US,CA,92164,SAN DIEGO CITY,1,6,0.25,0,1.5,7.75,0,0,FALSE
US,CA,92165,SAN DIEGO CITY,1,6,0.25,0,1.5,7.75,0,0,FALSE
US,CA,92166,SAN DIEGO CITY,1,6,0.25,0,1.5,7.75,0,0,FALSE
US,CA,92167,SAN DIEGO CITY,1,6,0.25,0,1.5,7.75,0,0,FALSE
US,CA,92168,SAN DIEGO CITY,1,6,0.25,0,1.5,7.75,0,0,FALSE
US,CA,92169,SAN DIEGO CITY,1,6,0.25,0,1.5,7.75,0,0,FALSE
US,CA,92170,SAN DIEGO CITY,1,6,0.25,0,1.5,7.75,0,0,FALSE
US,CA,92171,SAN DIEGO CITY,1,6,0.25,0,1.5,7.75,0,0,FALSE
US,CA,92172,SAN DIEGO CITY,1,6,0.25,0,1.5,7.75,0,0,FALSE
US,CA,92173,SAN DIEGO CITY,2,6,0.25,0,1.5,7.75,0,0,FALSE
US,CA,92174,SAN DIEGO CITY,1,6,0.25,0,1.5,7.75,0,0,FALSE
US,CA,92175,SAN DIEGO CITY,1,6,0.25,0,1.5,7.75,0,0,FALSE
US,CA,92176,SAN DIEGO CITY,1,6,0.25,0,1.5,7.75,0,0,FALSE
US,CA,92177,SAN DIEGO CITY,1,6,0.25,0,1.5,7.75,0,0,FALSE
US,CA,92178,CORONADO,2,6,0.25,0,1.5,7.75,0,0,FALSE
US,CA,92179,SAN DIEGO CITY,1,6,0.25,0,1.5,7.75,0,0,FALSE
US,CA,92182,SAN DIEGO CITY,1,6,0.25,0,1.5,7.75,0,0,FALSE
US,CA,92187,SAN DIEGO CITY,1,6,0.25,0,1.5,7.75,0,0,FALSE
US,CA,92191,SAN DIEGO CITY,1,6,0.25,0,1.5,7.75,0,0,FALSE
US,CA,92192,SAN DIEGO CITY,1,6,0.25,0,1.5,7.75,0,0,FALSE
US,CA,92193,SAN DIEGO CITY,1,6,0.25,0,1.5,7.75,0,0,FALSE
US,CA,92195,SAN DIEGO CITY,1,6,0.25,0,1.5,7.75,0,0,FALSE
US,CA,92196,SAN DIEGO CITY,1,6,0.25,0,1.5,7.75,0,0,FALSE
US,CA,92197,SAN DIEGO CITY,1,6,0.25,0,1.5,7.75,0,0,FALSE
US,CA,92198,SAN DIEGO CITY,1,6,0.25,0,1.5,7.75,0,0,FALSE
US,CA,92199,SAN DIEGO CITY,1,6,0.25,0,1.5,7.75,0,0,FALSE
US,CA,92201,INDIO,2,6,0.25,1,1.5,8.75,0,0,FALSE
US,CA,92202,INDIO,1,6,0.25,1,1.5,8.75,0,0,FALSE
US,CA,92203,INDIO,2,6,0.25,1,1.5,8.75,0,0,FALSE
US,CA,92210,INDIAN WELLS,2,6,0.25,0,1.5,7.75,0,0,FALSE
US,CA,92211,PALM DESERT,1,6,0.25,0,1.5,7.75,0,0,FALSE
US,CA,92220,BANNING,1,6,0.25,0,1.5,7.75,0,0,FALSE
US,CA,92222,IMPERIAL COUNTY,1,6,0.25,0,1.5,7.75,0,0,FALSE
US,CA,92223,BEAUMONT,2,6,0.25,0,1.5,7.75,0,0,FALSE
US,CA,92225,BLYTHE,4,6,0.25,0,1.5,7.75,0,0,FALSE
US,CA,92226,BLYTHE,2,6,0.25,0,1.5,7.75,0,0,FALSE
US,CA,92227,BRAWLEY,1,6,0.25,0,1.5,7.75,0,0,FALSE
US,CA,92230,RIVERSIDE COUNTY,1,6,0.25,0,1.5,7.75,0,0,FALSE
US,CA,92231,CALEXICO,2,6,0.25,0.5,1.5,8.25,0,0,FALSE
US,CA,92232,CALEXICO,1,6,0.25,0.5,1.5,8.25,0,0,FALSE
US,CA,92233,IMPERIAL COUNTY,1,6,0.25,0,1.5,7.75,0,0,FALSE
US,CA,92234,CATHEDRAL CITY,1,6,0.25,1,1.5,8.75,0,0,FALSE
US,CA,92235,CATHEDRAL CITY,1,6,0.25,1,1.5,8.75,0,0,FALSE
US,CA,92236,COACHELLA,1,6,0.25,1,1.5,8.75,0,0,FALSE
US,CA,92239,RIVERSIDE COUNTY,2,6,0.25,0,1.5,7.75,0,0,FALSE
US,CA,92240,DESERT HOT SPRINGS,1,6,0.25,0,1.5,7.75,0,0,FALSE
US,CA,92241,RIVERSIDE COUNTY,3,6,0.25,0,1.5,7.75,0,0,FALSE
US,CA,92242,SAN BERNARDINO COUNTY,2,6,0.25,0,1.5,7.75,0,0,FALSE
US,CA,92243,EL CENTRO,1,6,0.25,0.5,1.5,8.25,0,0,FALSE
US,CA,92244,EL CENTRO,1,6,0.25,0.5,1.5,8.25,0,0,FALSE
US,CA,92247,LA QUINTA,1,6,0.25,1,1.5,8.75,0,0,FALSE
US,CA,92248,LA QUINTA,1,6,0.25,1,1.5,8.75,0,0,FALSE
US,CA,92249,IMPERIAL COUNTY,1,6,0.25,0,1.5,7.75,0,0,FALSE
US,CA,92250,HOLTVILLE,1,6,0.25,0,1.5,7.75,0,0,FALSE
US,CA,92251,IMPERIAL,1,6,0.25,0,1.5,7.75,0,0,FALSE
US,CA,92252,SAN BERNARDINO COUNTY,1,6,0.25,0,1.5,7.75,0,0,FALSE
US,CA,92253,LA QUINTA,1,6,0.25,1,1.5,8.75,0,0,FALSE
US,CA,92254,RIVERSIDE COUNTY,2,6,0.25,0,1.5,7.75,0,0,FALSE
US,CA,92255,PALM DESERT,1,6,0.25,0,1.5,7.75,0,0,FALSE
US,CA,92256,SAN BERNARDINO COUNTY,1,6,0.25,0,1.5,7.75,0,0,FALSE
US,CA,92257,IMPERIAL COUNTY,2,6,0.25,0,1.5,7.75,0,0,FALSE
US,CA,92258,RIVERSIDE COUNTY,1,6,0.25,0,1.5,7.75,0,0,FALSE
US,CA,92259,IMPERIAL COUNTY,1,6,0.25,0,1.5,7.75,0,0,FALSE
US,CA,92260,PALM DESERT,1,6,0.25,0,1.5,7.75,0,0,FALSE
US,CA,92261,PALM DESERT,1,6,0.25,0,1.5,7.75,0,0,FALSE
US,CA,92262,PALM SPRINGS,3,6,0.25,1.5,1.5,9.25,0,0,FALSE
US,CA,92263,PALM SPRINGS,1,6,0.25,1.5,1.5,9.25,0,0,FALSE
US,CA,92264,PALM SPRINGS,1,6,0.25,1.5,1.5,9.25,0,0,FALSE
US,CA,92266,IMPERIAL COUNTY,1,6,0.25,0,1.5,7.75,0,0,FALSE
US,CA,92267,SAN BERNARDINO COUNTY,2,6,0.25,0,1.5,7.75,0,0,FALSE
US,CA,92268,SAN BERNARDINO COUNTY,2,6,0.25,0,1.5,7.75,0,0,FALSE
US,CA,92270,RANCHO MIRAGE,1,6,0.25,0,1.5,7.75,0,0,FALSE
US,CA,92273,IMPERIAL COUNTY,1,6,0.25,0,1.5,7.75,0,0,FALSE
US,CA,92274,RIVERSIDE COUNTY,7,6,0.25,0,1.5,7.75,0,0,FALSE
US,CA,92275,IMPERIAL COUNTY,3,6,0.25,0,1.5,7.75,0,0,FALSE
US,CA,92276,RIVERSIDE COUNTY,1,6,0.25,0,1.5,7.75,0,0,FALSE
US,CA,92277,TWENTYNINE PALMS TOURISM BUSINESS IMPROVEMENT DISTRICT,1,6,0.25,0,1.5,7.75,0,0,FALSE
US,CA,92278,SAN BERNARDINO COUNTY,1,6,0.25,0,1.5,7.75,0,0,FALSE
US,CA,92280,SAN BERNARDINO COUNTY,4,6,0.25,0,1.5,7.75,0,0,FALSE
US,CA,92281,WESTMORLAND,1,6,0.25,0,1.5,7.75,0,0,FALSE
US,CA,92282,RIVERSIDE COUNTY,1,6,0.25,0,1.5,7.75,0,0,FALSE
US,CA,92283,IMPERIAL COUNTY,2,6,0.25,0,1.5,7.75,0,0,FALSE
US,CA,92284,YUCCA VALLEY,1,6,0.25,1,1.5,8.75,0,0,FALSE
US,CA,92285,SAN BERNARDINO COUNTY,3,6,0.25,0,1.5,7.75,0,0,FALSE
US,CA,92286,YUCCA VALLEY,1,6,0.25,1,1.5,8.75,0,0,FALSE
US,CA,92301,ADELANTO,2,6,0.25,0,1.5,7.75,0,0,FALSE
US,CA,92304,SAN BERNARDINO COUNTY,2,6,0.25,0,1.5,7.75,0,0,FALSE
US,CA,92305,SAN BERNARDINO COUNTY,2,6,0.25,0,1.5,7.75,0,0,FALSE
US,CA,92307,APPLE VALLEY,1,6,0.25,0,1.5,7.75,0,0,FALSE
US,CA,92308,APPLE VALLEY,2,6,0.25,0,1.5,7.75,0,0,FALSE
US,CA,92309,SAN BERNARDINO COUNTY,2,6,0.25,0,1.5,7.75,0,0,FALSE
US,CA,92310,SAN BERNARDINO COUNTY,2,6,0.25,0,1.5,7.75,0,0,FALSE
US,CA,92311,BARSTOW,2,6,0.25,1,1.5,8.75,0,0,FALSE
US,CA,92312,BARSTOW,1,6,0.25,1,1.5,8.75,0,0,FALSE
US,CA,92313,SAN BERNARDINO COUNTY,1,6,0.25,0,1.5,7.75,0,0,FALSE
US,CA,92314,SAN BERNARDINO COUNTY,1,6,0.25,0,1.5,7.75,0,0,FALSE
US,CA,92315,BIG BEAR LAKE TOURISM BUSINESS IMPROVEMENT DISTRICT,2,6,0.25,0,1.5,7.75,0,0,FALSE
US,CA,92316,SAN BERNARDINO COUNTY,2,6,0.25,0,1.5,7.75,0,0,FALSE
US,CA,92317,SAN BERNARDINO COUNTY,1,6,0.25,0,1.5,7.75,0,0,FALSE
US,CA,92318,LOMA LINDA,1,6,0.25,0,1.5,7.75,0,0,FALSE
US,CA,92320,CALIMESA,1,6,0.25,0,1.5,7.75,0,0,FALSE
US,CA,92321,SAN BERNARDINO COUNTY,1,6,0.25,0,1.5,7.75,0,0,FALSE
US,CA,92322,SAN BERNARDINO COUNTY,1,6,0.25,0,1.5,7.75,0,0,FALSE
US,CA,92323,SAN BERNARDINO COUNTY,1,6,0.25,0,1.5,7.75,0,0,FALSE
US,CA,92324,COLTON,2,6,0.25,0,1.5,7.75,0,0,FALSE
US,CA,92325,SAN BERNARDINO COUNTY,3,6,0.25,0,1.5,7.75,0,0,FALSE
US,CA,92326,SAN BERNARDINO COUNTY,1,6,0.25,0,1.5,7.75,0,0,FALSE
US,CA,92327,SAN BERNARDINO COUNTY,1,6,0.25,0,1.5,7.75,0,0,FALSE
US,CA,92328,INYO COUNTY,3,6,0.25,0,1.5,7.75,0,0,FALSE
US,CA,92329,SAN BERNARDINO COUNTY,1,6,0.25,0,1.5,7.75,0,0,FALSE
US,CA,92331,FONTANA,1,6,0.25,0,1.5,7.75,0,0,FALSE
US,CA,92332,SAN BERNARDINO COUNTY,2,6,0.25,0,1.5,7.75,0,0,FALSE
US,CA,92333,SAN BERNARDINO COUNTY,1,6,0.25,0,1.5,7.75,0,0,FALSE
US,CA,92334,FONTANA,1,6,0.25,0,1.5,7.75,0,0,FALSE
US,CA,92335,FONTANA,1,6,0.25,0,1.5,7.75,0,0,FALSE
US,CA,92336,FONTANA,1,6,0.25,0,1.5,7.75,0,0,FALSE
US,CA,92337,FONTANA,1,6,0.25,0,1.5,7.75,0,0,FALSE
US,CA,92338,SAN BERNARDINO COUNTY,2,6,0.25,0,1.5,7.75,0,0,FALSE
US,CA,92339,SAN BERNARDINO COUNTY,2,6,0.25,0,1.5,7.75,0,0,FALSE
US,CA,92340,"HESPERIA, CA",1,6,0.25,0,1.5,7.75,0,0,FALSE
US,CA,92341,SAN BERNARDINO COUNTY,1,6,0.25,0,1.5,7.75,0,0,FALSE
US,CA,92342,SAN BERNARDINO COUNTY,2,6,0.25,0,1.5,7.75,0,0,FALSE
US,CA,92344,SAN BERNARDINO COUNTY,2,6,0.25,0,1.5,7.75,0,0,FALSE
US,CA,92345,"HESPERIA, CA",1,6,0.25,0,1.5,7.75,0,0,FALSE
US,CA,92346,HIGHLAND,1,6,0.25,0,1.5,7.75,0,0,FALSE
US,CA,92347,SAN BERNARDINO COUNTY,2,6,0.25,0,1.5,7.75,0,0,FALSE
US,CA,92350,LOMA LINDA,1,6,0.25,0,1.5,7.75,0,0,FALSE
US,CA,92352,SAN BERNARDINO COUNTY,1,6,0.25,0,1.5,7.75,0,0,FALSE
US,CA,92354,LOMA LINDA,2,6,0.25,0,1.5,7.75,0,0,FALSE
US,CA,92356,SAN BERNARDINO COUNTY,1,6,0.25,0,1.5,7.75,0,0,FALSE
US,CA,92357,LOMA LINDA,1,6,0.25,0,1.5,7.75,0,0,FALSE
US,CA,92358,SAN BERNARDINO COUNTY,1,6,0.25,0,1.5,7.75,0,0,FALSE
US,CA,92359,SAN BERNARDINO COUNTY,2,6,0.25,0,1.5,7.75,0,0,FALSE
US,CA,92363,NEEDLES,4,6,0.25,0,1.5,7.75,0,0,FALSE
US,CA,92364,SAN BERNARDINO COUNTY,2,6,0.25,0,1.5,7.75,0,0,FALSE
US,CA,92365,SAN BERNARDINO COUNTY,1,6,0.25,0,1.5,7.75,0,0,FALSE
US,CA,92366,SAN BERNARDINO COUNTY,1,6,0.25,0,1.5,7.75,0,0,FALSE
US,CA,92368,SAN BERNARDINO COUNTY,1,6,0.25,0,1.5,7.75,0,0,FALSE
US,CA,92369,SAN BERNARDINO,1,6,0.25,0.25,1.5,8,0,0,FALSE
US,CA,92371,SAN BERNARDINO COUNTY,1,6,0.25,0,1.5,7.75,0,0,FALSE
US,CA,92372,SAN BERNARDINO COUNTY,1,6,0.25,0,1.5,7.75,0,0,FALSE
US,CA,92373,REDLANDS,3,6,0.25,0,1.5,7.75,0,0,FALSE
US,CA,92374,REDLANDS,1,6,0.25,0,1.5,7.75,0,0,FALSE
US,CA,92375,REDLANDS,1,6,0.25,0,1.5,7.75,0,0,FALSE
US,CA,92376,RIALTO,1,6,0.25,0,1.5,7.75,0,0,FALSE
US,CA,92377,RIALTO,1,6,0.25,0,1.5,7.75,0,0,FALSE
US,CA,92378,SAN BERNARDINO COUNTY,1,6,0.25,0,1.5,7.75,0,0,FALSE
US,CA,92382,SAN BERNARDINO COUNTY,2,6,0.25,0,1.5,7.75,0,0,FALSE
US,CA,92384,INYO COUNTY,1,6,0.25,0,1.5,7.75,0,0,FALSE
US,CA,92385,SAN BERNARDINO COUNTY,1,6,0.25,0,1.5,7.75,0,0,FALSE
US,CA,92386,SAN BERNARDINO COUNTY,2,6,0.25,0,1.5,7.75,0,0,FALSE
US,CA,92389,INYO COUNTY,2,6,0.25,0,1.5,7.75,0,0,FALSE
US,CA,92391,SAN BERNARDINO COUNTY,1,6,0.25,0,1.5,7.75,0,0,FALSE
US,CA,92392,VICTORVILLE,1,6,0.25,0,1.5,7.75,0,0,FALSE
US,CA,92393,VICTORVILLE,1,6,0.25,0,1.5,7.75,0,0,FALSE
US,CA,92394,VICTORVILLE,1,6,0.25,0,1.5,7.75,0,0,FALSE
US,CA,92395,VICTORVILLE,2,6,0.25,0,1.5,7.75,0,0,FALSE
US,CA,92397,SAN BERNARDINO COUNTY,1,6,0.25,0,1.5,7.75,0,0,FALSE
US,CA,92398,SAN BERNARDINO COUNTY,1,6,0.25,0,1.5,7.75,0,0,FALSE
US,CA,92399,YUCAIPA,2,6,0.25,0,1.5,7.75,0,0,FALSE
US,CA,92401,SAN BERNARDINO,1,6,0.25,0.25,1.5,8,0,0,FALSE
US,CA,92402,SAN BERNARDINO,1,6,0.25,0.25,1.5,8,0,0,FALSE
US,CA,92403,SAN BERNARDINO,1,6,0.25,0.25,1.5,8,0,0,FALSE
US,CA,92404,SAN BERNARDINO,2,6,0.25,0.25,1.5,8,0,0,FALSE
US,CA,92405,SAN BERNARDINO,1,6,0.25,0.25,1.5,8,0,0,FALSE
US,CA,92406,SAN BERNARDINO,1,6,0.25,0.25,1.5,8,0,0,FALSE
US,CA,92407,SAN BERNARDINO,7,6,0.25,0.25,1.5,8,0,0,FALSE
US,CA,92408,SAN BERNARDINO,1,6,0.25,0.25,1.5,8,0,0,FALSE
US,CA,92410,SAN BERNARDINO,1,6,0.25,0.25,1.5,8,0,0,FALSE
US,CA,92411,SAN BERNARDINO,1,6,0.25,0.25,1.5,8,0,0,FALSE
US,CA,92412,SAN BERNARDINO,1,6,0.25,0.25,1.5,8,0,0,FALSE
US,CA,92413,SAN BERNARDINO,1,6,0.25,0.25,1.5,8,0,0,FALSE
US,CA,92415,SAN BERNARDINO,1,6,0.25,0.25,1.5,8,0,0,FALSE
US,CA,92418,SAN BERNARDINO,1,6,0.25,0.25,1.5,8,0,0,FALSE
US,CA,92423,REDLANDS,1,6,0.25,0,1.5,7.75,0,0,FALSE
US,CA,92427,SAN BERNARDINO,1,6,0.25,0.25,1.5,8,0,0,FALSE
US,CA,92501,RIVERSIDE,1,6,0.25,1,1.5,8.75,0,0,FALSE
US,CA,92502,RIVERSIDE,1,6,0.25,1,1.5,8.75,0,0,FALSE
US,CA,92503,RIVERSIDE,2,6,0.25,1,1.5,8.75,0,0,FALSE
US,CA,92504,RIVERSIDE,3,6,0.25,1,1.5,8.75,0,0,FALSE
US,CA,92505,RIVERSIDE,2,6,0.25,1,1.5,8.75,0,0,FALSE
US,CA,92506,RIVERSIDE,1,6,0.25,1,1.5,8.75,0,0,FALSE
US,CA,92507,RIVERSIDE,3,6,0.25,1,1.5,8.75,0,0,FALSE
US,CA,92508,RIVERSIDE,1,6,0.25,1,1.5,8.75,0,0,FALSE
US,CA,92509,JURUPA VALLEY,3,6,0.25,0,1.5,7.75,0,0,FALSE
US,CA,92513,RIVERSIDE,1,6,0.25,1,1.5,8.75,0,0,FALSE
US,CA,92514,RIVERSIDE,1,6,0.25,1,1.5,8.75,0,0,FALSE
US,CA,92516,RIVERSIDE,1,6,0.25,1,1.5,8.75,0,0,FALSE
US,CA,92517,RIVERSIDE,1,6,0.25,1,1.5,8.75,0,0,FALSE
US,CA,92518,RIVERSIDE COUNTY,2,6,0.25,0,1.5,7.75,0,0,FALSE
US,CA,92519,JURUPA VALLEY,1,6,0.25,0,1.5,7.75,0,0,FALSE
US,CA,92521,RIVERSIDE,1,6,0.25,1,1.5,8.75,0,0,FALSE
US,CA,92522,RIVERSIDE,1,6,0.25,1,1.5,8.75,0,0,FALSE
US,CA,92530,LAKE ELSINORE,1,6,0.25,0,1.5,7.75,0,0,FALSE
US,CA,92531,LAKE ELSINORE,1,6,0.25,0,1.5,7.75,0,0,FALSE
US,CA,92532,LAKE ELSINORE,1,6,0.25,0,1.5,7.75,0,0,FALSE
US,CA,92536,RIVERSIDE COUNTY,2,6,0.25,0,1.5,7.75,0,0,FALSE
US,CA,92539,RIVERSIDE COUNTY,1,6,0.25,0,1.5,7.75,0,0,FALSE
US,CA,92543,HEMET,1,6,0.25,1,1.5,8.75,0,0,FALSE
US,CA,92544,RIVERSIDE COUNTY,1,6,0.25,0,1.5,7.75,0,0,FALSE
US,CA,92545,HEMET,1,6,0.25,1,1.5,8.75,0,0,FALSE
US,CA,92546,HEMET,1,6,0.25,1,1.5,8.75,0,0,FALSE
US,CA,92548,RIVERSIDE COUNTY,1,6,0.25,0,1.5,7.75,0,0,FALSE
US,CA,92549,RIVERSIDE COUNTY,1,6,0.25,0,1.5,7.75,0,0,FALSE
US,CA,92551,MORENO VALLEY,1,6,0.25,0,1.5,7.75,0,0,FALSE
US,CA,92552,MORENO VALLEY,1,6,0.25,0,1.5,7.75,0,0,FALSE
US,CA,92553,MORENO VALLEY,1,6,0.25,0,1.5,7.75,0,0,FALSE
US,CA,92555,MORENO VALLEY,2,6,0.25,0,1.5,7.75,0,0,FALSE
US,CA,92556,MORENO VALLEY,1,6,0.25,0,1.5,7.75,0,0,FALSE
US,CA,92557,MORENO VALLEY,1,6,0.25,0,1.5,7.75,0,0,FALSE
US,CA,92561,RIVERSIDE COUNTY,2,6,0.25,0,1.5,7.75,0,0,FALSE
US,CA,92562,MURRIETA,2,6,0.25,1,1.5,8.75,0,0,FALSE
US,CA,92563,MURRIETA,2,6,0.25,1,1.5,8.75,0,0,FALSE
US,CA,92564,MURRIETA,1,6,0.25,1,1.5,8.75,0,0,FALSE
US,CA,92567,RIVERSIDE COUNTY,2,6,0.25,0,1.5,7.75,0,0,FALSE
US,CA,92570,RIVERSIDE COUNTY,2,6,0.25,0,1.5,7.75,0,0,FALSE
US,CA,92571,PERRIS,1,6,0.25,0,1.5,7.75,0,0,FALSE
US,CA,92572,PERRIS,1,6,0.25,0,1.5,7.75,0,0,FALSE
US,CA,92581,SAN JACINTO,1,6,0.25,0,1.5,7.75,0,0,FALSE
US,CA,92582,SAN JACINTO,1,6,0.25,0,1.5,7.75,0,0,FALSE
US,CA,92583,SAN JACINTO,2,6,0.25,0,1.5,7.75,0,0,FALSE
US,CA,92584,MENIFEE,2,6,0.25,1,1.5,8.75,0,0,FALSE
US,CA,92585,MENIFEE,3,6,0.25,1,1.5,8.75,0,0,FALSE
US,CA,92586,MENIFEE,2,6,0.25,1,1.5,8.75,0,0,FALSE
US,CA,92587,CANYON LAKE,3,6,0.25,0,1.5,7.75,0,0,FALSE
US,CA,92589,TEMECULA WINE COUNTRY TOURISM MARKETING DISTRICT,1,6,0.25,1,1.5,8.75,0,0,FALSE
US,CA,92590,TEMECULA WINE COUNTRY TOURISM MARKETING DISTRICT,2,6,0.25,1,1.5,8.75,0,0,FALSE
US,CA,92591,TEMECULA WINE COUNTRY TOURISM MARKETING DISTRICT,2,6,0.25,1,1.5,8.75,0,0,FALSE
US,CA,92592,TEMECULA WINE COUNTRY TOURISM MARKETING DISTRICT,2,6,0.25,1,1.5,8.75,0,0,FALSE
US,CA,92593,TEMECULA WINE COUNTRY TOURISM MARKETING DISTRICT,1,6,0.25,1,1.5,8.75,0,0,FALSE
US,CA,92595,WILDOMAR,1,6,0.25,1,1.5,8.75,0,0,FALSE
US,CA,92596,RIVERSIDE COUNTY,2,6,0.25,0,1.5,7.75,0,0,FALSE
US,CA,92599,PERRIS,1,6,0.25,0,1.5,7.75,0,0,FALSE
US,CA,92602,IRVINE,1,6,0.25,0,1.5,7.75,0,0,FALSE
US,CA,92603,IRVINE,1,6,0.25,0,1.5,7.75,0,0,FALSE
US,CA,92604,IRVINE,1,6,0.25,0,1.5,7.75,0,0,FALSE
US,CA,92605,HUNTINGTON BEACH TOURISM BID,1,6,0.25,0,1.5,7.75,0,0,FALSE
US,CA,92606,IRVINE,1,6,0.25,0,1.5,7.75,0,0,FALSE
US,CA,92607,LAGUNA NIGUEL,2,6,0.25,0,1.5,7.75,0,0,FALSE
US,CA,92609,LAKE FOREST,1,6,0.25,0,1.5,7.75,0,0,FALSE
US,CA,92610,LAKE FOREST,3,6,0.25,0,1.5,7.75,0,0,FALSE
US,CA,92612,IRVINE,1,6,0.25,0,1.5,7.75,0,0,FALSE
US,CA,92614,IRVINE,1,6,0.25,0,1.5,7.75,0,0,FALSE
US,CA,92615,HUNTINGTON BEACH TOURISM BID,1,6,0.25,0,1.5,7.75,0,0,FALSE
US,CA,92616,IRVINE,1,6,0.25,0,1.5,7.75,0,0,FALSE
US,CA,92617,IRVINE,1,6,0.25,0,1.5,7.75,0,0,FALSE
US,CA,92618,IRVINE,1,6,0.25,0,1.5,7.75,0,0,FALSE
US,CA,92619,IRVINE,1,6,0.25,0,1.5,7.75,0,0,FALSE
US,CA,92620,IRVINE,1,6,0.25,0,1.5,7.75,0,0,FALSE
US,CA,92623,IRVINE,1,6,0.25,0,1.5,7.75,0,0,FALSE
US,CA,92624,DANA POINT,3,6,0.25,0,1.5,7.75,0,0,FALSE
US,CA,92625,NEWPORT BEACH,1,6,0.25,0,1.5,7.75,0,0,FALSE
US,CA,92626,COSTA MESA,1,6,0.25,0,1.5,7.75,0,0,FALSE
US,CA,92627,COSTA MESA,1,6,0.25,0,1.5,7.75,0,0,FALSE
US,CA,92628,COSTA MESA,1,6,0.25,0,1.5,7.75,0,0,FALSE
US,CA,92629,DANA POINT,3,6,0.25,0,1.5,7.75,0,0,FALSE
US,CA,92630,LAKE FOREST,2,6,0.25,0,1.5,7.75,0,0,FALSE
US,CA,92637,LAGUNA WOODS,2,6,0.25,0,1.5,7.75,0,0,FALSE
US,CA,92646,HUNTINGTON BEACH TOURISM BID,2,6,0.25,0,1.5,7.75,0,0,FALSE
US,CA,92647,HUNTINGTON BEACH TOURISM BID,1,6,0.25,0,1.5,7.75,0,0,FALSE
US,CA,92648,HUNTINGTON BEACH TOURISM BID,2,6,0.25,0,1.5,7.75,0,0,FALSE
US,CA,92649,HUNTINGTON BEACH TOURISM BID,1,6,0.25,0,1.5,7.75,0,0,FALSE
US,CA,92650,IRVINE,2,6,0.25,0,1.5,7.75,0,0,FALSE
US,CA,92651,LAGUNA BEACH,1,6,0.25,0,1.5,7.75,0,0,FALSE
US,CA,92652,LAGUNA BEACH,2,6,0.25,0,1.5,7.75,0,0,FALSE
US,CA,92653,LAGUNA HILLS,4,6,0.25,0,1.5,7.75,0,0,FALSE
US,CA,92654,LAGUNA HILLS,3,6,0.25,0,1.5,7.75,0,0,FALSE
US,CA,92655,ORANGE COUNTY,1,6,0.25,0,1.5,7.75,0,0,FALSE
US,CA,92656,ALISO VIEJO,3,6,0.25,0,1.5,7.75,0,0,FALSE
US,CA,92657,NEWPORT BEACH,2,6,0.25,0,1.5,7.75,0,0,FALSE
US,CA,92658,NEWPORT BEACH,1,6,0.25,0,1.5,7.75,0,0,FALSE
US,CA,92659,NEWPORT BEACH,1,6,0.25,0,1.5,7.75,0,0,FALSE
US,CA,92660,NEWPORT BEACH,1,6,0.25,0,1.5,7.75,0,0,FALSE
US,CA,92661,NEWPORT BEACH,1,6,0.25,0,1.5,7.75,0,0,FALSE
US,CA,92662,NEWPORT BEACH,3,6,0.25,0,1.5,7.75,0,0,FALSE
US,CA,92663,NEWPORT BEACH,1,6,0.25,0,1.5,7.75,0,0,FALSE
US,CA,92672,SAN CLEMENTE,1,6,0.25,0,1.5,7.75,0,0,FALSE
US,CA,92673,SAN CLEMENTE,1,6,0.25,0,1.5,7.75,0,0,FALSE
US,CA,92674,SAN CLEMENTE,1,6,0.25,0,1.5,7.75,0,0,FALSE
US,CA,92675,SAN JUAN CAPISTRANO,2,6,0.25,0,1.5,7.75,0,0,FALSE
US,CA,92676,ORANGE COUNTY,3,6,0.25,0,1.5,7.75,0,0,FALSE
US,CA,92677,LAGUNA NIGUEL,2,6,0.25,0,1.5,7.75,0,0,FALSE
US,CA,92678,ORANGE COUNTY,1,6,0.25,0,1.5,7.75,0,0,FALSE
US,CA,92679,ORANGE COUNTY,6,6,0.25,0,1.5,7.75,0,0,FALSE
US,CA,92683,WESTMINSTER,1,6,0.25,1,1.5,8.75,0,0,FALSE
US,CA,92684,WESTMINSTER,1,6,0.25,1,1.5,8.75,0,0,FALSE
US,CA,92685,WESTMINSTER,1,6,0.25,1,1.5,8.75,0,0,FALSE
US,CA,92688,ORANGE COUNTY,1,6,0.25,0,1.5,7.75,0,0,FALSE
US,CA,92690,MISSION VIEJO,2,6,0.25,0,1.5,7.75,0,0,FALSE
US,CA,92691,MISSION VIEJO,2,6,0.25,0,1.5,7.75,0,0,FALSE
US,CA,92692,MISSION VIEJO,2,6,0.25,0,1.5,7.75,0,0,FALSE
US,CA,92693,SAN JUAN CAPISTRANO,1,6,0.25,0,1.5,7.75,0,0,FALSE
US,CA,92694,ORANGE COUNTY,2,6,0.25,0,1.5,7.75,0,0,FALSE
US,CA,92697,IRVINE,1,6,0.25,0,1.5,7.75,0,0,FALSE
US,CA,92698,ALISO VIEJO,1,6,0.25,0,1.5,7.75,0,0,FALSE
US,CA,92701,SANTA ANA,1,6,0.25,1.5,1.5,9.25,0,0,FALSE
US,CA,92702,SANTA ANA,1,6,0.25,1.5,1.5,9.25,0,0,FALSE
US,CA,92703,SANTA ANA,2,6,0.25,1.5,1.5,9.25,0,0,FALSE
US,CA,92704,SANTA ANA,3,6,0.25,1.5,1.5,9.25,0,0,FALSE
US,CA,92705,SANTA ANA,3,6,0.25,1.5,1.5,9.25,0,0,FALSE
US,CA,92706,SANTA ANA,2,6,0.25,1.5,1.5,9.25,0,0,FALSE
US,CA,92707,SANTA ANA,2,6,0.25,1.5,1.5,9.25,0,0,FALSE
US,CA,92708,FOUNTAIN VALLEY,2,6,0.25,1,1.5,8.75,0,0,FALSE
US,CA,92711,SANTA ANA,1,6,0.25,1.5,1.5,9.25,0,0,FALSE
US,CA,92712,SANTA ANA,1,6,0.25,1.5,1.5,9.25,0,0,FALSE
US,CA,92728,FOUNTAIN VALLEY,2,6,0.25,1,1.5,8.75,0,0,FALSE
US,CA,92735,SANTA ANA,1,6,0.25,1.5,1.5,9.25,0,0,FALSE
US,CA,92780,TUSTIN,1,6,0.25,0,1.5,7.75,0,0,FALSE
US,CA,92781,TUSTIN,1,6,0.25,0,1.5,7.75,0,0,FALSE
US,CA,92782,TUSTIN,1,6,0.25,0,1.5,7.75,0,0,FALSE
US,CA,92799,SANTA ANA,1,6,0.25,1.5,1.5,9.25,0,0,FALSE
US,CA,92801,ANAHEIM,1,6,0.25,0,1.5,7.75,0,0,FALSE
US,CA,92802,ANAHEIM,2,6,0.25,0,1.5,7.75,0,0,FALSE
US,CA,92803,ANAHEIM,1,6,0.25,0,1.5,7.75,0,0,FALSE
US,CA,92804,ANAHEIM,2,6,0.25,0,1.5,7.75,0,0,FALSE
US,CA,92805,ANAHEIM,3,6,0.25,0,1.5,7.75,0,0,FALSE
US,CA,92806,ANAHEIM,2,6,0.25,0,1.5,7.75,0,0,FALSE
US,CA,92807,ANAHEIM,2,6,0.25,0,1.5,7.75,0,0,FALSE
US,CA,92808,ANAHEIM,2,6,0.25,0,1.5,7.75,0,0,FALSE
US,CA,92809,ANAHEIM,1,6,0.25,0,1.5,7.75,0,0,FALSE
US,CA,92811,FULLERTON,1,6,0.25,0,1.5,7.75,0,0,FALSE
US,CA,92812,ANAHEIM TOURISM IMPROVEMENT DISTRICT,1,6,0.25,0,1.5,7.75,0,0,FALSE
US,CA,92814,ANAHEIM,1,6,0.25,0,1.5,7.75,0,0,FALSE
US,CA,92815,ANAHEIM,1,6,0.25,0,1.5,7.75,0,0,FALSE
US,CA,92816,ANAHEIM,1,6,0.25,0,1.5,7.75,0,0,FALSE
US,CA,92817,ANAHEIM,2,6,0.25,0,1.5,7.75,0,0,FALSE
US,CA,92821,BREA,1,6,0.25,0,1.5,7.75,0,0,FALSE
US,CA,92822,BREA,1,6,0.25,0,1.5,7.75,0,0,FALSE
US,CA,92823,BREA,1,6,0.25,0,1.5,7.75,0,0,FALSE
US,CA,92825,ANAHEIM,1,6,0.25,0,1.5,7.75,0,0,FALSE
US,CA,92831,FULLERTON,1,6,0.25,0,1.5,7.75,0,0,FALSE
US,CA,92832,FULLERTON,1,6,0.25,0,1.5,7.75,0,0,FALSE
US,CA,92833,FULLERTON,1,6,0.25,0,1.5,7.75,0,0,FALSE
US,CA,92834,FULLERTON,1,6,0.25,0,1.5,7.75,0,0,FALSE
US,CA,92835,FULLERTON,1,6,0.25,0,1.5,7.75,0,0,FALSE
US,CA,92836,FULLERTON,1,6,0.25,0,1.5,7.75,0,0,FALSE
US,CA,92837,FULLERTON,1,6,0.25,0,1.5,7.75,0,0,FALSE
US,CA,92838,FULLERTON,1,6,0.25,0,1.5,7.75,0,0,FALSE
US,CA,92840,GARDEN GROVE,1,6,0.25,1,1.5,8.75,0,0,FALSE
US,CA,92841,GARDEN GROVE,1,6,0.25,1,1.5,8.75,0,0,FALSE
US,CA,92842,GARDEN GROVE,1,6,0.25,1,1.5,8.75,0,0,FALSE
US,CA,92843,GARDEN GROVE,1,6,0.25,1,1.5,8.75,0,0,FALSE
US,CA,92844,GARDEN GROVE,1,6,0.25,1,1.5,8.75,0,0,FALSE
US,CA,92845,GARDEN GROVE,1,6,0.25,1,1.5,8.75,0,0,FALSE
US,CA,92846,GARDEN GROVE,1,6,0.25,1,1.5,8.75,0,0,FALSE
US,CA,92856,ORANGE,1,6,0.25,0,1.5,7.75,0,0,FALSE
US,CA,92857,ORANGE,1,6,0.25,0,1.5,7.75,0,0,FALSE
US,CA,92859,ORANGE,1,6,0.25,0,1.5,7.75,0,0,FALSE
US,CA,92860,NORCO,1,6,0.25,1,1.5,8.75,0,0,FALSE
US,CA,92861,ORANGE COUNTY,2,6,0.25,0,1.5,7.75,0,0,FALSE
US,CA,92862,ORANGE,1,6,0.25,0,1.5,7.75,0,0,FALSE
US,CA,92863,ORANGE,1,6,0.25,0,1.5,7.75,0,0,FALSE
US,CA,92864,ORANGE,1,6,0.25,0,1.5,7.75,0,0,FALSE
US,CA,92865,ORANGE,1,6,0.25,0,1.5,7.75,0,0,FALSE
US,CA,92866,ORANGE,1,6,0.25,0,1.5,7.75,0,0,FALSE
US,CA,92867,ORANGE,2,6,0.25,0,1.5,7.75,0,0,FALSE
US,CA,92868,ORANGE,1,6,0.25,0,1.5,7.75,0,0,FALSE
US,CA,92869,ORANGE,1,6,0.25,0,1.5,7.75,0,0,FALSE
US,CA,92870,PLACENTIA,1,6,0.25,1,1.5,8.75,0,0,FALSE
US,CA,92871,PLACENTIA,1,6,0.25,1,1.5,8.75,0,0,FALSE
US,CA,92877,CORONA,1,6,0.25,0,1.5,7.75,0,0,FALSE
US,CA,92878,CORONA,1,6,0.25,0,1.5,7.75,0,0,FALSE
US,CA,92879,CORONA,1,6,0.25,0,1.5,7.75,0,0,FALSE
US,CA,92880,EASTVALE,2,6,0.25,0,1.5,7.75,0,0,FALSE
US,CA,92881,CORONA,1,6,0.25,0,1.5,7.75,0,0,FALSE
US,CA,92882,CORONA,1,6,0.25,0,1.5,7.75,0,0,FALSE
US,CA,92883,RIVERSIDE COUNTY,2,6,0.25,0,1.5,7.75,0,0,FALSE
US,CA,92885,YORBA LINDA,1,6,0.25,0,1.5,7.75,0,0,FALSE
US,CA,92886,YORBA LINDA,1,6,0.25,0,1.5,7.75,0,0,FALSE
US,CA,92887,YORBA LINDA,1,6,0.25,0,1.5,7.75,0,0,FALSE
US,CA,92899,ANAHEIM,1,6,0.25,0,1.5,7.75,0,0,FALSE
US,CA,93001,SAN BUENAVENTURA,4,6,0.25,0.5,1,7.75,0,0,FALSE
US,CA,93002,SAN BUENAVENTURA,1,6,0.25,0.5,1,7.75,0,0,FALSE
US,CA,93003,SAN BUENAVENTURA,2,6,0.25,0.5,1,7.75,0,0,FALSE
US,CA,93004,SAN BUENAVENTURA,3,6,0.25,0.5,1,7.75,0,0,FALSE
US,CA,93005,SAN BUENAVENTURA,1,6,0.25,0.5,1,7.75,0,0,FALSE
US,CA,93006,SAN BUENAVENTURA,1,6,0.25,0.5,1,7.75,0,0,FALSE
US,CA,93007,SAN BUENAVENTURA,1,6,0.25,0.5,1,7.75,0,0,FALSE
US,CA,93009,SAN BUENAVENTURA,1,6,0.25,0.5,1,7.75,0,0,FALSE
US,CA,93010,CAMARILLO,1,6,0.25,0,1,7.25,0,0,FALSE
US,CA,93011,CAMARILLO,1,6,0.25,0,1,7.25,0,0,FALSE
US,CA,93012,CAMARILLO,2,6,0.25,0,1,7.25,0,0,FALSE
US,CA,93013,CARPINTERIA,1,6,0.25,1.25,1.5,9,0,0,FALSE
US,CA,93014,CARPINTERIA,1,6,0.25,1.25,1.5,9,0,0,FALSE
US,CA,93015,FILLMORE,1,6,0.25,0,1,7.25,0,0,FALSE
US,CA,93016,FILLMORE,1,6,0.25,0,1,7.25,0,0,FALSE
US,CA,93020,MOORPARK,1,6,0.25,0,1,7.25,0,0,FALSE
US,CA,93021,MOORPARK,1,6,0.25,0,1,7.25,0,0,FALSE
US,CA,93022,OJAI TOURISM IMPROVEMENT DISTRICT,1,6,0.25,0,1,7.25,0,0,FALSE
US,CA,93023,OJAI TOURISM IMPROVEMENT DISTRICT,2,6,0.25,0,1,7.25,0,0,FALSE
US,CA,93024,OJAI,1,6,0.25,0,1,7.25,0,0,FALSE
US,CA,93030,OXNARD,1,6,0.25,0.5,1,7.75,0,0,FALSE
US,CA,93031,OXNARD,1,6,0.25,0.5,1,7.75,0,0,FALSE
US,CA,93032,OXNARD,1,6,0.25,0.5,1,7.75,0,0,FALSE
US,CA,93033,OXNARD,1,6,0.25,0.5,1,7.75,0,0,FALSE
US,CA,93034,OXNARD,1,6,0.25,0.5,1,7.75,0,0,FALSE
US,CA,93035,OXNARD,1,6,0.25,0.5,1,7.75,0,0,FALSE
US,CA,93036,OXNARD,1,6,0.25,0.5,1,7.75,0,0,FALSE
US,CA,93040,VENTURA CO LOCAL TAX SL,1,6,0.25,0,1,7.25,0,0,FALSE
US,CA,93041,PORT HUENEME,2,6,0.25,1.5,1,8.75,0,0,FALSE
US,CA,93042,VENTURA CO LOCAL TAX SL,2,6,0.25,0,1,7.25,0,0,FALSE
US,CA,93043,PORT HUENEME,1,6,0.25,1.5,1,8.75,0,0,FALSE
US,CA,93044,PORT HUENEME,1,6,0.25,1.5,1,8.75,0,0,FALSE
US,CA,93060,SANTA PAULA,1,6,0.25,1,1,8.25,0,0,FALSE
US,CA,93061,SANTA PAULA,1,6,0.25,1,1,8.25,0,0,FALSE
US,CA,93062,SIMI VALLEY,1,6,0.25,0,1,7.25,0,0,FALSE
US,CA,93063,SIMI VALLEY,2,6,0.25,0,1,7.25,0,0,FALSE
US,CA,93064,SIMI VALLEY,2,6,0.25,0,1,7.25,0,0,FALSE
US,CA,93065,SIMI VALLEY,1,6,0.25,0,1,7.25,0,0,FALSE
US,CA,93066,VENTURA CO LOCAL TAX SL,1,6,0.25,0,1,7.25,0,0,FALSE
US,CA,93067,SANTA BARBARA SOUTH COAST TOURISM BUSINESS IMPROVEMENT AREA,1,6,0.25,0,1.5,7.75,0,0,FALSE
US,CA,93094,SIMI VALLEY,1,6,0.25,0,1,7.25,0,0,FALSE
US,CA,93099,SIMI VALLEY,1,6,0.25,0,1,7.25,0,0,FALSE
US,CA,93101,SANTA BARBARA,1,6,0.25,1,1.5,8.75,0,0,FALSE
US,CA,93102,SANTA BARBARA,1,6,0.25,1,1.5,8.75,0,0,FALSE
US,CA,93103,SANTA BARBARA,1,6,0.25,1,1.5,8.75,0,0,FALSE
US,CA,93105,SANTA BARBARA,1,6,0.25,1,1.5,8.75,0,0,FALSE
US,CA,93106,SANTA BARBARA SOUTH COAST TOURISM BUSINESS IMPROVEMENT AREA,1,6,0.25,0,1.5,7.75,0,0,FALSE
US,CA,93108,SANTA BARBARA SOUTH COAST TOURISM BUSINESS IMPROVEMENT AREA,2,6,0.25,0,1.5,7.75,0,0,FALSE
US,CA,93109,SANTA BARBARA,1,6,0.25,1,1.5,8.75,0,0,FALSE
US,CA,93110,SANTA BARBARA SOUTH COAST TOURISM BUSINESS IMPROVEMENT AREA,2,6,0.25,0,1.5,7.75,0,0,FALSE
US,CA,93111,SANTA BARBARA SOUTH COAST TOURISM BUSINESS IMPROVEMENT AREA,2,6,0.25,0,1.5,7.75,0,0,FALSE
US,CA,93116,GOLETA,1,6,0.25,0,1.5,7.75,0,0,FALSE
US,CA,93117,GOLETA,4,6,0.25,0,1.5,7.75,0,0,FALSE
US,CA,93118,GOLETA,1,6,0.25,0,1.5,7.75,0,0,FALSE
US,CA,93120,SANTA BARBARA,1,6,0.25,1,1.5,8.75,0,0,FALSE
US,CA,93121,SANTA BARBARA,1,6,0.25,1,1.5,8.75,0,0,FALSE
US,CA,93130,SANTA BARBARA,1,6,0.25,1,1.5,8.75,0,0,FALSE
US,CA,93140,SANTA BARBARA,1,6,0.25,1,1.5,8.75,0,0,FALSE
US,CA,93150,SANTA BARBARA SOUTH COAST TOURISM BUSINESS IMPROVEMENT AREA,2,6,0.25,0,1.5,7.75,0,0,FALSE
US,CA,93160,GOLETA,2,6,0.25,0,1.5,7.75,0,0,FALSE
US,CA,93190,SANTA BARBARA,1,6,0.25,1,1.5,8.75,0,0,FALSE
US,CA,93199,GOLETA,2,6,0.25,0,1.5,7.75,0,0,FALSE
US,CA,93201,TULARE COUNTY,1,6,0.25,0,1.5,7.75,0,0,FALSE
US,CA,93202,KINGS COUNTY,1,6,0.25,0,1,7.25,0,0,FALSE
US,CA,93203,ARVIN,3,6,0.25,1,1,8.25,0,0,FALSE
US,CA,93204,AVENAL,1,6,0.25,0,1,7.25,0,0,FALSE
US,CA,93205,KERN COUNTY,1,6,0.25,0,1,7.25,0,0,FALSE
US,CA,93206,KERN COUNTY,1,6,0.25,0,1,7.25,0,0,FALSE
US,CA,93207,TULARE COUNTY,1,6,0.25,0,1.5,7.75,0,0,FALSE
US,CA,93208,TULARE COUNTY,2,6,0.25,0,1.5,7.75,0,0,FALSE
US,CA,93210,COALINGA,1,6,0.25,1,1.725,8.975,0,0,FALSE
US,CA,93212,CORCORAN,2,6,0.25,1,1,8.25,0,0,FALSE
US,CA,93215,DELANO,1,6,0.25,1,1,8.25,0,0,FALSE
US,CA,93218,TULARE COUNTY,1,6,0.25,0,1.5,7.75,0,0,FALSE
US,CA,93219,TULARE COUNTY,2,6,0.25,0,1.5,7.75,0,0,FALSE
US,CA,93220,KERN COUNTY,1,6,0.25,0,1,7.25,0,0,FALSE
US,CA,93221,EXETER,1,6,0.25,0,1.5,7.75,0,0,FALSE
US,CA,93222,KERN COUNTY,1,6,0.25,0,1,7.25,0,0,FALSE
US,CA,93223,FARMERSVILLE,1,6,0.25,1,1.5,8.75,0,0,FALSE
US,CA,93224,KERN COUNTY,1,6,0.25,0,1,7.25,0,0,FALSE
US,CA,93225,KERN COUNTY,1,6,0.25,0,1,7.25,0,0,FALSE
US,CA,93226,KERN COUNTY,1,6,0.25,0,1,7.25,0,0,FALSE
US,CA,93227,TULARE COUNTY,1,6,0.25,0,1.5,7.75,0,0,FALSE
US,CA,93230,HANFORD,1,6,0.25,0,1,7.25,0,0,FALSE
US,CA,93232,HANFORD,1,6,0.25,0,1,7.25,0,0,FALSE
US,CA,93234,HURON,1,6,0.25,1,1.725,8.975,0,0,FALSE
US,CA,93235,TULARE COUNTY,1,6,0.25,0,1.5,7.75,0,0,FALSE
US,CA,93237,TULARE COUNTY,1,6,0.25,0,1.5,7.75,0,0,FALSE
US,CA,93238,KERN COUNTY,2,6,0.25,0,1,7.25,0,0,FALSE
US,CA,93239,KINGS COUNTY,1,6,0.25,0,1,7.25,0,0,FALSE
US,CA,93240,KERN COUNTY,2,6,0.25,0,1,7.25,0,0,FALSE
US,CA,93241,KERN COUNTY,1,6,0.25,0,1,7.25,0,0,FALSE
US,CA,93242,FRESNO COUNTY,1,6,0.25,0,1.725,7.975,0,0,FALSE
US,CA,93243,KERN COUNTY,3,6,0.25,0,1,7.25,0,0,FALSE
US,CA,93244,TULARE COUNTY,1,6,0.25,0,1.5,7.75,0,0,FALSE
US,CA,93245,LEMOORE,1,6,0.25,0,1,7.25,0,0,FALSE
US,CA,93246,LEMOORE,1,6,0.25,0,1,7.25,0,0,FALSE
US,CA,93247,LINDSAY,2,6,0.25,1,1.5,8.75,0,0,FALSE
US,CA,93249,KERN COUNTY,1,6,0.25,0,1,7.25,0,0,FALSE
US,CA,93250,MCFARLAND,1,6,0.25,0,1,7.25,0,0,FALSE
US,CA,93251,KERN COUNTY,1,6,0.25,0,1,7.25,0,0,FALSE
US,CA,93252,MARICOPA,1,6,0.25,0,1,7.25,0,0,FALSE
US,CA,93254,SANTA BARBARA COUNTY,2,6,0.25,0,1.5,7.75,0,0,FALSE
US,CA,93255,KERN COUNTY,1,6,0.25,0,1,7.25,0,0,FALSE
US,CA,93256,TULARE COUNTY,1,6,0.25,0,1.5,7.75,0,0,FALSE
US,CA,93257,PORTERVILLE,3,6,0.25,1.5,1.5,9.25,0,0,FALSE
US,CA,93258,PORTERVILLE,1,6,0.25,1.5,1.5,9.25,0,0,FALSE
US,CA,93260,TULARE COUNTY,2,6,0.25,0,1.5,7.75,0,0,FALSE
US,CA,93261,TULARE COUNTY,1,6,0.25,0,1.5,7.75,0,0,FALSE
US,CA,93262,TULARE COUNTY,1,6,0.25,0,1.5,7.75,0,0,FALSE
US,CA,93263,KERN COUNTY,1,6,0.25,0,1,7.25,0,0,FALSE
US,CA,93265,TULARE COUNTY,1,6,0.25,0,1.5,7.75,0,0,FALSE
US,CA,93266,KINGS COUNTY,1,6,0.25,0,1,7.25,0,0,FALSE
US,CA,93267,TULARE COUNTY,1,6,0.25,0,1.5,7.75,0,0,FALSE
US,CA,93268,TAFT,1,6,0.25,0,1,7.25,0,0,FALSE
US,CA,93270,TULARE COUNTY,1,6,0.25,0,1.5,7.75,0,0,FALSE
US,CA,93271,TULARE COUNTY,1,6,0.25,0,1.5,7.75,0,0,FALSE
US,CA,93272,TULARE COUNTY,1,6,0.25,0,1.5,7.75,0,0,FALSE
US,CA,93274,TULARE,1,6,0.25,0.5,1.5,8.25,0,0,FALSE
US,CA,93275,TULARE,1,6,0.25,0.5,1.5,8.25,0,0,FALSE
US,CA,93276,KERN COUNTY,1,6,0.25,0,1,7.25,0,0,FALSE
US,CA,93277,VISALIA,1,6,0.25,0.75,1.5,8.5,0,0,FALSE
US,CA,93278,VISALIA,1,6,0.25,0.75,1.5,8.5,0,0,FALSE
US,CA,93279,VISALIA,1,6,0.25,0.75,1.5,8.5,0,0,FALSE
US,CA,93280,WASCO,1,6,0.25,1,1,8.25,0,0,FALSE
US,CA,93282,TULARE COUNTY,3,6,0.25,0,1.5,7.75,0,0,FALSE
US,CA,93283,KERN COUNTY,1,6,0.25,0,1,7.25,0,0,FALSE
US,CA,93285,KERN COUNTY,1,6,0.25,0,1,7.25,0,0,FALSE
US,CA,93286,TULARE COUNTY DISTRICT TAX SP,2,6,0.25,1,1.5,8.75,0,0,FALSE
US,CA,93287,KERN COUNTY,1,6,0.25,0,1,7.25,0,0,FALSE
US,CA,93290,VISALIA,1,6,0.25,0.75,1.5,8.5,0,0,FALSE
US,CA,93291,VISALIA,1,6,0.25,0.75,1.5,8.5,0,0,FALSE
US,CA,93292,VISALIA,1,6,0.25,0.75,1.5,8.5,0,0,FALSE
US,CA,93301,BAKERSFIELD,1,6,0.25,1,1,8.25,0,0,FALSE
US,CA,93302,KERN COUNTY,1,6,0.25,0,1,7.25,0,0,FALSE
US,CA,93303,KERN COUNTY,1,6,0.25,0,1,7.25,0,0,FALSE
US,CA,93304,BAKERSFIELD,1,6,0.25,1,1,8.25,0,0,FALSE
US,CA,93305,BAKERSFIELD,1,6,0.25,1,1,8.25,0,0,FALSE
US,CA,93306,BAKERSFIELD,1,6,0.25,1,1,8.25,0,0,FALSE
US,CA,93307,BAKERSFIELD,1,6,0.25,1,1,8.25,0,0,FALSE
US,CA,93308,KERN COUNTY,1,6,0.25,0,1,7.25,0,0,FALSE
US,CA,93309,BAKERSFIELD,1,6,0.25,1,1,8.25,0,0,FALSE
US,CA,93311,BAKERSFIELD,1,6,0.25,1,1,8.25,0,0,FALSE
US,CA,93312,BAKERSFIELD,1,6,0.25,1,1,8.25,0,0,FALSE
US,CA,93313,BAKERSFIELD,1,6,0.25,1,1,8.25,0,0,FALSE
US,CA,93314,KERN COUNTY,1,6,0.25,0,1,7.25,0,0,FALSE
US,CA,93380,KERN COUNTY,1,6,0.25,0,1,7.25,0,0,FALSE
US,CA,93384,BAKERSFIELD,1,6,0.25,1,1,8.25,0,0,FALSE
US,CA,93385,BAKERSFIELD,1,6,0.25,1,1,8.25,0,0,FALSE
US,CA,93386,KERN COUNTY,1,6,0.25,0,1,7.25,0,0,FALSE
US,CA,93387,BAKERSFIELD,1,6,0.25,1,1,8.25,0,0,FALSE
US,CA,93388,KERN COUNTY,1,6,0.25,0,1,7.25,0,0,FALSE
US,CA,93389,BAKERSFIELD,1,6,0.25,1,1,8.25,0,0,FALSE
US,CA,93390,BAKERSFIELD,1,6,0.25,1,1,8.25,0,0,FALSE
US,CA,93401,SAN LUIS OBISPO CITY TOURISM BUSINESS IMPROVEMENT DISTRICT,1,6,0.25,0.5,1,7.75,0,0,FALSE
US,CA,93402,SAN LUIS OBISPO COUNTY TOURISM BUSINESS IMPROVEMENT DISTRICT,3,6,0.25,0,1,7.25,0,0,FALSE
US,CA,93403,SAN LUIS OBISPO CITY TOURISM BUSINESS IMPROVEMENT DISTRICT,1,6,0.25,0.5,1,7.75,0,0,FALSE
US,CA,93405,SAN LUIS OBISPO CITY TOURISM BUSINESS IMPROVEMENT DISTRICT,1,6,0.25,0.5,1,7.75,0,0,FALSE
US,CA,93406,SAN LUIS OBISPO CITY TOURISM BUSINESS IMPROVEMENT DISTRICT,1,6,0.25,0.5,1,7.75,0,0,FALSE
US,CA,93407,SAN LUIS OBISPO COUNTY TOURISM BUSINESS IMPROVEMENT DISTRICT,1,6,0.25,0,1,7.25,0,0,FALSE
US,CA,93408,SAN LUIS OBISPO CITY TOURISM BUSINESS IMPROVEMENT DISTRICT,1,6,0.25,0.5,1,7.75,0,0,FALSE
US,CA,93409,SAN LUIS OBISPO CITY TOURISM BUSINESS IMPROVEMENT DISTRICT,1,6,0.25,0.5,1,7.75,0,0,FALSE
US,CA,93410,SAN LUIS OBISPO COUNTY TOURISM BUSINESS IMPROVEMENT DISTRICT,1,6,0.25,0,1,7.25,0,0,FALSE
US,CA,93412,SAN LUIS OBISPO COUNTY TOURISM BUSINESS IMPROVEMENT DISTRICT,2,6,0.25,0,1,7.25,0,0,FALSE
US,CA,93420,ARROYO GRANDE TOURISM BUSINESS IMPROVEMENT DISTRICT,2,6,0.25,0.5,1,7.75,0,0,FALSE
US,CA,93421,SAN LUIS OBISPO COUNTY TOURISM BUSINESS IMPROVEMENT DISTRICT,2,6,0.25,0,1,7.25,0,0,FALSE
US,CA,93422,ATASCADERO TOURISM BUSINESS IMPROVEMENT DISTRICT,1,6,0.25,0.5,1,7.75,0,0,FALSE
US,CA,93423,ATASCADERO TOURISM BUSINESS IMPROVEMENT DISTRICT,1,6,0.25,0.5,1,7.75,0,0,FALSE
US,CA,93424,SAN LUIS OBISPO COUNTY TOURISM BUSINESS IMPROVEMENT DISTRICT,1,6,0.25,0,1,7.25,0,0,FALSE
US,CA,93426,MONTEREY COUNTY TOURISM IMPROVEMENT DISTRICT,5,6,0.25,0,1.5,7.75,0,0,FALSE
US,CA,93427,BUELLTON,1,6,0.25,0,1.5,7.75,0,0,FALSE
US,CA,93428,SAN LUIS OBISPO COUNTY TOURISM BUSINESS IMPROVEMENT DISTRICT,1,6,0.25,0,1,7.25,0,0,FALSE
US,CA,93429,SANTA BARBARA COUNTY,1,6,0.25,0,1.5,7.75,0,0,FALSE
US,CA,93430,SAN LUIS OBISPO COUNTY TOURISM BUSINESS IMPROVEMENT DISTRICT,1,6,0.25,0,1,7.25,0,0,FALSE
US,CA,93432,SAN LUIS OBISPO COUNTY TOURISM BUSINESS IMPROVEMENT DISTRICT,1,6,0.25,0,1,7.25,0,0,FALSE
US,CA,93433,GROVER BEACH,1,6,0.25,0.5,1,7.75,0,0,FALSE
US,CA,93434,GUADALUPE,1,6,0.25,0.25,1.5,8,0,0,FALSE
US,CA,93435,SAN LUIS OBISPO COUNTY TOURISM BUSINESS IMPROVEMENT DISTRICT,1,6,0.25,0,1,7.25,0,0,FALSE
US,CA,93436,LOMPOC TOURISM IMPROVEMENT DISTRICT,2,6,0.25,0,1.5,7.75,0,0,FALSE
US,CA,93437,SANTA BARBARA COUNTY,1,6,0.25,0,1.5,7.75,0,0,FALSE
US,CA,93438,LOMPOC TOURISM IMPROVEMENT DISTRICT,1,6,0.25,0,1.5,7.75,0,0,FALSE
US,CA,93440,SANTA BARBARA COUNTY DISTRICT TAX SP,1,6,0.25,0,1.5,7.75,0,0,FALSE
US,CA,93441,SANTA BARBARA COUNTY DISTRICT TAX SP,1,6,0.25,0,1.5,7.75,0,0,FALSE
US,CA,93442,MORRO BAY TOURISM BUSINESS IMPROVEMENT DISTRICT,1,6,0.25,0.5,1,7.75,0,0,FALSE
US,CA,93443,MORRO BAY TOURISM BUSINESS IMPROVEMENT DISTRICT,1,6,0.25,0.5,1,7.75,0,0,FALSE
US,CA,93444,SAN LUIS OBISPO COUNTY TOURISM BUSINESS IMPROVEMENT DISTRICT,1,6,0.25,0,1,7.25,0,0,FALSE
US,CA,93445,SAN LUIS OBISPO COUNTY TOURISM BUSINESS IMPROVEMENT DISTRICT,1,6,0.25,0,1,7.25,0,0,FALSE
US,CA,93446,PASO ROBLES TOURISM BUSINESS IMPROVEMENT DISTRICT,6,6,0.25,0.5,1,7.75,0,0,FALSE
US,CA,93447,PASO ROBLES TOURISM BUSINESS IMPROVEMENT DISTRICT,1,6,0.25,0.5,1,7.75,0,0,FALSE
US,CA,93448,PISMO BEACH LODGING BUSINESS IMPROVEMENT DISTRICT,2,6,0.25,0.5,1,7.75,0,0,FALSE
US,CA,93449,PISMO BEACH LODGING BUSINESS IMPROVEMENT DISTRICT,2,6,0.25,0.5,1,7.75,0,0,FALSE
US,CA,93450,MONTEREY COUNTY TOURISM IMPROVEMENT DISTRICT,1,6,0.25,0,1.5,7.75,0,0,FALSE
US,CA,93451,SAN LUIS OBISPO COUNTY TOURISM BUSINESS IMPROVEMENT DISTRICT,3,6,0.25,0,1,7.25,0,0,FALSE
US,CA,93452,SAN LUIS OBISPO COUNTY TOURISM BUSINESS IMPROVEMENT DISTRICT,2,6,0.25,0,1,7.25,0,0,FALSE
US,CA,93453,SAN LUIS OBISPO COUNTY TOURISM BUSINESS IMPROVEMENT DISTRICT,3,6,0.25,0,1,7.25,0,0,FALSE
US,CA,93454,SANTA MARIA,4,6,0.25,1,1.5,8.75,0,0,FALSE
US,CA,93455,SANTA BARBARA COUNTY,2,6,0.25,0,1.5,7.75,0,0,FALSE
US,CA,93456,SANTA MARIA,1,6,0.25,1,1.5,8.75,0,0,FALSE
US,CA,93457,SANTA BARBARA COUNTY,2,6,0.25,0,1.5,7.75,0,0,FALSE
US,CA,93458,SANTA MARIA,1,6,0.25,1,1.5,8.75,0,0,FALSE
US,CA,93460,SANTA BARBARA COUNTY DISTRICT TAX SP,1,6,0.25,0,1.5,7.75,0,0,FALSE
US,CA,93461,SAN LUIS OBISPO COUNTY TOURISM BUSINESS IMPROVEMENT DISTRICT,2,6,0.25,0,1,7.25,0,0,FALSE
US,CA,93463,SOLVANG,2,6,0.25,0,1.5,7.75,0,0,FALSE
US,CA,93464,SOLVANG,1,6,0.25,0,1.5,7.75,0,0,FALSE
US,CA,93465,SAN LUIS OBISPO COUNTY TOURISM BUSINESS IMPROVEMENT DISTRICT,1,6,0.25,0,1,7.25,0,0,FALSE
US,CA,93475,SAN LUIS OBISPO COUNTY TOURISM BUSINESS IMPROVEMENT DISTRICT,1,6,0.25,0,1,7.25,0,0,FALSE
US,CA,93483,GROVER BEACH,1,6,0.25,0.5,1,7.75,0,0,FALSE
US,CA,93501,KERN COUNTY,2,6,0.25,0,1,7.25,0,0,FALSE
US,CA,93502,KERN COUNTY,1,6,0.25,0,1,7.25,0,0,FALSE
US,CA,93504,CALIFORNIA CITY,1,6,0.25,0,1,7.25,0,0,FALSE
US,CA,93505,CALIFORNIA CITY,1,6,0.25,0,1,7.25,0,0,FALSE
US,CA,93510,LOS ANGELES COUNTY,1,6,0.25,0,3.25,9.5,0,0,FALSE
US,CA,93512,MONO COUNTY,3,6,0.25,0,1,7.25,0,0,FALSE
US,CA,93513,INYO COUNTY,1,6,0.25,0,1.5,7.75,0,0,FALSE
US,CA,93514,BISHOP TOURISM IMPROVEMENT DISTRICT,9,6,0.25,0,1.5,7.75,0,0,FALSE
US,CA,93515,BISHOP TOURISM IMPROVEMENT DISTRICT,1,6,0.25,0,1.5,7.75,0,0,FALSE
US,CA,93516,KERN COUNTY,4,6,0.25,0,1,7.25,0,0,FALSE
US,CA,93517,MONO COUNTY,1,6,0.25,0,1,7.25,0,0,FALSE
US,CA,93518,KERN COUNTY,3,6,0.25,0,1,7.25,0,0,FALSE
US,CA,93522,INYO COUNTY,1,6,0.25,0,1.5,7.75,0,0,FALSE
US,CA,93523,KERN COUNTY,4,6,0.25,0,1,7.25,0,0,FALSE
US,CA,93524,KERN COUNTY,2,6,0.25,0,1,7.25,0,0,FALSE
US,CA,93526,INYO COUNTY,2,6,0.25,0,1.5,7.75,0,0,FALSE
US,CA,93527,KERN COUNTY,2,6,0.25,0,1,7.25,0,0,FALSE
US,CA,93528,KERN COUNTY,1,6,0.25,0,1,7.25,0,0,FALSE
US,CA,93529,MONO COUNTY,2,6,0.25,0,1,7.25,0,0,FALSE
US,CA,93530,INYO COUNTY,1,6,0.25,0,1.5,7.75,0,0,FALSE
US,CA,93531,KERN COUNTY,1,6,0.25,0,1,7.25,0,0,FALSE
US,CA,93532,LOS ANGELES COUNTY,6,6,0.25,0,3.25,9.5,0,0,FALSE
US,CA,93534,LANCASTER TOURISM BUSINESS IMPROVEMENT DISTRICT,6,6,0.25,0,3.25,9.5,0,0,FALSE
US,CA,93535,LANCASTER TOURISM BUSINESS IMPROVEMENT DISTRICT,4,6,0.25,0,3.25,9.5,0,0,FALSE
US,CA,93536,LANCASTER TOURISM BUSINESS IMPROVEMENT DISTRICT,6,6,0.25,0,3.25,9.5,0,0,FALSE
US,CA,93539,LANCASTER TOURISM BUSINESS IMPROVEMENT DISTRICT,1,6,0.25,0,3.25,9.5,0,0,FALSE
US,CA,93541,MONO COUNTY,3,6,0.25,0,1,7.25,0,0,FALSE
US,CA,93543,LOS ANGELES COUNTY,3,6,0.25,0,3.25,9.5,0,0,FALSE
US,CA,93544,LOS ANGELES COUNTY,2,6,0.25,0,3.25,9.5,0,0,FALSE
US,CA,93545,INYO COUNTY,5,6,0.25,0,1.5,7.75,0,0,FALSE
US,CA,93546,MAMMOTH LAKES TOURISM BUSINESS IMPROVEMENT DISTRICT,4,6,0.25,0.5,1,7.75,0,0,FALSE
US,CA,93549,INYO COUNTY,2,6,0.25,0,1.5,7.75,0,0,FALSE
US,CA,93550,PALMDALE,2,6,0.25,0,3.25,9.5,0,0,FALSE
US,CA,93551,PALMDALE,4,6,0.25,0,3.25,9.5,0,0,FALSE
US,CA,93552,PALMDALE,1,6,0.25,0,3.25,9.5,0,0,FALSE
US,CA,93553,LOS ANGELES COUNTY,2,6,0.25,0,3.25,9.5,0,0,FALSE
US,CA,93554,KERN COUNTY,3,6,0.25,0,1,7.25,0,0,FALSE
US,CA,93555,RIDGECREST,2,6,0.25,1,1,8.25,0,0,FALSE
US,CA,93556,RIDGECREST,1,6,0.25,1,1,8.25,0,0,FALSE
US,CA,93560,KERN COUNTY,3,6,0.25,0,1,7.25,0,0,FALSE
US,CA,93561,KERN COUNTY,7,6,0.25,0,1,7.25,0,0,FALSE
US,CA,93562,SAN BERNARDINO COUNTY,4,6,0.25,0,1.5,7.75,0,0,FALSE
US,CA,93563,LOS ANGELES COUNTY,2,6,0.25,0,3.25,9.5,0,0,FALSE
US,CA,93581,TEHACHAPI,1,6,0.25,0,1,7.25,0,0,FALSE
US,CA,93584,DOWNTOWN LANCASTER PROPERTY & BUSINESS IMPROVEMENT DISTRICT,1,6,0.25,0,3.25,9.5,0,0,FALSE
US,CA,93586,LOS ANGELES COUNTY,2,6,0.25,0,3.25,9.5,0,0,FALSE
US,CA,93590,PALMDALE,1,6,0.25,0,3.25,9.5,0,0,FALSE
US,CA,93591,LOS ANGELES COUNTY,2,6,0.25,0,3.25,9.5,0,0,FALSE
US,CA,93592,INYO COUNTY,1,6,0.25,0,1.5,7.75,0,0,FALSE
US,CA,93599,PALMDALE,1,6,0.25,0,3.25,9.5,0,0,FALSE
US,CA,93601,MADERA COUNTY TOURISM BUSINESS IMPROVEMENT DISTRICT,2,6,0.25,0,1.5,7.75,0,0,FALSE
US,CA,93602,FRESNO COUNTY,2,6,0.25,0,1.725,7.975,0,0,FALSE
US,CA,93603,TULARE COUNTY,3,6,0.25,0,1.5,7.75,0,0,FALSE
US,CA,93604,MADERA COUNTY TOURISM BUSINESS IMPROVEMENT DISTRICT,1,6,0.25,0,1.5,7.75,0,0,FALSE
US,CA,93605,FRESNO COUNTY,1,6,0.25,0,1.725,7.975,0,0,FALSE
US,CA,93606,FRESNO COUNTY,1,6,0.25,0,1.725,7.975,0,0,FALSE
US,CA,93608,FRESNO COUNTY,2,6,0.25,0,1.725,7.975,0,0,FALSE
US,CA,93609,FRESNO COUNTY,1,6,0.25,0,1.725,7.975,0,0,FALSE
US,CA,93610,CHOWCHILLA,3,6,0.25,1,1.5,8.75,0,0,FALSE
US,CA,93611,CLOVIS,1,6,0.25,0,1.725,7.975,0,0,FALSE
US,CA,93612,CLOVIS,1,6,0.25,0,1.725,7.975,0,0,FALSE
US,CA,93613,CLOVIS,1,6,0.25,0,1.725,7.975,0,0,FALSE
US,CA,93614,MADERA COUNTY TOURISM BUSINESS IMPROVEMENT DISTRICT,1,6,0.25,0,1.5,7.75,0,0,FALSE
US,CA,93615,TULARE COUNTY,1,6,0.25,0,1.5,7.75,0,0,FALSE
US,CA,93616,FRESNO COUNTY,1,6,0.25,0,1.725,7.975,0,0,FALSE
US,CA,93618,DINUBA,2,6,0.25,0.75,1.5,8.5,0,0,FALSE
US,CA,93619,CLOVIS,1,6,0.25,0,1.725,7.975,0,0,FALSE
US,CA,93620,MERCED COUNTY,1,6,0.25,0,1.5,7.75,0,0,FALSE
US,CA,93621,FRESNO COUNTY,1,6,0.25,0,1.725,7.975,0,0,FALSE
US,CA,93622,FIREBAUGH,1,6,0.25,0,1.725,7.975,0,0,FALSE
US,CA,93623,MARIPOSA COUNTY DISTRICT TAX SP,1,6,0.25,0,1.5,7.75,0,0,FALSE
US,CA,93624,FRESNO COUNTY,1,6,0.25,0,1.725,7.975,0,0,FALSE
US,CA,93625,FOWLER,1,6,0.25,1,1.725,8.975,0,0,FALSE
US,CA,93626,FRESNO COUNTY,1,6,0.25,0,1.725,7.975,0,0,FALSE
US,CA,93627,FRESNO COUNTY,1,6,0.25,0,1.725,7.975,0,0,FALSE
US,CA,93628,FRESNO COUNTY,3,6,0.25,0,1.725,7.975,0,0,FALSE
US,CA,93630,KERMAN,1,6,0.25,1,1.725,8.975,0,0,FALSE
US,CA,93631,KINGSBURG,1,6,0.25,1,1.725,8.975,0,0,FALSE
US,CA,93633,TULARE COUNTY,6,6,0.25,0,1.5,7.75,0,0,FALSE
US,CA,93634,FRESNO COUNTY,2,6,0.25,0,1.725,7.975,0,0,FALSE
US,CA,93635,LOS BANOS,1,6,0.25,1,1.5,8.75,0,0,FALSE
US,CA,93636,MADERA COUNTY TOURISM BUSINESS IMPROVEMENT DISTRICT,1,6,0.25,0,1.5,7.75,0,0,FALSE
US,CA,93637,MADERA,2,6,0.25,0.5,1.5,8.25,0,0,FALSE
US,CA,93638,MADERA,1,6,0.25,0.5,1.5,8.25,0,0,FALSE
US,CA,93639,MADERA,1,6,0.25,0.5,1.5,8.25,0,0,FALSE
US,CA,93640,MENDOTA,1,6,0.25,0,1.725,7.975,0,0,FALSE
US,CA,93641,FRESNO COUNTY,3,6,0.25,0,1.725,7.975,0,0,FALSE
US,CA,93642,FRESNO COUNTY,2,6,0.25,0,1.725,7.975,0,0,FALSE
US,CA,93643,MADERA COUNTY TOURISM BUSINESS IMPROVEMENT DISTRICT,1,6,0.25,0,1.5,7.75,0,0,FALSE
US,CA,93644,MADERA COUNTY TOURISM BUSINESS IMPROVEMENT DISTRICT,1,6,0.25,0,1.5,7.75,0,0,FALSE
US,CA,93645,MADERA COUNTY TOURISM BUSINESS IMPROVEMENT DISTRICT,1,6,0.25,0,1.5,7.75,0,0,FALSE
US,CA,93646,ORANGE COVE,2,6,0.25,0,1.725,7.975,0,0,FALSE
US,CA,93647,TULARE COUNTY,2,6,0.25,0,1.5,7.75,0,0,FALSE
US,CA,93648,PARLIER,1,6,0.25,0,1.725,7.975,0,0,FALSE
US,CA,93649,FRESNO COUNTY,1,6,0.25,0,1.725,7.975,0,0,FALSE
US,CA,93650,FRESNO,3,6,0.25,0,1.725,7.975,0,0,FALSE
US,CA,93651,FRESNO COUNTY,1,6,0.25,0,1.725,7.975,0,0,FALSE
US,CA,93652,FRESNO COUNTY,1,6,0.25,0,1.725,7.975,0,0,FALSE
US,CA,93653,MADERA COUNTY TOURISM BUSINESS IMPROVEMENT DISTRICT,1,6,0.25,0,1.5,7.75,0,0,FALSE
US,CA,93654,REEDLEY,2,6,0.25,0.5,1.725,8.475,0,0,FALSE
US,CA,93656,FRESNO COUNTY,1,6,0.25,0,1.725,7.975,0,0,FALSE
US,CA,93657,SANGER,4,6,0.25,0.75,1.725,8.725,0,0,FALSE
US,CA,93660,FRESNO COUNTY,1,6,0.25,0,1.725,7.975,0,0,FALSE
US,CA,93661,MERCED COUNTY,1,6,0.25,0,1.5,7.75,0,0,FALSE
US,CA,93662,SELMA,2,6,0.25,0.5,1.725,8.475,0,0,FALSE
US,CA,93664,FRESNO COUNTY,1,6,0.25,0,1.725,7.975,0,0,FALSE
US,CA,93665,MERCED COUNTY,1,6,0.25,0,1.5,7.75,0,0,FALSE
US,CA,93666,FRESNO COUNTY,1,6,0.25,0,1.725,7.975,0,0,FALSE
US,CA,93667,FRESNO COUNTY,1,6,0.25,0,1.725,7.975,0,0,FALSE
US,CA,93668,FRESNO COUNTY,1,6,0.25,0,1.725,7.975,0,0,FALSE
US,CA,93669,MADERA COUNTY TOURISM BUSINESS IMPROVEMENT DISTRICT,2,6,0.25,0,1.5,7.75,0,0,FALSE
US,CA,93670,TULARE COUNTY,1,6,0.25,0,1.5,7.75,0,0,FALSE
US,CA,93673,TULARE COUNTY,1,6,0.25,0,1.5,7.75,0,0,FALSE
US,CA,93675,FRESNO COUNTY,2,6,0.25,0,1.725,7.975,0,0,FALSE
US,CA,93701,FRESNO,1,6,0.25,0,1.725,7.975,0,0,FALSE
US,CA,93702,FRESNO,1,6,0.25,0,1.725,7.975,0,0,FALSE
US,CA,93703,FRESNO,1,6,0.25,0,1.725,7.975,0,0,FALSE
US,CA,93704,FRESNO,1,6,0.25,0,1.725,7.975,0,0,FALSE
US,CA,93705,FRESNO,1,6,0.25,0,1.725,7.975,0,0,FALSE
US,CA,93706,FRESNO,2,6,0.25,0,1.725,7.975,0,0,FALSE
US,CA,93707,FRESNO,1,6,0.25,0,1.725,7.975,0,0,FALSE
US,CA,93708,FRESNO,1,6,0.25,0,1.725,7.975,0,0,FALSE
US,CA,93709,FRESNO,1,6,0.25,0,1.725,7.975,0,0,FALSE
US,CA,93710,FRESNO,1,6,0.25,0,1.725,7.975,0,0,FALSE
US,CA,93711,FRESNO,1,6,0.25,0,1.725,7.975,0,0,FALSE
US,CA,93712,FRESNO,1,6,0.25,0,1.725,7.975,0,0,FALSE
US,CA,93714,FRESNO,1,6,0.25,0,1.725,7.975,0,0,FALSE
US,CA,93715,FRESNO,1,6,0.25,0,1.725,7.975,0,0,FALSE
US,CA,93716,FRESNO,1,6,0.25,0,1.725,7.975,0,0,FALSE
US,CA,93717,FRESNO,1,6,0.25,0,1.725,7.975,0,0,FALSE
US,CA,93718,FRESNO,1,6,0.25,0,1.725,7.975,0,0,FALSE
US,CA,93720,FRESNO,1,6,0.25,0,1.725,7.975,0,0,FALSE
US,CA,93721,FRESNO,1,6,0.25,0,1.725,7.975,0,0,FALSE
US,CA,93722,FRESNO,1,6,0.25,0,1.725,7.975,0,0,FALSE
US,CA,93723,FRESNO COUNTY,1,6,0.25,0,1.725,7.975,0,0,FALSE
US,CA,93724,FRESNO,1,6,0.25,0,1.725,7.975,0,0,FALSE
US,CA,93725,FRESNO COUNTY,3,6,0.25,0,1.725,7.975,0,0,FALSE
US,CA,93726,FRESNO,1,6,0.25,0,1.725,7.975,0,0,FALSE
US,CA,93727,FRESNO,1,6,0.25,0,1.725,7.975,0,0,FALSE
US,CA,93728,FRESNO,1,6,0.25,0,1.725,7.975,0,0,FALSE
US,CA,93729,FRESNO,1,6,0.25,0,1.725,7.975,0,0,FALSE
US,CA,93730,FRESNO,1,6,0.25,0,1.725,7.975,0,0,FALSE
US,CA,93737,FRESNO COUNTY,1,6,0.25,0,1.725,7.975,0,0,FALSE
US,CA,93740,FRESNO,1,6,0.25,0,1.725,7.975,0,0,FALSE
US,CA,93741,FRESNO,1,6,0.25,0,1.725,7.975,0,0,FALSE
US,CA,93744,FRESNO,1,6,0.25,0,1.725,7.975,0,0,FALSE
US,CA,93745,FRESNO COUNTY,2,6,0.25,0,1.725,7.975,0,0,FALSE
US,CA,93747,FRESNO,1,6,0.25,0,1.725,7.975,0,0,FALSE
US,CA,93750,FRESNO,1,6,0.25,0,1.725,7.975,0,0,FALSE
US,CA,93755,FRESNO,1,6,0.25,0,1.725,7.975,0,0,FALSE
US,CA,93760,FRESNO,1,6,0.25,0,1.725,7.975,0,0,FALSE
US,CA,93761,FRESNO,1,6,0.25,0,1.725,7.975,0,0,FALSE
US,CA,93764,FRESNO,1,6,0.25,0,1.725,7.975,0,0,FALSE
US,CA,93765,FRESNO,1,6,0.25,0,1.725,7.975,0,0,FALSE
US,CA,93771,FRESNO,1,6,0.25,0,1.725,7.975,0,0,FALSE
US,CA,93772,FRESNO,1,6,0.25,0,1.725,7.975,0,0,FALSE
US,CA,93773,FRESNO,1,6,0.25,0,1.725,7.975,0,0,FALSE
US,CA,93774,FRESNO,1,6,0.25,0,1.725,7.975,0,0,FALSE
US,CA,93775,FRESNO,1,6,0.25,0,1.725,7.975,0,0,FALSE
US,CA,93776,FRESNO,1,6,0.25,0,1.725,7.975,0,0,FALSE
US,CA,93777,FRESNO,1,6,0.25,0,1.725,7.975,0,0,FALSE
US,CA,93778,FRESNO,1,6,0.25,0,1.725,7.975,0,0,FALSE
US,CA,93779,FRESNO,1,6,0.25,0,1.725,7.975,0,0,FALSE
US,CA,93786,FRESNO,1,6,0.25,0,1.725,7.975,0,0,FALSE
US,CA,93790,FRESNO,1,6,0.25,0,1.725,7.975,0,0,FALSE
US,CA,93791,FRESNO,1,6,0.25,0,1.725,7.975,0,0,FALSE
US,CA,93792,FRESNO,1,6,0.25,0,1.725,7.975,0,0,FALSE
US,CA,93793,FRESNO,1,6,0.25,0,1.725,7.975,0,0,FALSE
US,CA,93794,FRESNO,1,6,0.25,0,1.725,7.975,0,0,FALSE
US,CA,93844,FRESNO,1,6,0.25,0,1.725,7.975,0,0,FALSE
US,CA,93888,FRESNO,1,6,0.25,0,1.725,7.975,0,0,FALSE
US,CA,93901,SALINAS,1,6,0.25,1.5,1.5,9.25,0,0,FALSE
US,CA,93902,SALINAS,1,6,0.25,1.5,1.5,9.25,0,0,FALSE
US,CA,93905,SALINAS,2,6,0.25,1.5,1.5,9.25,0,0,FALSE
US,CA,93906,SALINAS,1,6,0.25,1.5,1.5,9.25,0,0,FALSE
US,CA,93907,MONTEREY COUNTY TOURISM IMPROVEMENT DISTRICT,2,6,0.25,0,1.5,7.75,0,0,FALSE
US,CA,93908,MONTEREY COUNTY TOURISM IMPROVEMENT DISTRICT,2,6,0.25,0,1.5,7.75,0,0,FALSE
US,CA,93912,SALINAS,1,6,0.25,1.5,1.5,9.25,0,0,FALSE
US,CA,93915,SALINAS,1,6,0.25,1.5,1.5,9.25,0,0,FALSE
US,CA,93920,MONTEREY COUNTY TOURISM IMPROVEMENT DISTRICT,4,6,0.25,0,1.5,7.75,0,0,FALSE
US,CA,93921,CARMEL BY THE SEA,3,6,0.25,1,1.5,8.75,0,0,FALSE
US,CA,93922,MONTEREY COUNTY TOURISM IMPROVEMENT DISTRICT,1,6,0.25,0,1.5,7.75,0,0,FALSE
US,CA,93923,MONTEREY COUNTY TOURISM IMPROVEMENT DISTRICT,2,6,0.25,0,1.5,7.75,0,0,FALSE
US,CA,93924,MONTEREY COUNTY TOURISM IMPROVEMENT DISTRICT,4,6,0.25,0,1.5,7.75,0,0,FALSE
US,CA,93925,MONTEREY COUNTY TOURISM IMPROVEMENT DISTRICT,1,6,0.25,0,1.5,7.75,0,0,FALSE
US,CA,93926,GONZALES,1,6,0.25,0.5,1.5,8.25,0,0,FALSE
US,CA,93927,GREENFIELD,1,6,0.25,1.75,1.5,9.5,0,0,FALSE
US,CA,93928,MONTEREY COUNTY TOURISM IMPROVEMENT DISTRICT,2,6,0.25,0,1.5,7.75,0,0,FALSE
US,CA,93930,KING CITY,1,6,0.25,1,1.5,8.75,0,0,FALSE
US,CA,93932,MONTEREY COUNTY TOURISM IMPROVEMENT DISTRICT,1,6,0.25,0,1.5,7.75,0,0,FALSE
US,CA,93933,MARINA,2,6,0.25,1.5,1.5,9.25,0,0,FALSE
US,CA,93940,MONTEREY CONFERENCE CENTER FACILITIES DISTRICT,3,6,0.25,1,1.5,8.75,0,0,FALSE
US,CA,93942,MONTEREY CONFERENCE CENTER FACILITIES DISTRICT,1,6,0.25,1,1.5,8.75,0,0,FALSE
US,CA,93943,MONTEREY CONFERENCE CENTER FACILITIES DISTRICT,1,6,0.25,1,1.5,8.75,0,0,FALSE
US,CA,93944,MONTEREY CONFERENCE CENTER FACILITIES DISTRICT,1,6,0.25,1,1.5,8.75,0,0,FALSE
US,CA,93950,PACIFIC GROVE,2,6,0.25,1,1.5,8.75,0,0,FALSE
US,CA,93953,MONTEREY COUNTY TOURISM IMPROVEMENT DISTRICT,1,6,0.25,0,1.5,7.75,0,0,FALSE
US,CA,93954,MONTEREY COUNTY TOURISM IMPROVEMENT DISTRICT,1,6,0.25,0,1.5,7.75,0,0,FALSE
US,CA,93955,SEASIDE,2,6,0.25,1.5,1.5,9.25,0,0,FALSE
US,CA,93960,SOLEDAD,1,6,0.25,1,1.5,8.75,0,0,FALSE
US,CA,93962,MONTEREY COUNTY TOURISM IMPROVEMENT DISTRICT,2,6,0.25,0,1.5,7.75,0,0,FALSE
US,CA,94002,BELMONT,1,6,0.25,0.5,3,9.75,0,0,FALSE
US,CA,94005,BRISBANE,1,6,0.25,0,3,9.25,0,0,FALSE
US,CA,94010,SAN MATEO COUNTY DISTRICT TAX SP,2,6,0.25,0.25,3,9.5,0,0,FALSE
US,CA,94011,SAN MATEO COUNTY DISTRICT TAX SP,1,6,0.25,0.25,3,9.5,0,0,FALSE
US,CA,94014,DALY CITY,2,6,0.25,0,3,9.25,0,0,FALSE
US,CA,94015,DALY CITY,1,6,0.25,0,3,9.25,0,0,FALSE
US,CA,94017,DALY CITY,1,6,0.25,0,3,9.25,0,0,FALSE
US,CA,94018,SAN MATEO COUNTY,1,6,0.25,0,3,9.25,0,0,FALSE
US,CA,94019,HALF MOON BAY,2,6,0.25,0,3,9.25,0,0,FALSE
US,CA,94020,SAN MATEO COUNTY,1,6,0.25,0,3,9.25,0,0,FALSE
US,CA,94021,SAN MATEO COUNTY,1,6,0.25,0,3,9.25,0,0,FALSE
US,CA,94022,LOS ALTOS,2,6,0.25,0,2.75,9,0,0,FALSE
US,CA,94023,LOS ALTOS,1,6,0.25,0,2.75,9,0,0,FALSE
US,CA,94024,LOS ALTOS,2,6,0.25,0,2.75,9,0,0,FALSE
US,CA,94025,MENLO PARK,2,6,0.25,0,3,9.25,0,0,FALSE
US,CA,94026,MENLO PARK,2,6,0.25,0,3,9.25,0,0,FALSE
US,CA,94027,SAN MATEO COUNTY,2,6,0.25,0,3,9.25,0,0,FALSE
US,CA,94028,SAN MATEO COUNTY,3,6,0.25,0,3,9.25,0,0,FALSE
US,CA,94030,MILLBRAE,1,6,0.25,0,3,9.25,0,0,FALSE
US,CA,94035,SANTA CLARA COUNTY,2,6,0.25,0,2.75,9,0,0,FALSE
US,CA,94037,SAN MATEO COUNTY,1,6,0.25,0,3,9.25,0,0,FALSE
US,CA,94038,SAN MATEO COUNTY,1,6,0.25,0,3,9.25,0,0,FALSE
US,CA,94039,MOUNTAIN VIEW,1,6,0.25,0,2.75,9,0,0,FALSE
US,CA,94040,MOUNTAIN VIEW,2,6,0.25,0,2.75,9,0,0,FALSE
US,CA,94041,MOUNTAIN VIEW,1,6,0.25,0,2.75,9,0,0,FALSE
US,CA,94042,MOUNTAIN VIEW,1,6,0.25,0,2.75,9,0,0,FALSE
US,CA,94043,MOUNTAIN VIEW,1,6,0.25,0,2.75,9,0,0,FALSE
US,CA,94044,PACIFICA,2,6,0.25,0,3,9.25,0,0,FALSE
US,CA,94060,SAN MATEO COUNTY,1,6,0.25,0,3,9.25,0,0,FALSE
US,CA,94061,REDWOOD CITY,2,6,0.25,0.5,3,9.75,0,0,FALSE
US,CA,94062,SAN MATEO COUNTY,4,6,0.25,0,3,9.25,0,0,FALSE
US,CA,94063,REDWOOD CITY,1,6,0.25,0.5,3,9.75,0,0,FALSE
US,CA,94064,REDWOOD CITY,1,6,0.25,0.5,3,9.75,0,0,FALSE
US,CA,94065,REDWOOD CITY,1,6,0.25,0.5,3,9.75,0,0,FALSE
US,CA,94066,SAN BRUNO,1,6,0.25,0,3,9.25,0,0,FALSE
US,CA,94070,SAN CARLOS,1,6,0.25,0,3,9.25,0,0,FALSE
US,CA,94074,SAN MATEO COUNTY,1,6,0.25,0,3,9.25,0,0,FALSE
US,CA,94080,SOUTH SAN FRANCISCO,1,6,0.25,0.5,3,9.75,0,0,FALSE
US,CA,94083,SOUTH SAN FRANCISCO,2,6,0.25,0.5,3,9.75,0,0,FALSE
US,CA,94085,SUNNYVALE,1,6,0.25,0,2.75,9,0,0,FALSE
US,CA,94086,SUNNYVALE,1,6,0.25,0,2.75,9,0,0,FALSE
US,CA,94087,SUNNYVALE,1,6,0.25,0,2.75,9,0,0,FALSE
US,CA,94088,SUNNYVALE,1,6,0.25,0,2.75,9,0,0,FALSE
US,CA,94089,SUNNYVALE,1,6,0.25,0,2.75,9,0,0,FALSE
US,CA,94102,SAN FRANCISCO TOURISM IMPROVEMENT DISTRICT,2,6,0.25,0,2.25,8.5,0,0,FALSE
US,CA,94103,SAN FRANCISCO TOURISM IMPROVEMENT DISTRICT,2,6,0.25,0,2.25,8.5,0,0,FALSE
US,CA,94104,SAN FRANCISCO TOURISM IMPROVEMENT DISTRICT,2,6,0.25,0,2.25,8.5,0,0,FALSE
US,CA,94105,SAN FRANCISCO TOURISM IMPROVEMENT DISTRICT,2,6,0.25,0,2.25,8.5,0,0,FALSE
US,CA,94107,SAN FRANCISCO TOURISM IMPROVEMENT DISTRICT,2,6,0.25,0,2.25,8.5,0,0,FALSE
US,CA,94108,SAN FRANCISCO TOURISM IMPROVEMENT DISTRICT,2,6,0.25,0,2.25,8.5,0,0,FALSE
US,CA,94109,SAN FRANCISCO TOURISM IMPROVEMENT DISTRICT,2,6,0.25,0,2.25,8.5,0,0,FALSE
US,CA,94110,SAN FRANCISCO TOURISM IMPROVEMENT DISTRICT (ZONE 2),2,6,0.25,0,2.25,8.5,0,0,FALSE
US,CA,94111,SAN FRANCISCO TOURISM IMPROVEMENT DISTRICT,2,6,0.25,0,2.25,8.5,0,0,FALSE
US,CA,94112,SAN FRANCISCO TOURISM IMPROVEMENT DISTRICT (ZONE 2),2,6,0.25,0,2.25,8.5,0,0,FALSE
US,CA,94114,SAN FRANCISCO TOURISM IMPROVEMENT DISTRICT (ZONE 2),2,6,0.25,0,2.25,8.5,0,0,FALSE
US,CA,94115,SAN FRANCISCO TOURISM IMPROVEMENT DISTRICT (ZONE 2),2,6,0.25,0,2.25,8.5,0,0,FALSE
US,CA,94116,SAN FRANCISCO TOURISM IMPROVEMENT DISTRICT (ZONE 2),2,6,0.25,0,2.25,8.5,0,0,FALSE
US,CA,94117,SAN FRANCISCO TOURISM IMPROVEMENT DISTRICT (ZONE 2),2,6,0.25,0,2.25,8.5,0,0,FALSE
US,CA,94118,SAN FRANCISCO TOURISM IMPROVEMENT DISTRICT (ZONE 2),2,6,0.25,0,2.25,8.5,0,0,FALSE
US,CA,94119,SAN FRANCISCO TOURISM IMPROVEMENT DISTRICT,1,6,0.25,0,2.25,8.5,0,0,FALSE
US,CA,94121,SAN FRANCISCO TOURISM IMPROVEMENT DISTRICT (ZONE 2),2,6,0.25,0,2.25,8.5,0,0,FALSE
US,CA,94122,SAN FRANCISCO TOURISM IMPROVEMENT DISTRICT (ZONE 2),2,6,0.25,0,2.25,8.5,0,0,FALSE
US,CA,94123,SAN FRANCISCO TOURISM IMPROVEMENT DISTRICT (ZONE 2),2,6,0.25,0,2.25,8.5,0,0,FALSE
US,CA,94124,SAN FRANCISCO TOURISM IMPROVEMENT DISTRICT (ZONE 2),2,6,0.25,0,2.25,8.5,0,0,FALSE
US,CA,94125,SAN FRANCISCO TOURISM IMPROVEMENT DISTRICT,1,6,0.25,0,2.25,8.5,0,0,FALSE
US,CA,94126,SAN FRANCISCO TOURISM IMPROVEMENT DISTRICT,1,6,0.25,0,2.25,8.5,0,0,FALSE
US,CA,94127,SAN FRANCISCO TOURISM IMPROVEMENT DISTRICT (ZONE 2),2,6,0.25,0,2.25,8.5,0,0,FALSE
US,CA,94128,SAN MATEO CO LOCAL TAX SL,2,6,0.25,0,3,9.25,0,0,FALSE
US,CA,94129,SAN FRANCISCO TOURISM IMPROVEMENT DISTRICT (ZONE 2),3,6,0.25,0,2.25,8.5,0,0,FALSE
US,CA,94130,MOSCONE EXPANSION DISTRICT ZONE 1,2,6,0.25,0,2.25,8.5,0,0,FALSE
US,CA,94131,SAN FRANCISCO TOURISM IMPROVEMENT DISTRICT (ZONE 2),2,6,0.25,0,2.25,8.5,0,0,FALSE
US,CA,94132,SAN FRANCISCO TOURISM IMPROVEMENT DISTRICT (ZONE 2),2,6,0.25,0,2.25,8.5,0,0,FALSE
US,CA,94133,SAN FRANCISCO TOURISM IMPROVEMENT DISTRICT,2,6,0.25,0,2.25,8.5,0,0,FALSE
US,CA,94134,SAN FRANCISCO TOURISM IMPROVEMENT DISTRICT (ZONE 2),2,6,0.25,0,2.25,8.5,0,0,FALSE
US,CA,94140,SAN FRANCISCO TOURISM IMPROVEMENT DISTRICT,2,6,0.25,0,2.25,8.5,0,0,FALSE
US,CA,94141,SAN FRANCISCO TOURISM IMPROVEMENT DISTRICT,1,6,0.25,0,2.25,8.5,0,0,FALSE
US,CA,94143,SAN FRANCISCO TOURISM IMPROVEMENT DISTRICT (ZONE 2),2,6,0.25,0,2.25,8.5,0,0,FALSE
US,CA,94146,SAN FRANCISCO TOURISM IMPROVEMENT DISTRICT (ZONE 2),2,6,0.25,0,2.25,8.5,0,0,FALSE
US,CA,94147,SAN FRANCISCO TOURISM IMPROVEMENT DISTRICT (ZONE 2),1,6,0.25,0,2.25,8.5,0,0,FALSE
US,CA,94153,SAN FRANCISCO TOURISM IMPROVEMENT DISTRICT (ZONE 2),1,6,0.25,0,2.25,8.5,0,0,FALSE
US,CA,94154,SAN FRANCISCO TOURISM IMPROVEMENT DISTRICT (ZONE 2),1,6,0.25,0,2.25,8.5,0,0,FALSE
US,CA,94158,SAN FRANCISCO TOURISM IMPROVEMENT DISTRICT,2,6,0.25,0,2.25,8.5,0,0,FALSE
US,CA,94159,SAN FRANCISCO TOURISM IMPROVEMENT DISTRICT (ZONE 2),1,6,0.25,0,2.25,8.5,0,0,FALSE
US,CA,94164,SAN FRANCISCO TOURISM IMPROVEMENT DISTRICT,2,6,0.25,0,2.25,8.5,0,0,FALSE
US,CA,94171,SAN FRANCISCO TOURISM IMPROVEMENT DISTRICT (ZONE 2),1,6,0.25,0,2.25,8.5,0,0,FALSE
US,CA,94188,SAN FRANCISCO TOURISM IMPROVEMENT DISTRICT (ZONE 2),1,6,0.25,0,2.25,8.5,0,0,FALSE
US,CA,94207,SACRAMENTO TMD ZONE 1,1,6,0.25,1,1.5,8.75,0,0,FALSE
US,CA,94208,SACRAMENTO TMD ZONE 1,1,6,0.25,1,1.5,8.75,0,0,FALSE
US,CA,94211,SACRAMENTO TMD ZONE 1,1,6,0.25,1,1.5,8.75,0,0,FALSE
US,CA,94234,SACRAMENTO TMD ZONE 1,1,6,0.25,1,1.5,8.75,0,0,FALSE
US,CA,94245,SACRAMENTO TMD ZONE 1,1,6,0.25,1,1.5,8.75,0,0,FALSE
US,CA,94282,SACRAMENTO TMD ZONE 4,1,6,0.25,0,1.5,7.75,0,0,FALSE
US,CA,94291,SACRAMENTO,1,6,0.25,1,1.5,8.75,0,0,FALSE
US,CA,94299,SACRAMENTO TMD ZONE 1,1,6,0.25,1,1.5,8.75,0,0,FALSE
US,CA,94301,PALO ALTO,1,6,0.25,0,2.75,9,0,0,FALSE
US,CA,94302,PALO ALTO,1,6,0.25,0,2.75,9,0,0,FALSE
US,CA,94303,PALO ALTO,2,6,0.25,0,2.75,9,0,0,FALSE
US,CA,94304,PALO ALTO,1,6,0.25,0,2.75,9,0,0,FALSE
US,CA,94305,SANTA CLARA COUNTY,2,6,0.25,0,2.75,9,0,0,FALSE
US,CA,94306,PALO ALTO,1,6,0.25,0,2.75,9,0,0,FALSE
US,CA,94401,SAN MATEO,1,6,0.25,0.25,3,9.5,0,0,FALSE
US,CA,94402,SAN MATEO,1,6,0.25,0.25,3,9.5,0,0,FALSE
US,CA,94403,SAN MATEO,1,6,0.25,0.25,3,9.5,0,0,FALSE
US,CA,94404,FOSTER CITY,2,6,0.25,0,3,9.25,0,0,FALSE
US,CA,94497,SAN MATEO,1,6,0.25,0.25,3,9.5,0,0,FALSE
US,CA,94501,ALAMEDA,1,6,0.25,0.5,3,9.75,0,0,FALSE
US,CA,94502,ALAMEDA,1,6,0.25,0.5,3,9.75,0,0,FALSE
US,CA,94503,AMERICAN CANYON,3,6,0.25,0,1.5,7.75,0,0,FALSE
US,CA,94505,CONTRA COSTA COUNTY,2,6,0.25,0,2,8.25,0,0,FALSE
US,CA,94506,TRI VALLEY TOURISM MARKETING DISTRICT,2,6,0.25,0,2,8.25,0,0,FALSE
US,CA,94507,TRI VALLEY TOURISM MARKETING DISTRICT,1,6,0.25,0,2,8.25,0,0,FALSE
US,CA,94508,NAPA CO LOCAL TAX SL,1,6,0.25,0,1.5,7.75,0,0,FALSE
US,CA,94509,ANTIOCH,1,6,0.25,1,2,9.25,0,0,FALSE
US,CA,94510,BENICIA,1,6,0.25,1,1.125,8.375,0,0,FALSE
US,CA,94511,CONTRA COSTA COUNTY,1,6,0.25,0,2,8.25,0,0,FALSE
US,CA,94512,SOLANO COUNTY,1,6,0.25,0,1.125,7.375,0,0,FALSE
US,CA,94513,BRENTWOOD,1,6,0.25,0,2,8.25,0,0,FALSE
US,CA,94514,CONTRA COSTA COUNTY,2,6,0.25,0,2,8.25,0,0,FALSE
US,CA,94515,CALISTOGA,1,6,0.25,0,1.5,7.75,0,0,FALSE
US,CA,94516,CONTRA COSTA COUNTY,1,6,0.25,0,2,8.25,0,0,FALSE
US,CA,94517,CLAYTON,1,6,0.25,0,2,8.25,0,0,FALSE
US,CA,94518,CONCORD,1,6,0.25,0.5,2,8.75,0,0,FALSE
US,CA,94519,CONCORD,1,6,0.25,0.5,2,8.75,0,0,FALSE
US,CA,94520,CONCORD,2,6,0.25,0.5,2,8.75,0,0,FALSE
US,CA,94521,CONCORD,1,6,0.25,0.5,2,8.75,0,0,FALSE
US,CA,94522,CONCORD,1,6,0.25,0.5,2,8.75,0,0,FALSE
US,CA,94523,PLEASANT HILL,2,6,0.25,0.5,2,8.75,0,0,FALSE
US,CA,94524,CONCORD,1,6,0.25,0.5,2,8.75,0,0,FALSE
US,CA,94525,CONTRA COSTA COUNTY,1,6,0.25,0,2,8.25,0,0,FALSE
US,CA,94526,DANVILLE,1,6,0.25,0,2,8.25,0,0,FALSE
US,CA,94528,CONTRA COSTA COUNTY,1,6,0.25,0,2,8.25,0,0,FALSE
US,CA,94530,EL CERRITO,1,6,0.25,1.5,2,9.75,0,0,FALSE
US,CA,94531,ANTIOCH,1,6,0.25,1,2,9.25,0,0,FALSE
US,CA,94533,FAIRFIELD,1,6,0.25,1,1.125,8.375,0,0,FALSE
US,CA,94534,FAIRFIELD,2,6,0.25,1,1.125,8.375,0,0,FALSE
US,CA,94535,FAIRFIELD,1,6,0.25,1,1.125,8.375,0,0,FALSE
US,CA,94536,FREMONT,1,6,0.25,0,3,9.25,0,0,FALSE
US,CA,94537,FREMONT,1,6,0.25,0,3,9.25,0,0,FALSE
US,CA,94538,FREMONT,1,6,0.25,0,3,9.25,0,0,FALSE
US,CA,94539,FREMONT,1,6,0.25,0,3,9.25,0,0,FALSE
US,CA,94540,HAYWARD,1,6,0.25,0.5,3,9.75,0,0,FALSE
US,CA,94541,HAYWARD,1,6,0.25,0.5,3,9.75,0,0,FALSE
US,CA,94542,HAYWARD,1,6,0.25,0.5,3,9.75,0,0,FALSE
US,CA,94543,HAYWARD,1,6,0.25,0.5,3,9.75,0,0,FALSE
US,CA,94544,HAYWARD,1,6,0.25,0.5,3,9.75,0,0,FALSE
US,CA,94545,HAYWARD,1,6,0.25,0.5,3,9.75,0,0,FALSE
US,CA,94546,ALAMEDA COUNTY,2,6,0.25,0,3,9.25,0,0,FALSE
US,CA,94547,HERCULES,2,6,0.25,0.5,2,8.75,0,0,FALSE
US,CA,94548,CONTRA COSTA COUNTY,1,6,0.25,0,2,8.25,0,0,FALSE
US,CA,94549,LAFAYETTE,1,6,0.25,0,2,8.25,0,0,FALSE
US,CA,94550,LIVERMORE,1,6,0.25,0,3,9.25,0,0,FALSE
US,CA,94551,LIVERMORE,1,6,0.25,0,3,9.25,0,0,FALSE
US,CA,94552,ALAMEDA COUNTY,2,6,0.25,0,3,9.25,0,0,FALSE
US,CA,94553,MARTINEZ,3,6,0.25,1,2,9.25,0,0,FALSE
US,CA,94555,FREMONT,1,6,0.25,0,3,9.25,0,0,FALSE
US,CA,94556,MORAGA,1,6,0.25,1,2,9.25,0,0,FALSE
US,CA,94557,HAYWARD,2,6,0.25,0.5,3,9.75,0,0,FALSE
US,CA,94558,NAPA,2,6,0.25,0,1.5,7.75,0,0,FALSE
US,CA,94559,NAPA,1,6,0.25,0,1.5,7.75,0,0,FALSE
US,CA,94560,NEWARK,1,6,0.25,0.5,3,9.75,0,0,FALSE
US,CA,94561,OAKLEY,1,6,0.25,0,2,8.25,0,0,FALSE
US,CA,94562,NAPA CO LOCAL TAX SL,1,6,0.25,0,1.5,7.75,0,0,FALSE
US,CA,94563,ORINDA,1,6,0.25,0.5,2,8.75,0,0,FALSE
US,CA,94564,PINOLE,1,6,0.25,1,2,9.25,0,0,FALSE
US,CA,94565,PITTSBURG,4,6,0.25,0.5,2,8.75,0,0,FALSE
US,CA,94566,PLEASANTON,1,6,0.25,0,3,9.25,0,0,FALSE
US,CA,94567,NAPA CO LOCAL TAX SL,1,6,0.25,0,1.5,7.75,0,0,FALSE
US,CA,94568,DUBLIN,2,6,0.25,0,3,9.25,0,0,FALSE
US,CA,94569,CONTRA COSTA COUNTY,1,6,0.25,0,2,8.25,0,0,FALSE
US,CA,94570,MORAGA,1,6,0.25,1,2,9.25,0,0,FALSE
US,CA,94571,RIO VISTA,1,6,0.25,0.75,1.125,8.125,0,0,FALSE
US,CA,94572,CONTRA COSTA COUNTY,1,6,0.25,0,2,8.25,0,0,FALSE
US,CA,94573,NAPA CO LOCAL TAX SL,1,6,0.25,0,1.5,7.75,0,0,FALSE
US,CA,94574,SAINT HELENA,1,6,0.25,0.5,1.5,8.25,0,0,FALSE
US,CA,94575,MORAGA,1,6,0.25,1,2,9.25,0,0,FALSE
US,CA,94576,NAPA CO LOCAL TAX SL,2,6,0.25,0,1.5,7.75,0,0,FALSE
US,CA,94577,SAN LEANDRO,1,6,0.25,0.5,3,9.75,0,0,FALSE
US,CA,94578,SAN LEANDRO,1,6,0.25,0.5,3,9.75,0,0,FALSE
US,CA,94579,SAN LEANDRO,1,6,0.25,0.5,3,9.75,0,0,FALSE
US,CA,94580,ALAMEDA COUNTY,1,6,0.25,0,3,9.25,0,0,FALSE
US,CA,94581,NAPA,1,6,0.25,0,1.5,7.75,0,0,FALSE
US,CA,94582,SAN RAMON,1,6,0.25,0,2,8.25,0,0,FALSE
US,CA,94583,SAN RAMON,1,6,0.25,0,2,8.25,0,0,FALSE
US,CA,94585,SUISUN CITY,1,6,0.25,1,1.125,8.375,0,0,FALSE
US,CA,94586,TRI VALLEY TOURISM MARKETING DISTRICT,1,6,0.25,0,3,9.25,0,0,FALSE
US,CA,94587,UNION CITY,1,6,0.25,0.5,3,9.75,0,0,FALSE
US,CA,94588,PLEASANTON,1,6,0.25,0,3,9.25,0,0,FALSE
US,CA,94589,VALLEJO HOTEL BUSINESS IMPROVEMENT DISTRICT,3,6,0.25,1,1.125,8.375,0,0,FALSE
US,CA,94590,VALLEJO HOTEL BUSINESS IMPROVEMENT DISTRICT,2,6,0.25,1,1.125,8.375,0,0,FALSE
US,CA,94591,VALLEJO HOTEL BUSINESS IMPROVEMENT DISTRICT,2,6,0.25,1,1.125,8.375,0,0,FALSE
US,CA,94592,VALLEJO HOTEL BUSINESS IMPROVEMENT DISTRICT,3,6,0.25,1,1.125,8.375,0,0,FALSE
US,CA,94595,WALNUT CREEK,1,6,0.25,0,2,8.25,0,0,FALSE
US,CA,94596,WALNUT CREEK,1,6,0.25,0,2,8.25,0,0,FALSE
US,CA,94597,WALNUT CREEK,1,6,0.25,0,2,8.25,0,0,FALSE
US,CA,94598,WALNUT CREEK,1,6,0.25,0,2,8.25,0,0,FALSE
US,CA,94599,YOUNTVILLE,1,6,0.25,0,1.5,7.75,0,0,FALSE
US,CA,94601,OAKLAND,1,6,0.25,0,3,9.25,0,0,FALSE
US,CA,94602,OAKLAND,2,6,0.25,0,3,9.25,0,0,FALSE
US,CA,94603,OAKLAND,1,6,0.25,0,3,9.25,0,0,FALSE
US,CA,94604,OAKLAND,1,6,0.25,0,3,9.25,0,0,FALSE
US,CA,94605,OAKLAND,1,6,0.25,0,3,9.25,0,0,FALSE
US,CA,94606,OAKLAND,1,6,0.25,0,3,9.25,0,0,FALSE
US,CA,94607,OAKLAND,1,6,0.25,0,3,9.25,0,0,FALSE
US,CA,94608,EMERYVILLE,2,6,0.25,0,3,9.25,0,0,FALSE
US,CA,94609,OAKLAND,1,6,0.25,0,3,9.25,0,0,FALSE
US,CA,94610,OAKLAND,2,6,0.25,0,3,9.25,0,0,FALSE
US,CA,94611,OAKLAND,2,6,0.25,0,3,9.25,0,0,FALSE
US,CA,94612,OAKLAND,1,6,0.25,0,3,9.25,0,0,FALSE
US,CA,94613,OAKLAND,1,6,0.25,0,3,9.25,0,0,FALSE
US,CA,94614,OAKLAND,1,6,0.25,0,3,9.25,0,0,FALSE
US,CA,94615,OAKLAND,1,6,0.25,0,3,9.25,0,0,FALSE
US,CA,94618,OAKLAND,2,6,0.25,0,3,9.25,0,0,FALSE
US,CA,94619,OAKLAND,1,6,0.25,0,3,9.25,0,0,FALSE
US,CA,94620,OAKLAND,2,6,0.25,0,3,9.25,0,0,FALSE
US,CA,94621,OAKLAND,1,6,0.25,0,3,9.25,0,0,FALSE
US,CA,94622,OAKLAND,1,6,0.25,0,3,9.25,0,0,FALSE
US,CA,94623,OAKLAND,1,6,0.25,0,3,9.25,0,0,FALSE
US,CA,94624,OAKLAND,1,6,0.25,0,3,9.25,0,0,FALSE
US,CA,94661,OAKLAND,1,6,0.25,0,3,9.25,0,0,FALSE
US,CA,94662,EMERYVILLE,2,6,0.25,0,3,9.25,0,0,FALSE
US,CA,94666,OAKLAND,1,6,0.25,0,3,9.25,0,0,FALSE
US,CA,94701,BERKELEY TOURISM BUSINESS IMPROVEMENT DISTRICT,1,6,0.25,0,3,9.25,0,0,FALSE
US,CA,94702,BERKELEY TOURISM BUSINESS IMPROVEMENT DISTRICT,1,6,0.25,0,3,9.25,0,0,FALSE
US,CA,94703,BERKELEY TOURISM BUSINESS IMPROVEMENT DISTRICT,1,6,0.25,0,3,9.25,0,0,FALSE
US,CA,94704,BERKELEY TOURISM BUSINESS IMPROVEMENT DISTRICT,1,6,0.25,0,3,9.25,0,0,FALSE
US,CA,94705,BERKELEY TOURISM BUSINESS IMPROVEMENT DISTRICT,1,6,0.25,0,3,9.25,0,0,FALSE
US,CA,94706,ALBANY,3,6,0.25,0.5,3,9.75,0,0,FALSE
US,CA,94707,BERKELEY TOURISM BUSINESS IMPROVEMENT DISTRICT,3,6,0.25,0,3,9.25,0,0,FALSE
US,CA,94708,BERKELEY TOURISM BUSINESS IMPROVEMENT DISTRICT,2,6,0.25,0,3,9.25,0,0,FALSE
US,CA,94709,BERKELEY TOURISM BUSINESS IMPROVEMENT DISTRICT,1,6,0.25,0,3,9.25,0,0,FALSE
US,CA,94710,BERKELEY TOURISM BUSINESS IMPROVEMENT DISTRICT,2,6,0.25,0,3,9.25,0,0,FALSE
US,CA,94712,BERKELEY TOURISM BUSINESS IMPROVEMENT DISTRICT,1,6,0.25,0,3,9.25,0,0,FALSE
US,CA,94720,BERKELEY TOURISM BUSINESS IMPROVEMENT DISTRICT,1,6,0.25,0,3,9.25,0,0,FALSE
US,CA,94801,RICHMOND,3,6,0.25,1,2,9.25,0,0,FALSE
US,CA,94802,RICHMOND,1,6,0.25,1,2,9.25,0,0,FALSE
US,CA,94803,CONTRA COSTA COUNTY,3,6,0.25,0,2,8.25,0,0,FALSE
US,CA,94804,RICHMOND,1,6,0.25,1,2,9.25,0,0,FALSE
US,CA,94805,RICHMOND,2,6,0.25,1,2,9.25,0,0,FALSE
US,CA,94806,SAN PABLO,3,6,0.25,0.5,2,8.75,0,0,FALSE
US,CA,94807,RICHMOND,1,6,0.25,1,2,9.25,0,0,FALSE
US,CA,94820,CONTRA COSTA COUNTY,2,6,0.25,0,2,8.25,0,0,FALSE
US,CA,94850,RICHMOND,1,6,0.25,1,2,9.25,0,0,FALSE
US,CA,94901,SAN RAFAEL,2,6,0.25,0.75,2,9,0,0,FALSE
US,CA,94903,SAN RAFAEL,4,6,0.25,0.75,2,9,0,0,FALSE
US,CA,94904,LARKSPUR,3,6,0.25,0.75,2,9,0,0,FALSE
US,CA,94912,SAN RAFAEL,1,6,0.25,0.75,2,9,0,0,FALSE
US,CA,94913,MARIN COUNTY TOURISM BUSINESS IMPROVEMENT DISTRICT,1,6,0.25,0,2,8.25,0,0,FALSE
US,CA,94914,MARIN COUNTY TOURISM BUSINESS IMPROVEMENT DISTRICT,2,6,0.25,0,2,8.25,0,0,FALSE
US,CA,94915,SAN RAFAEL,2,6,0.25,0.75,2,9,0,0,FALSE
US,CA,94920,TIBURON,4,6,0.25,0,2,8.25,0,0,FALSE
US,CA,94922,SONOMA COUNTY TOURISM BUSINESS IMPROVEMENT AREA,1,6,0.25,0,2,8.25,0,0,FALSE
US,CA,94923,SONOMA COUNTY TOURISM BUSINESS IMPROVEMENT AREA,2,6,0.25,0,2,8.25,0,0,FALSE
US,CA,94924,MARIN COUNTY TOURISM BUSINESS IMPROVEMENT DISTRICT,1,6,0.25,0,2,8.25,0,0,FALSE
US,CA,94925,CORTE MADERA,1,6,0.25,0.75,2,9,0,0,FALSE
US,CA,94926,COTATI,2,6,0.25,1,2,9.25,0,0,FALSE
US,CA,94927,ROHNERT PARK,2,6,0.25,0.5,2,8.75,0,0,FALSE
US,CA,94928,ROHNERT PARK,2,6,0.25,0.5,2,8.75,0,0,FALSE
US,CA,94929,MARIN COUNTY TOURISM BUSINESS IMPROVEMENT DISTRICT,1,6,0.25,0,2,8.25,0,0,FALSE
US,CA,94930,FAIRFAX,1,6,0.25,0.75,2,9,0,0,FALSE
US,CA,94931,COTATI,1,6,0.25,1,2,9.25,0,0,FALSE
US,CA,94933,MARIN COUNTY TOURISM BUSINESS IMPROVEMENT DISTRICT,1,6,0.25,0,2,8.25,0,0,FALSE
US,CA,94937,MARIN COUNTY TOURISM BUSINESS IMPROVEMENT DISTRICT,1,6,0.25,0,2,8.25,0,0,FALSE
US,CA,94938,MARIN COUNTY TOURISM BUSINESS IMPROVEMENT DISTRICT,1,6,0.25,0,2,8.25,0,0,FALSE
US,CA,94939,LARKSPUR,1,6,0.25,0.75,2,9,0,0,FALSE
US,CA,94940,MARIN COUNTY TOURISM BUSINESS IMPROVEMENT DISTRICT,1,6,0.25,0,2,8.25,0,0,FALSE
US,CA,94941,MILL VALLEY,4,6,0.25,0,2,8.25,0,0,FALSE
US,CA,94942,MILL VALLEY,1,6,0.25,0,2,8.25,0,0,FALSE
US,CA,94945,NOVATO,3,6,0.25,0.25,2,8.5,0,0,FALSE
US,CA,94946,MARIN COUNTY TOURISM BUSINESS IMPROVEMENT DISTRICT,1,6,0.25,0,2,8.25,0,0,FALSE
US,CA,94947,NOVATO,1,6,0.25,0.25,2,8.5,0,0,FALSE
US,CA,94948,NOVATO,1,6,0.25,0.25,2,8.5,0,0,FALSE
US,CA,94949,NOVATO,3,6,0.25,0.25,2,8.5,0,0,FALSE
US,CA,94950,MARIN COUNTY TOURISM BUSINESS IMPROVEMENT DISTRICT,1,6,0.25,0,2,8.25,0,0,FALSE
US,CA,94951,SONOMA COUNTY TOURISM BUSINESS IMPROVEMENT AREA,1,6,0.25,0,2,8.25,0,0,FALSE
US,CA,94952,PETALUMA,4,6,0.25,0,2,8.25,0,0,FALSE
US,CA,94953,PETALUMA,1,6,0.25,0,2,8.25,0,0,FALSE
US,CA,94954,PETALUMA,1,6,0.25,0,2,8.25,0,0,FALSE
US,CA,94955,PETALUMA,1,6,0.25,0,2,8.25,0,0,FALSE
US,CA,94956,MARIN COUNTY TOURISM BUSINESS IMPROVEMENT DISTRICT,1,6,0.25,0,2,8.25,0,0,FALSE
US,CA,94957,MARIN COUNTY TOURISM BUSINESS IMPROVEMENT DISTRICT,1,6,0.25,0,2,8.25,0,0,FALSE
US,CA,94960,SAN ANSELMO,1,6,0.25,0.5,2,8.75,0,0,FALSE
US,CA,94963,MARIN COUNTY TOURISM BUSINESS IMPROVEMENT DISTRICT,1,6,0.25,0,2,8.25,0,0,FALSE
US,CA,94964,CALIFORNIA STATE,1,6,0,0,0,6,0,0,FALSE
US,CA,94965,SAUSALITO,3,6,0.25,0.5,2,8.75,0,0,FALSE
US,CA,94966,SAUSALITO,1,6,0.25,0.5,2,8.75,0,0,FALSE
US,CA,94970,MARIN COUNTY TOURISM BUSINESS IMPROVEMENT DISTRICT,1,6,0.25,0,2,8.25,0,0,FALSE
US,CA,94971,MARIN COUNTY TOURISM BUSINESS IMPROVEMENT DISTRICT,1,6,0.25,0,2,8.25,0,0,FALSE
US,CA,94972,SONOMA COUNTY TOURISM BUSINESS IMPROVEMENT AREA,1,6,0.25,0,2,8.25,0,0,FALSE
US,CA,94973,MARIN COUNTY TOURISM BUSINESS IMPROVEMENT DISTRICT,1,6,0.25,0,2,8.25,0,0,FALSE
US,CA,94974,CALIFORNIA STATE,1,6,0,0,0,6,0,0,FALSE
US,CA,94975,PETALUMA,1,6,0.25,0,2,8.25,0,0,FALSE
US,CA,94976,CORTE MADERA,1,6,0.25,0.75,2,9,0,0,FALSE
US,CA,94977,LARKSPUR,1,6,0.25,0.75,2,9,0,0,FALSE
US,CA,94978,FAIRFAX,1,6,0.25,0.75,2,9,0,0,FALSE
US,CA,94979,SAN ANSELMO,1,6,0.25,0.5,2,8.75,0,0,FALSE
US,CA,94998,NOVATO,1,6,0.25,0.25,2,8.5,0,0,FALSE
US,CA,94999,PETALUMA,1,6,0.25,0,2,8.25,0,0,FALSE
US,CA,95001,SANTA CRUZ COUNTY TOURISM MARKETING DISTRICT,1,6,0.25,0,2.75,9,0,0,FALSE
US,CA,95002,SAN JOSE CONVENTION CENTER FACILITY DISTRICT ZONE 2,2,6,0.25,0.25,2.75,9.25,0,0,FALSE
US,CA,95003,SANTA CRUZ COUNTY TOURISM MARKETING DISTRICT,4,6,0.25,0,2.75,9,0,0,FALSE
US,CA,95004,MONTEREY COUNTY TOURISM IMPROVEMENT DISTRICT,1,6,0.25,0,1.5,7.75,0,0,FALSE
US,CA,95005,SANTA CRUZ COUNTY TOURISM MARKETING DISTRICT,1,6,0.25,0,2.75,9,0,0,FALSE
US,CA,95006,SANTA CRUZ COUNTY TOURISM MARKETING DISTRICT,2,6,0.25,0,2.75,9,0,0,FALSE
US,CA,95007,SANTA CRUZ,1,6,0.25,0.75,2.25,9.25,0,0,FALSE
US,CA,95008,CAMPBELL,1,6,0.25,0.25,2.75,9.25,0,0,FALSE
US,CA,95009,CAMPBELL,1,6,0.25,0.25,2.75,9.25,0,0,FALSE
US,CA,95010,CAPITOLA,1,6,0.25,0.5,2.25,9,0,0,FALSE
US,CA,95011,CAMPBELL,1,6,0.25,0.25,2.75,9.25,0,0,FALSE
US,CA,95012,MONTEREY COUNTY TOURISM IMPROVEMENT DISTRICT,1,6,0.25,0,1.5,7.75,0,0,FALSE
US,CA,95013,SAN JOSE CONVENTION CENTER FACILITY DISTRICT ZONE 2,1,6,0.25,0.25,2.75,9.25,0,0,FALSE
US,CA,95014,CUPERTINO,3,6,0.25,0,2.75,9,0,0,FALSE
US,CA,95015,CUPERTINO,1,6,0.25,0,2.75,9,0,0,FALSE
US,CA,95017,SANTA CRUZ COUNTY TOURISM MARKETING DISTRICT,1,6,0.25,0,2.75,9,0,0,FALSE
US,CA,95018,SANTA CRUZ COUNTY TOURISM MARKETING DISTRICT,2,6,0.25,0,2.75,9,0,0,FALSE
US,CA,95019,WATSONVILLE,1,6,0.25,0.75,2.25,9.25,0,0,FALSE
US,CA,95020,GILROY TOURISM BUSINESS IMPROVEMENT DISTRICT,1,6,0.25,0,2.75,9,0,0,FALSE
US,CA,95021,GILROY TOURISM BUSINESS IMPROVEMENT DISTRICT,1,6,0.25,0,2.75,9,0,0,FALSE
US,CA,95023,HOLLISTER,1,6,0.25,1,2,9.25,0,0,FALSE
US,CA,95024,HOLLISTER,1,6,0.25,1,2,9.25,0,0,FALSE
US,CA,95026,SANTA CRUZ,2,6,0.25,0.75,2.25,9.25,0,0,FALSE
US,CA,95030,LOS GATOS,3,6,0.25,0.125,2.75,9.125,0,0,FALSE
US,CA,95031,LOS GATOS,2,6,0.25,0.125,2.75,9.125,0,0,FALSE
US,CA,95032,LOS GATOS,2,6,0.25,0.125,2.75,9.125,0,0,FALSE
US,CA,95033,SANTA CRUZ COUNTY TOURISM MARKETING DISTRICT,2,6,0.25,0,2.75,9,0,0,FALSE
US,CA,95035,MILPITAS,1,6,0.25,0,2.75,9,0,0,FALSE
US,CA,95036,MILPITAS,1,6,0.25,0,2.75,9,0,0,FALSE
US,CA,95037,MORGAN HILL TBID,1,6,0.25,0,2.75,9,0,0,FALSE
US,CA,95038,MORGAN HILL TBID,1,6,0.25,0,2.75,9,0,0,FALSE
US,CA,95039,MONTEREY COUNTY TOURISM IMPROVEMENT DISTRICT,1,6,0.25,0,1.5,7.75,0,0,FALSE
US,CA,95041,SANTA CRUZ,1,6,0.25,0.75,2.25,9.25,0,0,FALSE
US,CA,95043,SAN BENITO COUNTY DISTRICT TAX SP,5,6,0.25,0,2,8.25,0,0,FALSE
US,CA,95044,SANTA CLARA COUNTY,2,6,0.25,0,2.75,9,0,0,FALSE
US,CA,95045,SAN BENITO COUNTY DISTRICT TAX SP,1,6,0.25,0,2,8.25,0,0,FALSE
US,CA,95046,SANTA CLARA COUNTY,1,6,0.25,0,2.75,9,0,0,FALSE
US,CA,95050,SANTA CLARA,1,6,0.25,0,2.75,9,0,0,FALSE
US,CA,95051,SANTA CLARA,1,6,0.25,0,2.75,9,0,0,FALSE
US,CA,95052,SANTA CLARA,1,6,0.25,0,2.75,9,0,0,FALSE
US,CA,95053,SANTA CLARA,1,6,0.25,0,2.75,9,0,0,FALSE
US,CA,95054,SANTA CLARA COMMUNITY FACILITIES DISTRICT STJ,1,6,0.25,0,2.75,9,0,0,FALSE
US,CA,95055,SANTA CLARA,1,6,0.25,0,2.75,9,0,0,FALSE
US,CA,95056,SANTA CLARA COMMUNITY FACILITIES DISTRICT STJ,1,6,0.25,0,2.75,9,0,0,FALSE
US,CA,95060,SANTA CRUZ,4,6,0.25,0.75,2.25,9.25,0,0,FALSE
US,CA,95061,SANTA CRUZ,1,6,0.25,0.75,2.25,9.25,0,0,FALSE
US,CA,95062,SANTA CRUZ COUNTY TOURISM MARKETING DISTRICT,1,6,0.25,0,2.75,9,0,0,FALSE
US,CA,95063,SANTA CRUZ,1,6,0.25,0.75,2.25,9.25,0,0,FALSE
US,CA,95064,SANTA CRUZ,1,6,0.25,0.75,2.25,9.25,0,0,FALSE
US,CA,95065,SANTA CRUZ COUNTY TOURISM MARKETING DISTRICT,1,6,0.25,0,2.75,9,0,0,FALSE
US,CA,95066,SCOTTS VALLEY,2,6,0.25,0.5,2.25,9,0,0,FALSE
US,CA,95067,SCOTTS VALLEY,2,6,0.25,0.5,2.25,9,0,0,FALSE
US,CA,95070,SARATOGA,1,6,0.25,0,2.75,9,0,0,FALSE
US,CA,95071,SARATOGA,1,6,0.25,0,2.75,9,0,0,FALSE
US,CA,95073,SANTA CRUZ COUNTY TOURISM MARKETING DISTRICT,1,6,0.25,0,2.75,9,0,0,FALSE
US,CA,95075,SAN BENITO COUNTY DISTRICT TAX SP,1,6,0.25,0,2,8.25,0,0,FALSE
US,CA,95076,WATSONVILLE,5,6,0.25,0.75,2.25,9.25,0,0,FALSE
US,CA,95077,WATSONVILLE,1,6,0.25,0.75,2.25,9.25,0,0,FALSE
US,CA,95101,SAN JOSE CONVENTION CENTER FACILITY DISTRICT ZONE 2,1,6,0.25,0.25,2.75,9.25,0,0,FALSE
US,CA,95103,SAN JOSE HOTEL BUSINESS IMPROVEMENT DISTRICT  (ZONE A),1,6,0.25,0.25,2.75,9.25,0,0,FALSE
US,CA,95106,SAN JOSE HOTEL BUSINESS IMPROVEMENT DISTRICT  (ZONE A),1,6,0.25,0.25,2.75,9.25,0,0,FALSE
US,CA,95108,SAN JOSE HOTEL BUSINESS IMPROVEMENT DISTRICT  (ZONE A),1,6,0.25,0.25,2.75,9.25,0,0,FALSE
US,CA,95109,SAN JOSE HOTEL BUSINESS IMPROVEMENT DISTRICT  (ZONE A),1,6,0.25,0.25,2.75,9.25,0,0,FALSE
US,CA,95110,SAN JOSE HOTEL BUSINESS IMPROVEMENT DISTRICT  (ZONE A),1,6,0.25,0.25,2.75,9.25,0,0,FALSE
US,CA,95111,SAN JOSE CONVENTION CENTER FACILITY DISTRICT ZONE 2,1,6,0.25,0.25,2.75,9.25,0,0,FALSE
US,CA,95112,SAN JOSE CONVENTION CENTER FACILITY DISTRICT ZONE 1,1,6,0.25,0.25,2.75,9.25,0,0,FALSE
US,CA,95113,SAN JOSE HOTEL BUSINESS IMPROVEMENT DISTRICT  (ZONE A),1,6,0.25,0.25,2.75,9.25,0,0,FALSE
US,CA,95116,SAN JOSE CONVENTION CENTER FACILITY DISTRICT ZONE 2,1,6,0.25,0.25,2.75,9.25,0,0,FALSE
US,CA,95117,SAN JOSE CONVENTION CENTER FACILITY DISTRICT ZONE 2,1,6,0.25,0.25,2.75,9.25,0,0,FALSE
US,CA,95118,SAN JOSE CONVENTION CENTER FACILITY DISTRICT ZONE 2,1,6,0.25,0.25,2.75,9.25,0,0,FALSE
US,CA,95119,SAN JOSE CONVENTION CENTER FACILITY DISTRICT ZONE 2,1,6,0.25,0.25,2.75,9.25,0,0,FALSE
US,CA,95120,SAN JOSE CONVENTION CENTER FACILITY DISTRICT ZONE 2,1,6,0.25,0.25,2.75,9.25,0,0,FALSE
US,CA,95121,SAN JOSE CONVENTION CENTER FACILITY DISTRICT ZONE 2,1,6,0.25,0.25,2.75,9.25,0,0,FALSE
US,CA,95122,SAN JOSE CONVENTION CENTER FACILITY DISTRICT ZONE 2,1,6,0.25,0.25,2.75,9.25,0,0,FALSE
US,CA,95123,SAN JOSE CONVENTION CENTER FACILITY DISTRICT ZONE 2,1,6,0.25,0.25,2.75,9.25,0,0,FALSE
US,CA,95124,SAN JOSE CONVENTION CENTER FACILITY DISTRICT ZONE 2,1,6,0.25,0.25,2.75,9.25,0,0,FALSE
US,CA,95125,SAN JOSE CONVENTION CENTER FACILITY DISTRICT ZONE 2,1,6,0.25,0.25,2.75,9.25,0,0,FALSE
US,CA,95126,SAN JOSE CONVENTION CENTER FACILITY DISTRICT ZONE 1,1,6,0.25,0.25,2.75,9.25,0,0,FALSE
US,CA,95127,SAN JOSE CONVENTION CENTER FACILITY DISTRICT ZONE 2,1,6,0.25,0.25,2.75,9.25,0,0,FALSE
US,CA,95128,SAN JOSE CONVENTION CENTER FACILITY DISTRICT ZONE 2,1,6,0.25,0.25,2.75,9.25,0,0,FALSE
US,CA,95129,SAN JOSE CONVENTION CENTER FACILITY DISTRICT ZONE 2,1,6,0.25,0.25,2.75,9.25,0,0,FALSE
US,CA,95130,SAN JOSE CONVENTION CENTER FACILITY DISTRICT ZONE 2,1,6,0.25,0.25,2.75,9.25,0,0,FALSE
US,CA,95131,SAN JOSE CONVENTION CENTER FACILITY DISTRICT ZONE 2,1,6,0.25,0.25,2.75,9.25,0,0,FALSE
US,CA,95132,SAN JOSE CONVENTION CENTER FACILITY DISTRICT ZONE 2,1,6,0.25,0.25,2.75,9.25,0,0,FALSE
US,CA,95133,SAN JOSE CONVENTION CENTER FACILITY DISTRICT ZONE 2,1,6,0.25,0.25,2.75,9.25,0,0,FALSE
US,CA,95134,SAN JOSE CONVENTION CENTER FACILITY DISTRICT ZONE 2,1,6,0.25,0.25,2.75,9.25,0,0,FALSE
US,CA,95135,SAN JOSE CONVENTION CENTER FACILITY DISTRICT ZONE 2,1,6,0.25,0.25,2.75,9.25,0,0,FALSE
US,CA,95136,SAN JOSE CONVENTION CENTER FACILITY DISTRICT ZONE 2,1,6,0.25,0.25,2.75,9.25,0,0,FALSE
US,CA,95138,SAN JOSE CONVENTION CENTER FACILITY DISTRICT ZONE 2,1,6,0.25,0.25,2.75,9.25,0,0,FALSE
US,CA,95139,SAN JOSE CONVENTION CENTER FACILITY DISTRICT ZONE 2,1,6,0.25,0.25,2.75,9.25,0,0,FALSE
US,CA,95140,SANTA CLARA COUNTY,2,6,0.25,0,2.75,9,0,0,FALSE
US,CA,95141,SAN JOSE CONVENTION CENTER FACILITY DISTRICT ZONE 2,1,6,0.25,0.25,2.75,9.25,0,0,FALSE
US,CA,95148,SAN JOSE CONVENTION CENTER FACILITY DISTRICT ZONE 2,1,6,0.25,0.25,2.75,9.25,0,0,FALSE
US,CA,95150,SAN JOSE CONVENTION CENTER FACILITY DISTRICT ZONE 2,1,6,0.25,0.25,2.75,9.25,0,0,FALSE
US,CA,95151,SAN JOSE CONVENTION CENTER FACILITY DISTRICT ZONE 2,1,6,0.25,0.25,2.75,9.25,0,0,FALSE
US,CA,95152,SAN JOSE CONVENTION CENTER FACILITY DISTRICT ZONE 2,1,6,0.25,0.25,2.75,9.25,0,0,FALSE
US,CA,95153,SAN JOSE CONVENTION CENTER FACILITY DISTRICT ZONE 2,1,6,0.25,0.25,2.75,9.25,0,0,FALSE
US,CA,95154,SAN JOSE CONVENTION CENTER FACILITY DISTRICT ZONE 2,1,6,0.25,0.25,2.75,9.25,0,0,FALSE
US,CA,95155,SAN JOSE CONVENTION CENTER FACILITY DISTRICT ZONE 1,1,6,0.25,0.25,2.75,9.25,0,0,FALSE
US,CA,95156,SAN JOSE CONVENTION CENTER FACILITY DISTRICT ZONE 2,1,6,0.25,0.25,2.75,9.25,0,0,FALSE
US,CA,95157,SAN JOSE CONVENTION CENTER FACILITY DISTRICT ZONE 2,1,6,0.25,0.25,2.75,9.25,0,0,FALSE
US,CA,95158,SAN JOSE CONVENTION CENTER FACILITY DISTRICT ZONE 2,1,6,0.25,0.25,2.75,9.25,0,0,FALSE
US,CA,95159,SAN JOSE CONVENTION CENTER FACILITY DISTRICT ZONE 1,1,6,0.25,0.25,2.75,9.25,0,0,FALSE
US,CA,95160,SAN JOSE CONVENTION CENTER FACILITY DISTRICT ZONE 2,1,6,0.25,0.25,2.75,9.25,0,0,FALSE
US,CA,95161,SAN JOSE CONVENTION CENTER FACILITY DISTRICT ZONE 2,1,6,0.25,0.25,2.75,9.25,0,0,FALSE
US,CA,95164,SAN JOSE CONVENTION CENTER FACILITY DISTRICT ZONE 2,1,6,0.25,0.25,2.75,9.25,0,0,FALSE
US,CA,95170,SAN JOSE CONVENTION CENTER FACILITY DISTRICT ZONE 2,1,6,0.25,0.25,2.75,9.25,0,0,FALSE
US,CA,95172,SAN JOSE HOTEL BUSINESS IMPROVEMENT DISTRICT  (ZONE A),1,6,0.25,0.25,2.75,9.25,0,0,FALSE
US,CA,95173,SAN JOSE CONVENTION CENTER FACILITY DISTRICT ZONE 2,1,6,0.25,0.25,2.75,9.25,0,0,FALSE
US,CA,95191,SAN JOSE CONVENTION CENTER FACILITY DISTRICT ZONE 1,1,6,0.25,0.25,2.75,9.25,0,0,FALSE
US,CA,95192,SAN JOSE HOTEL BUSINESS IMPROVEMENT DISTRICT  (ZONE A),1,6,0.25,0.25,2.75,9.25,0,0,FALSE
US,CA,95193,SAN JOSE HOTEL BUSINESS IMPROVEMENT DISTRICT  (ZONE A),1,6,0.25,0.25,2.75,9.25,0,0,FALSE
US,CA,95196,SAN JOSE HOTEL BUSINESS IMPROVEMENT DISTRICT  (ZONE A),1,6,0.25,0.25,2.75,9.25,0,0,FALSE
US,CA,95201,STOCKTON TOURISM BUSINESS IMPROVEMENT DISTRICT,1,6,0.25,1.25,1.5,9,0,0,FALSE
US,CA,95202,STOCKTON TOURISM BUSINESS IMPROVEMENT DISTRICT,1,6,0.25,1.25,1.5,9,0,0,FALSE
US,CA,95203,STOCKTON TOURISM BUSINESS IMPROVEMENT DISTRICT,1,6,0.25,1.25,1.5,9,0,0,FALSE
US,CA,95204,STOCKTON TOURISM BUSINESS IMPROVEMENT DISTRICT,1,6,0.25,1.25,1.5,9,0,0,FALSE
US,CA,95205,STOCKTON TOURISM BUSINESS IMPROVEMENT DISTRICT,1,6,0.25,1.25,1.5,9,0,0,FALSE
US,CA,95206,STOCKTON TOURISM BUSINESS IMPROVEMENT DISTRICT,1,6,0.25,1.25,1.5,9,0,0,FALSE
US,CA,95207,STOCKTON TOURISM BUSINESS IMPROVEMENT DISTRICT,1,6,0.25,1.25,1.5,9,0,0,FALSE
US,CA,95208,STOCKTON TOURISM BUSINESS IMPROVEMENT DISTRICT,1,6,0.25,1.25,1.5,9,0,0,FALSE
US,CA,95209,STOCKTON TOURISM BUSINESS IMPROVEMENT DISTRICT,1,6,0.25,1.25,1.5,9,0,0,FALSE
US,CA,95210,STOCKTON TOURISM BUSINESS IMPROVEMENT DISTRICT,1,6,0.25,1.25,1.5,9,0,0,FALSE
US,CA,95211,STOCKTON TOURISM BUSINESS IMPROVEMENT DISTRICT,1,6,0.25,1.25,1.5,9,0,0,FALSE
US,CA,95212,SAN JOAQUIN COUNTY,2,6,0.25,0,1.5,7.75,0,0,FALSE
US,CA,95213,STOCKTON TOURISM BUSINESS IMPROVEMENT DISTRICT,1,6,0.25,1.25,1.5,9,0,0,FALSE
US,CA,95215,SAN JOAQUIN COUNTY,1,6,0.25,0,1.5,7.75,0,0,FALSE
US,CA,95219,STOCKTON TOURISM BUSINESS IMPROVEMENT DISTRICT,1,6,0.25,1.25,1.5,9,0,0,FALSE
US,CA,95220,SAN JOAQUIN COUNTY,1,6,0.25,0,1.5,7.75,0,0,FALSE
US,CA,95221,ANGELS CAMP,2,6,0.25,0.5,1,7.75,0,0,FALSE
US,CA,95222,CALAVERAS COUNTY,1,6,0.25,0,1,7.25,0,0,FALSE
US,CA,95223,CALAVERAS COUNTY,4,6,0.25,0,1,7.25,0,0,FALSE
US,CA,95224,CALAVERAS COUNTY,1,6,0.25,0,1,7.25,0,0,FALSE
US,CA,95225,CALAVERAS COUNTY,1,6,0.25,0,1,7.25,0,0,FALSE
US,CA,95226,CALAVERAS COUNTY,2,6,0.25,0,1,7.25,0,0,FALSE
US,CA,95227,SAN JOAQUIN COUNTY,1,6,0.25,0,1.5,7.75,0,0,FALSE
US,CA,95228,CALAVERAS COUNTY,1,6,0.25,0,1,7.25,0,0,FALSE
US,CA,95229,CALAVERAS COUNTY,2,6,0.25,0,1,7.25,0,0,FALSE
US,CA,95230,SAN JOAQUIN COUNTY,1,6,0.25,0,1.5,7.75,0,0,FALSE
US,CA,95231,SAN JOAQUIN COUNTY,1,6,0.25,0,1.5,7.75,0,0,FALSE
US,CA,95232,CALAVERAS COUNTY,1,6,0.25,0,1,7.25,0,0,FALSE
US,CA,95233,CALAVERAS COUNTY,1,6,0.25,0,1,7.25,0,0,FALSE
US,CA,95234,SAN JOAQUIN COUNTY,1,6,0.25,0,1.5,7.75,0,0,FALSE
US,CA,95236,SAN JOAQUIN COUNTY,1,6,0.25,0,1.5,7.75,0,0,FALSE
US,CA,95237,SAN JOAQUIN COUNTY,1,6,0.25,0,1.5,7.75,0,0,FALSE
US,CA,95240,LODI,1,6,0.25,0.5,1.5,8.25,0,0,FALSE
US,CA,95241,LODI,1,6,0.25,0.5,1.5,8.25,0,0,FALSE
US,CA,95242,LODI,1,6,0.25,0.5,1.5,8.25,0,0,FALSE
US,CA,95245,CALAVERAS COUNTY,1,6,0.25,0,1,7.25,0,0,FALSE
US,CA,95246,CALAVERAS COUNTY,3,6,0.25,0,1,7.25,0,0,FALSE
US,CA,95247,CALAVERAS COUNTY,1,6,0.25,0,1,7.25,0,0,FALSE
US,CA,95248,CALAVERAS COUNTY,2,6,0.25,0,1,7.25,0,0,FALSE
US,CA,95249,CALAVERAS COUNTY,1,6,0.25,0,1,7.25,0,0,FALSE
US,CA,95251,CALAVERAS COUNTY,1,6,0.25,0,1,7.25,0,0,FALSE
US,CA,95252,CALAVERAS COUNTY,1,6,0.25,0,1,7.25,0,0,FALSE
US,CA,95253,SAN JOAQUIN COUNTY,1,6,0.25,0,1.5,7.75,0,0,FALSE
US,CA,95254,CALAVERAS COUNTY,1,6,0.25,0,1,7.25,0,0,FALSE
US,CA,95255,CALAVERAS COUNTY,1,6,0.25,0,1,7.25,0,0,FALSE
US,CA,95257,CALAVERAS COUNTY,1,6,0.25,0,1,7.25,0,0,FALSE
US,CA,95258,SAN JOAQUIN COUNTY,1,6,0.25,0,1.5,7.75,0,0,FALSE
US,CA,95267,STOCKTON TOURISM BUSINESS IMPROVEMENT DISTRICT,1,6,0.25,1.25,1.5,9,0,0,FALSE
US,CA,95269,STOCKTON TOURISM BUSINESS IMPROVEMENT DISTRICT,1,6,0.25,1.25,1.5,9,0,0,FALSE
US,CA,95297,STOCKTON TOURISM BUSINESS IMPROVEMENT DISTRICT,1,6,0.25,1.25,1.5,9,0,0,FALSE
US,CA,95301,ATWATER,1,6,0.25,0.5,1.5,8.25,0,0,FALSE
US,CA,95303,MERCED COUNTY,1,6,0.25,0,1.5,7.75,0,0,FALSE
US,CA,95304,SAN JOAQUIN COUNTY,2,6,0.25,0,1.5,7.75,0,0,FALSE
US,CA,95305,TUOLUMNE COUNTY,1,6,0.25,0,1,7.25,0,0,FALSE
US,CA,95306,MARIPOSA COUNTY DISTRICT TAX SP,1,6,0.25,0,1.5,7.75,0,0,FALSE
US,CA,95307,CERES,1,6,0.25,0.5,1.625,8.375,0,0,FALSE
US,CA,95309,TUOLUMNE COUNTY,1,6,0.25,0,1,7.25,0,0,FALSE
US,CA,95310,TUOLUMNE COUNTY,1,6,0.25,0,1,7.25,0,0,FALSE
US,CA,95311,MARIPOSA COUNTY DISTRICT TAX SP,1,6,0.25,0,1.5,7.75,0,0,FALSE
US,CA,95312,MERCED COUNTY,1,6,0.25,0,1.5,7.75,0,0,FALSE
US,CA,95313,STANISLAUS COUNTY,1,6,0.25,0,1.625,7.875,0,0,FALSE
US,CA,95315,MERCED COUNTY,1,6,0.25,0,1.5,7.75,0,0,FALSE
US,CA,95316,STANISLAUS COUNTY,1,6,0.25,0,1.625,7.875,0,0,FALSE
US,CA,95317,MERCED COUNTY,1,6,0.25,0,1.5,7.75,0,0,FALSE
US,CA,95318,MARIPOSA COUNTY DISTRICT TAX SP,1,6,0.25,0,1.5,7.75,0,0,FALSE
US,CA,95319,STANISLAUS COUNTY,1,6,0.25,0,1.625,7.875,0,0,FALSE
US,CA,95320,ESCALON,1,6,0.25,0,1.5,7.75,0,0,FALSE
US,CA,95321,TUOLUMNE COUNTY,1,6,0.25,0,1,7.25,0,0,FALSE
US,CA,95322,GUSTINE,2,6,0.25,0.5,1.5,8.25,0,0,FALSE
US,CA,95323,STANISLAUS COUNTY,1,6,0.25,0,1.625,7.875,0,0,FALSE
US,CA,95324,MERCED COUNTY,1,6,0.25,0,1.5,7.75,0,0,FALSE
US,CA,95325,MARIPOSA COUNTY DISTRICT TAX SP,1,6,0.25,0,1.5,7.75,0,0,FALSE
US,CA,95326,HUGHSON,1,6,0.25,0,1.625,7.875,0,0,FALSE
US,CA,95327,TUOLUMNE COUNTY,1,6,0.25,0,1,7.25,0,0,FALSE
US,CA,95328,STANISLAUS COUNTY,1,6,0.25,0,1.625,7.875,0,0,FALSE
US,CA,95329,TUOLUMNE COUNTY,1,6,0.25,0,1,7.25,0,0,FALSE
US,CA,95330,LATHROP,1,6,0.25,1,1.5,8.75,0,0,FALSE
US,CA,95333,MERCED COUNTY,1,6,0.25,0,1.5,7.75,0,0,FALSE
US,CA,95334,LIVINGSTON,1,6,0.25,0,1.5,7.75,0,0,FALSE
US,CA,95335,TUOLUMNE COUNTY,2,6,0.25,0,1,7.25,0,0,FALSE
US,CA,95336,MANTECA,1,6,0.25,0.5,1.5,8.25,0,0,FALSE
US,CA,95337,MANTECA,1,6,0.25,0.5,1.5,8.25,0,0,FALSE
US,CA,95338,MARIPOSA COUNTY DISTRICT TAX SP,1,6,0.25,0,1.5,7.75,0,0,FALSE
US,CA,95340,MERCED,1,6,0.25,0.5,1.5,8.25,0,0,FALSE
US,CA,95341,MERCED,1,6,0.25,0.5,1.5,8.25,0,0,FALSE
US,CA,95343,MERCED COUNTY,1,6,0.25,0,1.5,7.75,0,0,FALSE
US,CA,95344,MERCED,1,6,0.25,0.5,1.5,8.25,0,0,FALSE
US,CA,95345,MARIPOSA COUNTY DISTRICT TAX SP,1,6,0.25,0,1.5,7.75,0,0,FALSE
US,CA,95346,TUOLUMNE COUNTY,1,6,0.25,0,1,7.25,0,0,FALSE
US,CA,95347,TUOLUMNE COUNTY,1,6,0.25,0,1,7.25,0,0,FALSE
US,CA,95348,MERCED,1,6,0.25,0.5,1.5,8.25,0,0,FALSE
US,CA,95350,MODESTO,1,6,0.25,0,1.625,7.875,0,0,FALSE
US,CA,95351,MODESTO,1,6,0.25,0,1.625,7.875,0,0,FALSE
US,CA,95352,MODESTO,1,6,0.25,0,1.625,7.875,0,0,FALSE
US,CA,95353,MODESTO,1,6,0.25,0,1.625,7.875,0,0,FALSE
US,CA,95354,MODESTO,1,6,0.25,0,1.625,7.875,0,0,FALSE
US,CA,95355,MODESTO,1,6,0.25,0,1.625,7.875,0,0,FALSE
US,CA,95356,MODESTO,1,6,0.25,0,1.625,7.875,0,0,FALSE
US,CA,95357,STANISLAUS COUNTY,1,6,0.25,0,1.625,7.875,0,0,FALSE
US,CA,95358,STANISLAUS COUNTY,1,6,0.25,0,1.625,7.875,0,0,FALSE
US,CA,95360,NEWMAN,1,6,0.25,0,1.625,7.875,0,0,FALSE
US,CA,95361,OAKDALE,3,6,0.25,0.5,1.625,8.375,0,0,FALSE
US,CA,95363,PATTERSON,3,6,0.25,0,1.625,7.875,0,0,FALSE
US,CA,95364,TUOLUMNE COUNTY,2,6,0.25,0,1,7.25,0,0,FALSE
US,CA,95365,MERCED COUNTY,1,6,0.25,0,1.5,7.75,0,0,FALSE
US,CA,95366,RIPON,1,6,0.25,0,1.5,7.75,0,0,FALSE
US,CA,95367,RIVERBANK,1,6,0.25,0,1.625,7.875,0,0,FALSE
US,CA,95368,STANISLAUS COUNTY,1,6,0.25,0,1.625,7.875,0,0,FALSE
US,CA,95369,MERCED COUNTY,1,6,0.25,0,1.5,7.75,0,0,FALSE
US,CA,95370,TUOLUMNE COUNTY,1,6,0.25,0,1,7.25,0,0,FALSE
US,CA,95372,TUOLUMNE COUNTY,1,6,0.25,0,1,7.25,0,0,FALSE
US,CA,95373,TUOLUMNE COUNTY,2,6,0.25,0,1,7.25,0,0,FALSE
US,CA,95374,MERCED COUNTY,1,6,0.25,0,1.5,7.75,0,0,FALSE
US,CA,95375,TUOLUMNE COUNTY,2,6,0.25,0,1,7.25,0,0,FALSE
US,CA,95376,TRACY,1,6,0.25,0.5,1.5,8.25,0,0,FALSE
US,CA,95377,TRACY,1,6,0.25,0.5,1.5,8.25,0,0,FALSE
US,CA,95378,TRACY,1,6,0.25,0.5,1.5,8.25,0,0,FALSE
US,CA,95379,TUOLUMNE COUNTY,1,6,0.25,0,1,7.25,0,0,FALSE
US,CA,95380,TURLOCK,1,6,0.25,0,1.625,7.875,0,0,FALSE
US,CA,95381,TURLOCK,1,6,0.25,0,1.625,7.875,0,0,FALSE
US,CA,95382,TURLOCK,1,6,0.25,0,1.625,7.875,0,0,FALSE
US,CA,95383,TUOLUMNE COUNTY,1,6,0.25,0,1,7.25,0,0,FALSE
US,CA,95385,STANISLAUS COUNTY,1,6,0.25,0,1.625,7.875,0,0,FALSE
US,CA,95386,WATERFORD,1,6,0.25,0,1.625,7.875,0,0,FALSE
US,CA,95387,STANISLAUS COUNTY,1,6,0.25,0,1.625,7.875,0,0,FALSE
US,CA,95388,MERCED COUNTY,1,6,0.25,0,1.5,7.75,0,0,FALSE
US,CA,95389,MARIPOSA COUNTY DISTRICT TAX SP,4,6,0.25,0,1.5,7.75,0,0,FALSE
US,CA,95391,SAN JOAQUIN COUNTY,2,6,0.25,0,1.5,7.75,0,0,FALSE
US,CA,95397,MODESTO,1,6,0.25,0,1.625,7.875,0,0,FALSE
US,CA,95401,SANTA ROSA TOURISM BUSINESS IMPROVEMENT AREA,1,6,0.25,0.75,2,9,0,0,FALSE
US,CA,95402,SANTA ROSA TOURISM BUSINESS IMPROVEMENT AREA,1,6,0.25,0.75,2,9,0,0,FALSE
US,CA,95403,SANTA ROSA TOURISM BUSINESS IMPROVEMENT AREA,2,6,0.25,0.75,2,9,0,0,FALSE
US,CA,95404,SANTA ROSA TOURISM BUSINESS IMPROVEMENT AREA,1,6,0.25,0.75,2,9,0,0,FALSE
US,CA,95405,SANTA ROSA TOURISM BUSINESS IMPROVEMENT AREA,1,6,0.25,0.75,2,9,0,0,FALSE
US,CA,95406,SANTA ROSA TOURISM BUSINESS IMPROVEMENT AREA,1,6,0.25,0.75,2,9,0,0,FALSE
US,CA,95407,SANTA ROSA TOURISM BUSINESS IMPROVEMENT AREA,2,6,0.25,0.75,2,9,0,0,FALSE
US,CA,95409,SANTA ROSA TOURISM BUSINESS IMPROVEMENT AREA,2,6,0.25,0.75,2,9,0,0,FALSE
US,CA,95410,MENDOCINO COUNTY LODGING BUSINESS IMPROVEMENT DISTRICT,1,6,0.25,0,1.625,7.875,0,0,FALSE
US,CA,95412,SONOMA COUNTY TOURISM BUSINESS IMPROVEMENT AREA,1,6,0.25,0,2,8.25,0,0,FALSE
US,CA,95415,MENDOCINO COUNTY LODGING BUSINESS IMPROVEMENT DISTRICT,1,6,0.25,0,1.625,7.875,0,0,FALSE
US,CA,95416,SONOMA COUNTY TOURISM BUSINESS IMPROVEMENT AREA,3,6,0.25,0,2,8.25,0,0,FALSE
US,CA,95417,MENDOCINO COUNTY LODGING BUSINESS IMPROVEMENT DISTRICT,2,6,0.25,0,1.625,7.875,0,0,FALSE
US,CA,95418,MENDOCINO COUNTY LODGING BUSINESS IMPROVEMENT DISTRICT,2,6,0.25,0,1.625,7.875,0,0,FALSE
US,CA,95419,SONOMA COUNTY TOURISM BUSINESS IMPROVEMENT AREA,1,6,0.25,0,2,8.25,0,0,FALSE
US,CA,95420,MENDOCINO COUNTY LODGING BUSINESS IMPROVEMENT DISTRICT,1,6,0.25,0,1.625,7.875,0,0,FALSE
US,CA,95421,SONOMA COUNTY TOURISM BUSINESS IMPROVEMENT AREA,1,6,0.25,0,2,8.25,0,0,FALSE
US,CA,95422,CLEARLAKE,1,6,0.25,1.5,1,8.75,0,0,FALSE
US,CA,95423,LAKE,1,6,0.25,0,1,7.25,0,0,FALSE
US,CA,95424,CLEARLAKE,1,6,0.25,1.5,1,8.75,0,0,FALSE
US,CA,95425,CLOVERDALE,3,6,0.25,0,2,8.25,0,0,FALSE
US,CA,95426,LAKE,1,6,0.25,0,1,7.25,0,0,FALSE
US,CA,95427,MENDOCINO COUNTY LODGING BUSINESS IMPROVEMENT DISTRICT,2,6,0.25,0,1.625,7.875,0,0,FALSE
US,CA,95428,MENDOCINO COUNTY LODGING BUSINESS IMPROVEMENT DISTRICT,1,6,0.25,0,1.625,7.875,0,0,FALSE
US,CA,95429,MENDOCINO COUNTY LODGING BUSINESS IMPROVEMENT DISTRICT,1,6,0.25,0,1.625,7.875,0,0,FALSE
US,CA,95430,SONOMA COUNTY TOURISM BUSINESS IMPROVEMENT AREA,1,6,0.25,0,2,8.25,0,0,FALSE
US,CA,95431,MARIN COUNTY TOURISM BUSINESS IMPROVEMENT DISTRICT,1,6,0.25,0,2,8.25,0,0,FALSE
US,CA,95432,MENDOCINO COUNTY LODGING BUSINESS IMPROVEMENT DISTRICT,1,6,0.25,0,1.625,7.875,0,0,FALSE
US,CA,95433,SONOMA COUNTY TOURISM BUSINESS IMPROVEMENT AREA,1,6,0.25,0,2,8.25,0,0,FALSE
US,CA,95435,LAKE,1,6,0.25,0,1,7.25,0,0,FALSE
US,CA,95436,SONOMA COUNTY TOURISM BUSINESS IMPROVEMENT AREA,1,6,0.25,0,2,8.25,0,0,FALSE
US,CA,95437,FORT BRAGG,7,6,0.25,1,1.625,8.875,0,0,FALSE
US,CA,95439,SONOMA COUNTY TOURISM BUSINESS IMPROVEMENT AREA,1,6,0.25,0,2,8.25,0,0,FALSE
US,CA,95441,SONOMA COUNTY TOURISM BUSINESS IMPROVEMENT AREA,1,6,0.25,0,2,8.25,0,0,FALSE
US,CA,95442,SONOMA COUNTY TOURISM BUSINESS IMPROVEMENT AREA,1,6,0.25,0,2,8.25,0,0,FALSE
US,CA,95443,LAKE,1,6,0.25,0,1,7.25,0,0,FALSE
US,CA,95444,SONOMA COUNTY TOURISM BUSINESS IMPROVEMENT AREA,1,6,0.25,0,2,8.25,0,0,FALSE
US,CA,95445,MENDOCINO COUNTY LODGING BUSINESS IMPROVEMENT DISTRICT,2,6,0.25,0,1.625,7.875,0,0,FALSE
US,CA,95446,SONOMA COUNTY TOURISM BUSINESS IMPROVEMENT AREA,2,6,0.25,0,2,8.25,0,0,FALSE
US,CA,95448,HEALDSBURG,1,6,0.25,0.5,2,8.75,0,0,FALSE
US,CA,95449,MENDOCINO COUNTY LODGING BUSINESS IMPROVEMENT DISTRICT,1,6,0.25,0,1.625,7.875,0,0,FALSE
US,CA,95450,SONOMA COUNTY TOURISM BUSINESS IMPROVEMENT AREA,2,6,0.25,0,2,8.25,0,0,FALSE
US,CA,95451,LAKE,1,6,0.25,0,1,7.25,0,0,FALSE
US,CA,95452,SONOMA COUNTY TOURISM BUSINESS IMPROVEMENT AREA,1,6,0.25,0,2,8.25,0,0,FALSE
US,CA,95453,LAKEPORT,1,6,0.25,1.5,1,8.75,0,0,FALSE
US,CA,95454,MENDOCINO COUNTY LODGING BUSINESS IMPROVEMENT DISTRICT,2,6,0.25,0,1.625,7.875,0,0,FALSE
US,CA,95456,MENDOCINO COUNTY LODGING BUSINESS IMPROVEMENT DISTRICT,2,6,0.25,0,1.625,7.875,0,0,FALSE
US,CA,95457,LAKE,1,6,0.25,0,1,7.25,0,0,FALSE
US,CA,95458,LAKE,1,6,0.25,0,1,7.25,0,0,FALSE
US,CA,95459,MENDOCINO COUNTY LODGING BUSINESS IMPROVEMENT DISTRICT,2,6,0.25,0,1.625,7.875,0,0,FALSE
US,CA,95460,MENDOCINO COUNTY LODGING BUSINESS IMPROVEMENT DISTRICT,1,6,0.25,0,1.625,7.875,0,0,FALSE
US,CA,95461,LAKE,2,6,0.25,0,1,7.25,0,0,FALSE
US,CA,95462,SONOMA COUNTY TOURISM BUSINESS IMPROVEMENT AREA,2,6,0.25,0,2,8.25,0,0,FALSE
US,CA,95463,MENDOCINO COUNTY LODGING BUSINESS IMPROVEMENT DISTRICT,1,6,0.25,0,1.625,7.875,0,0,FALSE
US,CA,95464,LAKE,1,6,0.25,0,1,7.25,0,0,FALSE
US,CA,95465,SONOMA COUNTY TOURISM BUSINESS IMPROVEMENT AREA,1,6,0.25,0,2,8.25,0,0,FALSE
US,CA,95466,MENDOCINO COUNTY LODGING BUSINESS IMPROVEMENT DISTRICT,1,6,0.25,0,1.625,7.875,0,0,FALSE
US,CA,95467,LAKE,1,6,0.25,0,1,7.25,0,0,FALSE
US,CA,95468,MENDOCINO COUNTY LODGING BUSINESS IMPROVEMENT DISTRICT,1,6,0.25,0,1.625,7.875,0,0,FALSE
US,CA,95469,MENDOCINO COUNTY LODGING BUSINESS IMPROVEMENT DISTRICT,1,6,0.25,0,1.625,7.875,0,0,FALSE
US,CA,95470,MENDOCINO COUNTY LODGING BUSINESS IMPROVEMENT DISTRICT,1,6,0.25,0,1.625,7.875,0,0,FALSE
US,CA,95471,LAKE,1,6,0.25,0,1,7.25,0,0,FALSE
US,CA,95472,SONOMA COUNTY TOURISM BUSINESS IMPROVEMENT AREA,2,6,0.25,0,2,8.25,0,0,FALSE
US,CA,95473,SEBASTOPOL,1,6,0.25,0.75,2,9,0,0,FALSE
US,CA,95476,SONOMA COUNTY TOURISM BUSINESS IMPROVEMENT AREA,3,6,0.25,0,2,8.25,0,0,FALSE
US,CA,95480,THE SEA RANCH,2,6,0.25,0,2,8.25,0,0,FALSE
US,CA,95481,MENDOCINO COUNTY LODGING BUSINESS IMPROVEMENT DISTRICT,1,6,0.25,0,1.625,7.875,0,0,FALSE
US,CA,95482,UKIAH,1,6,0.25,1,1.625,8.875,0,0,FALSE
US,CA,95485,LAKE,1,6,0.25,0,1,7.25,0,0,FALSE
US,CA,95486,SONOMA COUNTY TOURISM BUSINESS IMPROVEMENT AREA,1,6,0.25,0,2,8.25,0,0,FALSE
US,CA,95487,SONOMA COUNTY TOURISM BUSINESS IMPROVEMENT AREA,1,6,0.25,0,2,8.25,0,0,FALSE
US,CA,95488,MENDOCINO COUNTY LODGING BUSINESS IMPROVEMENT DISTRICT,2,6,0.25,0,1.625,7.875,0,0,FALSE
US,CA,95490,MENDOCINO COUNTY LODGING BUSINESS IMPROVEMENT DISTRICT,1,6,0.25,0,1.625,7.875,0,0,FALSE
US,CA,95492,WINDSOR,1,6,0.25,0,2,8.25,0,0,FALSE
US,CA,95493,LAKE,2,6,0.25,0,1,7.25,0,0,FALSE
US,CA,95494,MENDOCINO COUNTY LODGING BUSINESS IMPROVEMENT DISTRICT,1,6,0.25,0,1.625,7.875,0,0,FALSE
US,CA,95497,THE SEA RANCH,1,6,0.25,0,2,8.25,0,0,FALSE
US,CA,95501,EUREKA,1,6,0.25,0.75,1.5,8.5,0,0,FALSE
US,CA,95502,EUREKA,1,6,0.25,0.75,1.5,8.5,0,0,FALSE
US,CA,95503,HUMBOLDT COUNTY TOURISM BUSINESS IMPROVEMENT DISTRICT,1,6,0.25,0,1.5,7.75,0,0,FALSE
US,CA,95511,HUMBOLDT COUNTY TOURISM BUSINESS IMPROVEMENT DISTRICT,1,6,0.25,0,1.5,7.75,0,0,FALSE
US,CA,95514,HUMBOLDT COUNTY TOURISM BUSINESS IMPROVEMENT DISTRICT,1,6,0.25,0,1.5,7.75,0,0,FALSE
US,CA,95518,ARCATA,1,6,0.25,0.75,1.5,8.5,0,0,FALSE
US,CA,95519,HUMBOLDT COUNTY TOURISM BUSINESS IMPROVEMENT DISTRICT,1,6,0.25,0,1.5,7.75,0,0,FALSE
US,CA,95521,ARCATA,4,6,0.25,0.75,1.5,8.5,0,0,FALSE
US,CA,95524,HUMBOLDT COUNTY TOURISM BUSINESS IMPROVEMENT DISTRICT,1,6,0.25,0,1.5,7.75,0,0,FALSE
US,CA,95525,HUMBOLDT COUNTY TOURISM BUSINESS IMPROVEMENT DISTRICT,1,6,0.25,0,1.5,7.75,0,0,FALSE
US,CA,95526,HUMBOLDT COUNTY TOURISM BUSINESS IMPROVEMENT DISTRICT,4,6,0.25,0,1.5,7.75,0,0,FALSE
US,CA,95527,TRINITY COUNTY,1,6,0.25,0,1,7.25,0,0,FALSE
US,CA,95528,HUMBOLDT COUNTY TOURISM BUSINESS IMPROVEMENT DISTRICT,1,6,0.25,0,1.5,7.75,0,0,FALSE
US,CA,95531,DEL NORTE COUNTY,2,6,0.25,0,1.25,7.5,0,0,FALSE
US,CA,95532,CRESCENT CITY,1,6,0.25,0,1.25,7.5,0,0,FALSE
US,CA,95534,HUMBOLDT COUNTY TOURISM BUSINESS IMPROVEMENT DISTRICT,2,6,0.25,0,1.5,7.75,0,0,FALSE
US,CA,95536,HUMBOLDT COUNTY TOURISM BUSINESS IMPROVEMENT DISTRICT,1,6,0.25,0,1.5,7.75,0,0,FALSE
US,CA,95537,HUMBOLDT COUNTY TOURISM BUSINESS IMPROVEMENT DISTRICT,1,6,0.25,0,1.5,7.75,0,0,FALSE
US,CA,95540,FORTUNA,1,6,0.25,0.75,1.5,8.5,0,0,FALSE
US,CA,95542,HUMBOLDT COUNTY TOURISM BUSINESS IMPROVEMENT DISTRICT,1,6,0.25,0,1.5,7.75,0,0,FALSE
US,CA,95543,DEL NORTE COUNTY,1,6,0.25,0,1.25,7.5,0,0,FALSE
US,CA,95545,HUMBOLDT COUNTY TOURISM BUSINESS IMPROVEMENT DISTRICT,1,6,0.25,0,1.5,7.75,0,0,FALSE
US,CA,95546,HUMBOLDT COUNTY TOURISM BUSINESS IMPROVEMENT DISTRICT,3,6,0.25,0,1.5,7.75,0,0,FALSE
US,CA,95547,HUMBOLDT COUNTY TOURISM BUSINESS IMPROVEMENT DISTRICT,1,6,0.25,0,1.5,7.75,0,0,FALSE
US,CA,95548,DEL NORTE COUNTY,1,6,0.25,0,1.25,7.5,0,0,FALSE
US,CA,95549,HUMBOLDT COUNTY TOURISM BUSINESS IMPROVEMENT DISTRICT,1,6,0.25,0,1.5,7.75,0,0,FALSE
US,CA,95550,HUMBOLDT COUNTY TOURISM BUSINESS IMPROVEMENT DISTRICT,1,6,0.25,0,1.5,7.75,0,0,FALSE
US,CA,95551,HUMBOLDT COUNTY TOURISM BUSINESS IMPROVEMENT DISTRICT,1,6,0.25,0,1.5,7.75,0,0,FALSE
US,CA,95552,TRINITY COUNTY,2,6,0.25,0,1,7.25,0,0,FALSE
US,CA,95553,HUMBOLDT COUNTY TOURISM BUSINESS IMPROVEMENT DISTRICT,1,6,0.25,0,1.5,7.75,0,0,FALSE
US,CA,95554,HUMBOLDT COUNTY TOURISM BUSINESS IMPROVEMENT DISTRICT,1,6,0.25,0,1.5,7.75,0,0,FALSE
US,CA,95555,HUMBOLDT COUNTY TOURISM BUSINESS IMPROVEMENT DISTRICT,1,6,0.25,0,1.5,7.75,0,0,FALSE
US,CA,95556,HUMBOLDT COUNTY TOURISM BUSINESS IMPROVEMENT DISTRICT,1,6,0.25,0,1.5,7.75,0,0,FALSE
US,CA,95558,HUMBOLDT COUNTY TOURISM BUSINESS IMPROVEMENT DISTRICT,1,6,0.25,0,1.5,7.75,0,0,FALSE
US,CA,95559,HUMBOLDT COUNTY TOURISM BUSINESS IMPROVEMENT DISTRICT,1,6,0.25,0,1.5,7.75,0,0,FALSE
US,CA,95560,HUMBOLDT COUNTY TOURISM BUSINESS IMPROVEMENT DISTRICT,1,6,0.25,0,1.5,7.75,0,0,FALSE
US,CA,95562,RIO DELL,1,6,0.25,1,1.5,8.75,0,0,FALSE
US,CA,95563,TRINITY COUNTY,1,6,0.25,0,1,7.25,0,0,FALSE
US,CA,95564,HUMBOLDT COUNTY TOURISM BUSINESS IMPROVEMENT DISTRICT,1,6,0.25,0,1.5,7.75,0,0,FALSE
US,CA,95565,HUMBOLDT COUNTY TOURISM BUSINESS IMPROVEMENT DISTRICT,1,6,0.25,0,1.5,7.75,0,0,FALSE
US,CA,95567,DEL NORTE COUNTY,1,6,0.25,0,1.25,7.5,0,0,FALSE
US,CA,95568,SISKIYOU CO LOCAL TAX SL,2,6,0.25,0,1,7.25,0,0,FALSE
US,CA,95569,HUMBOLDT COUNTY TOURISM BUSINESS IMPROVEMENT DISTRICT,1,6,0.25,0,1.5,7.75,0,0,FALSE
US,CA,95570,HUMBOLDT COUNTY TOURISM BUSINESS IMPROVEMENT DISTRICT,1,6,0.25,0,1.5,7.75,0,0,FALSE
US,CA,95571,HUMBOLDT COUNTY TOURISM BUSINESS IMPROVEMENT DISTRICT,1,6,0.25,0,1.5,7.75,0,0,FALSE
US,CA,95573,HUMBOLDT COUNTY TOURISM BUSINESS IMPROVEMENT DISTRICT,1,6,0.25,0,1.5,7.75,0,0,FALSE
US,CA,95585,MENDOCINO COUNTY LODGING BUSINESS IMPROVEMENT DISTRICT,1,6,0.25,0,1.625,7.875,0,0,FALSE
US,CA,95587,HUMBOLDT COUNTY TOURISM BUSINESS IMPROVEMENT DISTRICT,2,6,0.25,0,1.5,7.75,0,0,FALSE
US,CA,95589,HUMBOLDT COUNTY TOURISM BUSINESS IMPROVEMENT DISTRICT,2,6,0.25,0,1.5,7.75,0,0,FALSE
US,CA,95595,TRINITY COUNTY,1,6,0.25,0,1,7.25,0,0,FALSE
US,CA,95601,AMADOR,1,6,0.25,0,1.5,7.75,0,0,FALSE
US,CA,95602,PLACER COUNTY WESTERN SLOPE,1,6,0.25,0,1,7.25,0,0,FALSE
US,CA,95603,AUBURN,5,6,0.25,0,1,7.25,0,0,FALSE
US,CA,95604,AUBURN,2,6,0.25,0,1,7.25,0,0,FALSE
US,CA,95605,WEST SACRAMENTO,3,6,0.25,1,1,8.25,0,0,FALSE
US,CA,95606,YOLO COUNTY TOURISM BUSINESS IMPROVEMENT DISTRICT,1,6,0.25,0,1,7.25,0,0,FALSE
US,CA,95607,YOLO COUNTY TOURISM BUSINESS IMPROVEMENT DISTRICT,2,6,0.25,0,1,7.25,0,0,FALSE
US,CA,95608,SACRAMENTO TMD ZONE 4,1,6,0.25,0,1.5,7.75,0,0,FALSE
US,CA,95609,SACRAMENTO TMD ZONE 4,1,6,0.25,0,1.5,7.75,0,0,FALSE
US,CA,95610,CITRUS HEIGHTS,1,6,0.25,0,1.5,7.75,0,0,FALSE
US,CA,95611,CITRUS HEIGHTS,1,6,0.25,0,1.5,7.75,0,0,FALSE
US,CA,95612,YOLO COUNTY TOURISM BUSINESS IMPROVEMENT DISTRICT,1,6,0.25,0,1,7.25,0,0,FALSE
US,CA,95613,EL DORADO COUNTY,1,6,0.25,0,1,7.25,0,0,FALSE
US,CA,95614,EL DORADO COUNTY,2,6,0.25,0,1,7.25,0,0,FALSE
US,CA,95615,SACRAMENTO TMD ZONE 4,4,6,0.25,0,1.5,7.75,0,0,FALSE
US,CA,95616,DAVIS,1,6,0.25,1,1,8.25,0,0,FALSE
US,CA,95617,DAVIS,1,6,0.25,1,1,8.25,0,0,FALSE
US,CA,95618,DAVIS,2,6,0.25,1,1,8.25,0,0,FALSE
US,CA,95619,EL DORADO COUNTY,1,6,0.25,0,1,7.25,0,0,FALSE
US,CA,95620,DIXON,2,6,0.25,0,1.125,7.375,0,0,FALSE
US,CA,95621,CITRUS HEIGHTS,1,6,0.25,0,1.5,7.75,0,0,FALSE
US,CA,95623,EL DORADO COUNTY,2,6,0.25,0,1,7.25,0,0,FALSE
US,CA,95624,ELK GROVE,1,6,0.25,0,1.5,7.75,0,0,FALSE
US,CA,95625,SOLANO COUNTY,1,6,0.25,0,1.125,7.375,0,0,FALSE
US,CA,95626,SACRAMENTO TMD ZONE 4,1,6,0.25,0,1.5,7.75,0,0,FALSE
US,CA,95627,YOLO COUNTY TOURISM BUSINESS IMPROVEMENT DISTRICT,1,6,0.25,0,1,7.25,0,0,FALSE
US,CA,95628,SACRAMENTO TMD ZONE 4,1,6,0.25,0,1.5,7.75,0,0,FALSE
US,CA,95629,AMADOR COUNTY,1,6,0.25,0,1.5,7.75,0,0,FALSE
US,CA,95630,FOLSOM TOURISM BUSINESS IMPROVEMENT DISTRICT,6,6,0.25,0,1.5,7.75,0,0,FALSE
US,CA,95631,PLACER COUNTY WESTERN SLOPE,4,6,0.25,0,1,7.25,0,0,FALSE
US,CA,95632,GALT,1,6,0.25,0.5,1.5,8.25,0,0,FALSE
US,CA,95633,EL DORADO COUNTY,1,6,0.25,0,1,7.25,0,0,FALSE
US,CA,95634,EL DORADO COUNTY,5,6,0.25,0,1,7.25,0,0,FALSE
US,CA,95635,EL DORADO COUNTY,1,6,0.25,0,1,7.25,0,0,FALSE
US,CA,95636,EL DORADO COUNTY,1,6,0.25,0,1,7.25,0,0,FALSE
US,CA,95637,YOLO COUNTY TOURISM BUSINESS IMPROVEMENT DISTRICT,1,6,0.25,0,1,7.25,0,0,FALSE
US,CA,95638,SACRAMENTO TMD ZONE 4,2,6,0.25,0,1.5,7.75,0,0,FALSE
US,CA,95639,SACRAMENTO TMD ZONE 4,1,6,0.25,0,1.5,7.75,0,0,FALSE
US,CA,95640,AMADOR COUNTY,4,6,0.25,0,1.5,7.75,0,0,FALSE
US,CA,95641,SACRAMENTO TMD ZONE 4,4,6,0.25,0,1.5,7.75,0,0,FALSE
US,CA,95642,JACKSON,2,6,0.25,0,1.5,7.75,0,0,FALSE
US,CA,95645,YOLO COUNTY TOURISM BUSINESS IMPROVEMENT DISTRICT,1,6,0.25,0,1,7.25,0,0,FALSE
US,CA,95646,ALPINE COUNTY,9,6,0.25,0,1,7.25,0,0,FALSE
US,CA,95648,LINCOLN,1,6,0.25,0,1,7.25,0,0,FALSE
US,CA,95650,LOOMIS,1,6,0.25,0.25,1,7.5,0,0,FALSE
US,CA,95651,EL DORADO COUNTY,1,6,0.25,0,1,7.25,0,0,FALSE
US,CA,95652,SACRAMENTO TMD ZONE 4,1,6,0.25,0,1.5,7.75,0,0,FALSE
US,CA,95653,YOLO COUNTY TOURISM BUSINESS IMPROVEMENT DISTRICT,1,6,0.25,0,1,7.25,0,0,FALSE
US,CA,95654,JACKSON,2,6,0.25,0,1.5,7.75,0,0,FALSE
US,CA,95655,SACRAMENTO TMD ZONE 4,2,6,0.25,0,1.5,7.75,0,0,FALSE
US,CA,95656,EL DORADO COUNTY,2,6,0.25,0,1,7.25,0,0,FALSE
US,CA,95658,PLACER COUNTY WESTERN SLOPE,1,6,0.25,0,1,7.25,0,0,FALSE
US,CA,95659,SUTTER CO LOCAL TAX SL,5,6,0.25,0,1,7.25,0,0,FALSE
US,CA,95660,SACRAMENTO TMD ZONE 4,1,6,0.25,0,1.5,7.75,0,0,FALSE
US,CA,95661,ROSEVILLE,1,6,0.25,0.5,1,7.75,0,0,FALSE
US,CA,95662,SACRAMENTO TMD ZONE 4,2,6,0.25,0,1.5,7.75,0,0,FALSE
US,CA,95663,PLACER COUNTY WESTERN SLOPE,1,6,0.25,0,1,7.25,0,0,FALSE
US,CA,95664,EL DORADO COUNTY,1,6,0.25,0,1,7.25,0,0,FALSE
US,CA,95665,AMADOR COUNTY,1,6,0.25,0,1.5,7.75,0,0,FALSE
US,CA,95666,AMADOR COUNTY,4,6,0.25,0,1.5,7.75,0,0,FALSE
US,CA,95667,EL DORADO COUNTY,9,6,0.25,0,1,7.25,0,0,FALSE
US,CA,95668,SUTTER CO LOCAL TAX SL,1,6,0.25,0,1,7.25,0,0,FALSE
US,CA,95669,AMADOR COUNTY,1,6,0.25,0,1.5,7.75,0,0,FALSE
US,CA,95670,RANCHO CORDOVA TOURISM BUSINESS IMPROVEMENT DISTRICT,3,6,0.25,0.5,1.5,8.25,0,0,FALSE
US,CA,95671,FOLSOM TOURISM BUSINESS IMPROVEMENT DISTRICT,1,6,0.25,0,1.5,7.75,0,0,FALSE
US,CA,95672,EL DORADO COUNTY,1,6,0.25,0,1,7.25,0,0,FALSE
US,CA,95673,SACRAMENTO TMD ZONE 4,1,6,0.25,0,1.5,7.75,0,0,FALSE
US,CA,95674,SUTTER CO LOCAL TAX SL,1,6,0.25,0,1,7.25,0,0,FALSE
US,CA,95675,AMADOR COUNTY,3,6,0.25,0,1.5,7.75,0,0,FALSE
US,CA,95676,SUTTER CO LOCAL TAX SL,1,6,0.25,0,1,7.25,0,0,FALSE
US,CA,95677,ROCKLIN,2,6,0.25,0,1,7.25,0,0,FALSE
US,CA,95678,ROSEVILLE,1,6,0.25,0.5,1,7.75,0,0,FALSE
US,CA,95679,YOLO COUNTY TOURISM BUSINESS IMPROVEMENT DISTRICT,1,6,0.25,0,1,7.25,0,0,FALSE
US,CA,95680,SACRAMENTO TMD ZONE 4,1,6,0.25,0,1.5,7.75,0,0,FALSE
US,CA,95681,PLACER COUNTY WESTERN SLOPE,1,6,0.25,0,1,7.25,0,0,FALSE
US,CA,95682,EL DORADO COUNTY,3,6,0.25,0,1,7.25,0,0,FALSE
US,CA,95683,SACRAMENTO TMD ZONE 4,2,6,0.25,0,1.5,7.75,0,0,FALSE
US,CA,95684,EL DORADO COUNTY,4,6,0.25,0,1,7.25,0,0,FALSE
US,CA,95685,SUTTER CREEK,2,6,0.25,0,1.5,7.75,0,0,FALSE
US,CA,95686,SAN JOAQUIN COUNTY,1,6,0.25,0,1.5,7.75,0,0,FALSE
US,CA,95687,VACAVILLE,1,6,0.25,0.75,1.125,8.125,0,0,FALSE
US,CA,95688,VACAVILLE,2,6,0.25,0.75,1.125,8.125,0,0,FALSE
US,CA,95689,AMADOR COUNTY,1,6,0.25,0,1.5,7.75,0,0,FALSE
US,CA,95690,SACRAMENTO TMD ZONE 4,9,6,0.25,0,1.5,7.75,0,0,FALSE
US,CA,95691,WEST SACRAMENTO,1,6,0.25,1,1,8.25,0,0,FALSE
US,CA,95692,WHEATLAND,1,6,0.25,0.5,1,7.75,0,0,FALSE
US,CA,95693,SACRAMENTO TMD ZONE 4,1,6,0.25,0,1.5,7.75,0,0,FALSE
US,CA,95694,WINTERS,1,6,0.25,0,1,7.25,0,0,FALSE
US,CA,95695,WOODLAND,1,6,0.25,0.75,1,8,0,0,FALSE
US,CA,95696,VACAVILLE,1,6,0.25,0.75,1.125,8.125,0,0,FALSE
US,CA,95697,YOLO COUNTY TOURISM BUSINESS IMPROVEMENT DISTRICT,1,6,0.25,0,1,7.25,0,0,FALSE
US,CA,95698,YOLO COUNTY TOURISM BUSINESS IMPROVEMENT DISTRICT,1,6,0.25,0,1,7.25,0,0,FALSE
US,CA,95699,SAN JOAQUIN COUNTY,2,6,0.25,0,1.5,7.75,0,0,FALSE
US,CA,95701,PLACER COUNTY WESTERN SLOPE,1,6,0.25,0,1,7.25,0,0,FALSE
US,CA,95703,PLACER COUNTY WESTERN SLOPE,2,6,0.25,0,1,7.25,0,0,FALSE
US,CA,95709,EL DORADO COUNTY,3,6,0.25,0,1,7.25,0,0,FALSE
US,CA,95712,PLACER COUNTY WESTERN SLOPE,1,6,0.25,0,1,7.25,0,0,FALSE
US,CA,95713,PLACER COUNTY WESTERN SLOPE,6,6,0.25,0,1,7.25,0,0,FALSE
US,CA,95714,PLACER COUNTY WESTERN SLOPE,1,6,0.25,0,1,7.25,0,0,FALSE
US,CA,95715,PLACER COUNTY WESTERN SLOPE,3,6,0.25,0,1,7.25,0,0,FALSE
US,CA,95717,PLACER COUNTY WESTERN SLOPE,2,6,0.25,0,1,7.25,0,0,FALSE
US,CA,95720,EL DORADO COUNTY,2,6,0.25,0,1,7.25,0,0,FALSE
US,CA,95721,EL DORADO COUNTY,2,6,0.25,0,1,7.25,0,0,FALSE
US,CA,95722,PLACER COUNTY WESTERN SLOPE,1,6,0.25,0,1,7.25,0,0,FALSE
US,CA,95724,NEVADA COUNTY,2,6,0.25,0,1.25,7.5,0,0,FALSE
US,CA,95726,EL DORADO COUNTY,3,6,0.25,0,1,7.25,0,0,FALSE
US,CA,95728,NEVADA COUNTY,5,6,0.25,0,1.25,7.5,0,0,FALSE
US,CA,95735,EL DORADO COUNTY,1,6,0.25,0,1,7.25,0,0,FALSE
US,CA,95736,PLACER COUNTY WESTERN SLOPE,1,6,0.25,0,1,7.25,0,0,FALSE
US,CA,95741,RANCHO CORDOVA TOURISM BUSINESS IMPROVEMENT DISTRICT,1,6,0.25,0.5,1.5,8.25,0,0,FALSE
US,CA,95742,RANCHO CORDOVA TOURISM BUSINESS IMPROVEMENT DISTRICT,1,6,0.25,0.5,1.5,8.25,0,0,FALSE
US,CA,95746,PLACER COUNTY WESTERN SLOPE,2,6,0.25,0,1,7.25,0,0,FALSE
US,CA,95747,ROSEVILLE,1,6,0.25,0.5,1,7.75,0,0,FALSE
US,CA,95757,ELK GROVE,1,6,0.25,0,1.5,7.75,0,0,FALSE
US,CA,95758,ELK GROVE,1,6,0.25,0,1.5,7.75,0,0,FALSE
US,CA,95759,ELK GROVE,1,6,0.25,0,1.5,7.75,0,0,FALSE
US,CA,95762,EL DORADO COUNTY,3,6,0.25,0,1,7.25,0,0,FALSE
US,CA,95763,FOLSOM TOURISM BUSINESS IMPROVEMENT DISTRICT,2,6,0.25,0,1.5,7.75,0,0,FALSE
US,CA,95765,ROCKLIN,1,6,0.25,0,1,7.25,0,0,FALSE
US,CA,95776,WOODLAND,1,6,0.25,0.75,1,8,0,0,FALSE
US,CA,95798,WEST SACRAMENTO,2,6,0.25,1,1,8.25,0,0,FALSE
US,CA,95799,WEST SACRAMENTO,1,6,0.25,1,1,8.25,0,0,FALSE
US,CA,95811,SACRAMENTO TMD ZONE 1,1,6,0.25,1,1.5,8.75,0,0,FALSE
US,CA,95812,SACRAMENTO TMD ZONE 1,1,6,0.25,1,1.5,8.75,0,0,FALSE
US,CA,95813,SACRAMENTO TMD ZONE 2,1,6,0.25,1,1.5,8.75,0,0,FALSE
US,CA,95814,SACRAMENTO TMD ZONE 1,1,6,0.25,1,1.5,8.75,0,0,FALSE
US,CA,95815,SACRAMENTO TMD ZONE 2,2,6,0.25,1,1.5,8.75,0,0,FALSE
US,CA,95816,SACRAMENTO TMD ZONE 1,1,6,0.25,1,1.5,8.75,0,0,FALSE
US,CA,95817,SACRAMENTO,1,6,0.25,1,1.5,8.75,0,0,FALSE
US,CA,95818,SACRAMENTO,1,6,0.25,1,1.5,8.75,0,0,FALSE
US,CA,95819,SACRAMENTO,1,6,0.25,1,1.5,8.75,0,0,FALSE
US,CA,95820,SACRAMENTO,2,6,0.25,1,1.5,8.75,0,0,FALSE
US,CA,95821,SACRAMENTO TMD ZONE 2,1,6,0.25,0,1.5,7.75,0,0,FALSE
US,CA,95822,SACRAMENTO,1,6,0.25,1,1.5,8.75,0,0,FALSE
US,CA,95823,SACRAMENTO,1,6,0.25,1,1.5,8.75,0,0,FALSE
US,CA,95824,SACRAMENTO TMD ZONE 4,1,6,0.25,0,1.5,7.75,0,0,FALSE
US,CA,95825,SACRAMENTO TMD ZONE 2,1,6,0.25,0,1.5,7.75,0,0,FALSE
US,CA,95826,SACRAMENTO TMD ZONE 4,2,6,0.25,0,1.5,7.75,0,0,FALSE
US,CA,95827,RANCHO CORDOVA TOURISM BUSINESS IMPROVEMENT DISTRICT,1,6,0.25,0.5,1.5,8.25,0,0,FALSE
US,CA,95828,SACRAMENTO TMD ZONE 4,1,6,0.25,0,1.5,7.75,0,0,FALSE
US,CA,95829,SACRAMENTO TMD ZONE 4,1,6,0.25,0,1.5,7.75,0,0,FALSE
US,CA,95830,SACRAMENTO TMD ZONE 4,1,6,0.25,0,1.5,7.75,0,0,FALSE
US,CA,95831,SACRAMENTO,1,6,0.25,1,1.5,8.75,0,0,FALSE
US,CA,95832,SACRAMENTO,1,6,0.25,1,1.5,8.75,0,0,FALSE
US,CA,95833,SACRAMENTO TMD ZONE 3,1,6,0.25,1,1.5,8.75,0,0,FALSE
US,CA,95834,SACRAMENTO TMD ZONE 3,1,6,0.25,1,1.5,8.75,0,0,FALSE
US,CA,95835,SACRAMENTO TMD ZONE 3,1,6,0.25,1,1.5,8.75,0,0,FALSE
US,CA,95836,SACRAMENTO TMD ZONE 4,1,6,0.25,0,1.5,7.75,0,0,FALSE
US,CA,95837,SACRAMENTO TMD ZONE 3,1,6,0.25,0,1.5,7.75,0,0,FALSE
US,CA,95838,SACRAMENTO TMD ZONE 2,1,6,0.25,1,1.5,8.75,0,0,FALSE
US,CA,95840,SACRAMENTO TMD ZONE 1,1,6,0.25,1,1.5,8.75,0,0,FALSE
US,CA,95841,SACRAMENTO TMD ZONE 4,1,6,0.25,0,1.5,7.75,0,0,FALSE
US,CA,95842,SACRAMENTO TMD ZONE 4,1,6,0.25,0,1.5,7.75,0,0,FALSE
US,CA,95843,SACRAMENTO TMD ZONE 4,2,6,0.25,0,1.5,7.75,0,0,FALSE
US,CA,95851,SACRAMENTO TMD ZONE 2,1,6,0.25,1,1.5,8.75,0,0,FALSE
US,CA,95852,SACRAMENTO TMD ZONE 2,1,6,0.25,1,1.5,8.75,0,0,FALSE
US,CA,95853,SACRAMENTO TMD ZONE 2,1,6,0.25,1,1.5,8.75,0,0,FALSE
US,CA,95860,SACRAMENTO TMD ZONE 2,1,6,0.25,0,1.5,7.75,0,0,FALSE
US,CA,95864,SACRAMENTO TMD ZONE 4,1,6,0.25,0,1.5,7.75,0,0,FALSE
US,CA,95865,SACRAMENTO TMD ZONE 2,1,6,0.25,0,1.5,7.75,0,0,FALSE
US,CA,95866,SACRAMENTO TMD ZONE 2,1,6,0.25,0,1.5,7.75,0,0,FALSE
US,CA,95867,SACRAMENTO TMD ZONE 1,1,6,0.25,1,1.5,8.75,0,0,FALSE
US,CA,95894,SACRAMENTO,1,6,0.25,1,1.5,8.75,0,0,FALSE
US,CA,95901,MARYSVILLE,5,6,0.25,1,1,8.25,0,0,FALSE
US,CA,95903,YUBA,1,6,0.25,0,2,8.25,0,0,FALSE
US,CA,95910,SIERRA COUNTY,2,6,0.25,0,1,7.25,0,0,FALSE
US,CA,95912,COLUSA COUNTY,2,6,0.25,0,1,7.25,0,0,FALSE
US,CA,95913,GLENN COUNTY,1,6,0.25,0,1,7.25,0,0,FALSE
US,CA,95914,BUTTE COUNTY TOURISM BUSINESS IMPROVEMENT DISTRICT,1,6,0.25,0,1,7.25,0,0,FALSE
US,CA,95915,PLUMAS COUNTY,5,6,0.25,0,1,7.25,0,0,FALSE
US,CA,95916,BUTTE COUNTY TOURISM BUSINESS IMPROVEMENT DISTRICT,2,6,0.25,0,1,7.25,0,0,FALSE
US,CA,95917,BUTTE COUNTY TOURISM BUSINESS IMPROVEMENT DISTRICT,1,6,0.25,0,1,7.25,0,0,FALSE
US,CA,95918,YUBA,1,6,0.25,0,2,8.25,0,0,FALSE
US,CA,95919,YUBA,1,6,0.25,0,2,8.25,0,0,FALSE
US,CA,95920,GLENN COUNTY,2,6,0.25,0,1,7.25,0,0,FALSE
US,CA,95922,YUBA,1,6,0.25,0,2,8.25,0,0,FALSE
US,CA,95923,PLUMAS COUNTY,4,6,0.25,0,1,7.25,0,0,FALSE
US,CA,95924,NEVADA COUNTY,1,6,0.25,0,1.25,7.5,0,0,FALSE
US,CA,95925,YUBA,2,6,0.25,0,2,8.25,0,0,FALSE
US,CA,95926,CHICO,1,6,0.25,0,1,7.25,0,0,FALSE
US,CA,95927,CHICO,1,6,0.25,0,1,7.25,0,0,FALSE
US,CA,95928,CHICO,4,6,0.25,0,1,7.25,0,0,FALSE
US,CA,95929,CHICO,1,6,0.25,0,1,7.25,0,0,FALSE
US,CA,95930,BUTTE COUNTY TOURISM BUSINESS IMPROVEMENT DISTRICT,2,6,0.25,0,1,7.25,0,0,FALSE
US,CA,95932,COLUSA,1,6,0.25,0,1,7.25,0,0,FALSE
US,CA,95934,PLUMAS COUNTY,1,6,0.25,0,1,7.25,0,0,FALSE
US,CA,95935,YUBA,1,6,0.25,0,2,8.25,0,0,FALSE
US,CA,95936,SIERRA COUNTY,1,6,0.25,0,1,7.25,0,0,FALSE
US,CA,95937,YOLO COUNTY TOURISM BUSINESS IMPROVEMENT DISTRICT,1,6,0.25,0,1,7.25,0,0,FALSE
US,CA,95938,BUTTE COUNTY TOURISM BUSINESS IMPROVEMENT DISTRICT,1,6,0.25,0,1,7.25,0,0,FALSE
US,CA,95939,GLENN COUNTY,2,6,0.25,0,1,7.25,0,0,FALSE
US,CA,95940,BUTTE COUNTY TOURISM BUSINESS IMPROVEMENT DISTRICT,3,6,0.25,0,1,7.25,0,0,FALSE
US,CA,95941,BUTTE COUNTY TOURISM BUSINESS IMPROVEMENT DISTRICT,1,6,0.25,0,1,7.25,0,0,FALSE
US,CA,95942,BUTTE COUNTY TOURISM BUSINESS IMPROVEMENT DISTRICT,2,6,0.25,0,1,7.25,0,0,FALSE
US,CA,95943,GLENN COUNTY,3,6,0.25,0,1,7.25,0,0,FALSE
US,CA,95944,PLUMAS COUNTY,1,6,0.25,0,1,7.25,0,0,FALSE
US,CA,95945,GRASS VALLEY,13,6,0.25,1,1.25,8.5,0,0,FALSE
US,CA,95946,NEVADA COUNTY,2,6,0.25,0,1.25,7.5,0,0,FALSE
US,CA,95947,PLUMAS COUNTY,2,6,0.25,0,1,7.25,0,0,FALSE
US,CA,95948,GRIDLEY,3,6,0.25,0,1,7.25,0,0,FALSE
US,CA,95949,NEVADA COUNTY,1,6,0.25,0,1.25,7.5,0,0,FALSE
US,CA,95950,COLUSA COUNTY,1,6,0.25,0,1,7.25,0,0,FALSE
US,CA,95951,GLENN COUNTY,2,6,0.25,0,1,7.25,0,0,FALSE
US,CA,95953,LIVE OAK,2,6,0.25,0,1,7.25,0,0,FALSE
US,CA,95954,BUTTE COUNTY TOURISM BUSINESS IMPROVEMENT DISTRICT,3,6,0.25,0,1,7.25,0,0,FALSE
US,CA,95955,COLUSA COUNTY,1,6,0.25,0,1,7.25,0,0,FALSE
US,CA,95956,PLUMAS COUNTY,2,6,0.25,0,1,7.25,0,0,FALSE
US,CA,95957,SUTTER CO LOCAL TAX SL,2,6,0.25,0,1,7.25,0,0,FALSE
US,CA,95958,BUTTE COUNTY TOURISM BUSINESS IMPROVEMENT DISTRICT,2,6,0.25,0,1,7.25,0,0,FALSE
US,CA,95959,NEVADA COUNTY,6,6,0.25,0,1.25,7.5,0,0,FALSE
US,CA,95960,NEVADA COUNTY,3,6,0.25,0,1.25,7.5,0,0,FALSE
US,CA,95961,YUBA,4,6,0.25,0,2,8.25,0,0,FALSE
US,CA,95962,YUBA,2,6,0.25,0,2,8.25,0,0,FALSE
US,CA,95963,ORLAND,2,6,0.25,0.5,1,7.75,0,0,FALSE
US,CA,95965,OROVILLE,18,6,0.25,1,1,8.25,0,0,FALSE
US,CA,95966,BUTTE COUNTY TOURISM BUSINESS IMPROVEMENT DISTRICT,2,6,0.25,0,1,7.25,0,0,FALSE
US,CA,95967,PARADISE,1,6,0.25,0.5,1,7.75,0,0,FALSE
US,CA,95968,BUTTE COUNTY TOURISM BUSINESS IMPROVEMENT DISTRICT,1,6,0.25,0,1,7.25,0,0,FALSE
US,CA,95969,PARADISE,1,6,0.25,0.5,1,7.75,0,0,FALSE
US,CA,95970,COLUSA COUNTY,2,6,0.25,0,1,7.25,0,0,FALSE
US,CA,95971,PLUMAS COUNTY,6,6,0.25,0,1,7.25,0,0,FALSE
US,CA,95972,YUBA,1,6,0.25,0,2,8.25,0,0,FALSE
US,CA,95973,CHICO,4,6,0.25,0,1,7.25,0,0,FALSE
US,CA,95974,BUTTE COUNTY TOURISM BUSINESS IMPROVEMENT DISTRICT,1,6,0.25,0,1,7.25,0,0,FALSE
US,CA,95975,NEVADA COUNTY,1,6,0.25,0,1.25,7.5,0,0,FALSE
US,CA,95976,CHICO,1,6,0.25,0,1,7.25,0,0,FALSE
US,CA,95977,NEVADA COUNTY,3,6,0.25,0,1.25,7.5,0,0,FALSE
US,CA,95978,TEHAMA COUNTY,1,6,0.25,0,1,7.25,0,0,FALSE
US,CA,95979,COLUSA COUNTY,4,6,0.25,0,1,7.25,0,0,FALSE
US,CA,95980,OROVILLE,8,6,0.25,1,1,8.25,0,0,FALSE
US,CA,95981,YUBA,1,6,0.25,0,2,8.25,0,0,FALSE
US,CA,95982,SUTTER CO LOCAL TAX SL,1,6,0.25,0,1,7.25,0,0,FALSE
US,CA,95983,PLUMAS COUNTY,2,6,0.25,0,1,7.25,0,0,FALSE
US,CA,95984,PLUMAS COUNTY,2,6,0.25,0,1,7.25,0,0,FALSE
US,CA,95986,NEVADA COUNTY,1,6,0.25,0,1.25,7.5,0,0,FALSE
US,CA,95987,WILLIAMS,3,6,0.25,0.5,1,7.75,0,0,FALSE
US,CA,95988,WILLOWS,2,6,0.25,0,1,7.25,0,0,FALSE
US,CA,95991,YUBA CITY,2,6,0.25,0,1,7.25,0,0,FALSE
US,CA,95992,YUBA CITY,1,6,0.25,0,1,7.25,0,0,FALSE
US,CA,95993,YUBA CITY,1,6,0.25,0,1,7.25,0,0,FALSE
US,CA,96001,REDDING,2,6,0.25,0,1,7.25,0,0,FALSE
US,CA,96002,REDDING,1,6,0.25,0,1,7.25,0,0,FALSE
US,CA,96003,REDDING,1,6,0.25,0,1,7.25,0,0,FALSE
US,CA,96006,MODOC COUNTY,1,6,0.25,0,1,7.25,0,0,FALSE
US,CA,96007,ANDERSON,2,6,0.25,0.5,1,7.75,0,0,FALSE
US,CA,96008,SHASTA COUNTY,1,6,0.25,0,1,7.25,0,0,FALSE
US,CA,96009,LASSEN COUNTY,1,6,0.25,0,1,7.25,0,0,FALSE
US,CA,96010,TRINITY COUNTY,1,6,0.25,0,1,7.25,0,0,FALSE
US,CA,96011,SHASTA COUNTY,1,6,0.25,0,1,7.25,0,0,FALSE
US,CA,96013,SHASTA COUNTY,2,6,0.25,0,1,7.25,0,0,FALSE
US,CA,96014,SISKIYOU CO LOCAL TAX SL,1,6,0.25,0,1,7.25,0,0,FALSE
US,CA,96015,MODOC COUNTY,1,6,0.25,0,1,7.25,0,0,FALSE
US,CA,96016,SHASTA COUNTY,1,6,0.25,0,1,7.25,0,0,FALSE
US,CA,96017,SHASTA COUNTY,2,6,0.25,0,1,7.25,0,0,FALSE
US,CA,96019,SHASTA LAKE,2,6,0.25,0,1,7.25,0,0,FALSE
US,CA,96020,PLUMAS COUNTY,1,6,0.25,0,1,7.25,0,0,FALSE
US,CA,96021,CORNING,1,6,0.25,0.5,1,7.75,0,0,FALSE
US,CA,96022,TEHAMA COUNTY,1,6,0.25,0,1,7.25,0,0,FALSE
US,CA,96023,SISKIYOU CO LOCAL TAX SL,1,6,0.25,0,1,7.25,0,0,FALSE
US,CA,96024,TRINITY COUNTY,1,6,0.25,0,1,7.25,0,0,FALSE
US,CA,96025,SISKIYOU CO LOCAL TAX SL,1,6,0.25,0.5,1,7.75,0,0,FALSE
US,CA,96027,SISKIYOU CO LOCAL TAX SL,2,6,0.25,0,1,7.25,0,0,FALSE
US,CA,96028,SHASTA COUNTY,1,6,0.25,0,1,7.25,0,0,FALSE
US,CA,96029,TEHAMA COUNTY,2,6,0.25,0,1,7.25,0,0,FALSE
US,CA,96031,SISKIYOU CO LOCAL TAX SL,1,6,0.25,0,1,7.25,0,0,FALSE
US,CA,96032,SISKIYOU CO LOCAL TAX SL,1,6,0.25,0,1,7.25,0,0,FALSE
US,CA,96033,SHASTA COUNTY,1,6,0.25,0,1,7.25,0,0,FALSE
US,CA,96034,SISKIYOU CO LOCAL TAX SL,1,6,0.25,0,1,7.25,0,0,FALSE
US,CA,96035,TEHAMA COUNTY,1,6,0.25,0,1,7.25,0,0,FALSE
US,CA,96037,SISKIYOU CO LOCAL TAX SL,1,6,0.25,0,1,7.25,0,0,FALSE
US,CA,96038,SISKIYOU CO LOCAL TAX SL,1,6,0.25,0,1,7.25,0,0,FALSE
US,CA,96039,SISKIYOU CO LOCAL TAX SL,1,6,0.25,0,1,7.25,0,0,FALSE
US,CA,96040,SHASTA COUNTY,1,6,0.25,0,1,7.25,0,0,FALSE
US,CA,96041,TRINITY COUNTY,2,6,0.25,0,1,7.25,0,0,FALSE
US,CA,96044,SISKIYOU CO LOCAL TAX SL,2,6,0.25,0,1,7.25,0,0,FALSE
US,CA,96046,TRINITY COUNTY,1,6,0.25,0,1,7.25,0,0,FALSE
US,CA,96047,SHASTA COUNTY,2,6,0.25,0,1,7.25,0,0,FALSE
US,CA,96048,TRINITY COUNTY,2,6,0.25,0,1,7.25,0,0,FALSE
US,CA,96049,REDDING,1,6,0.25,0,1,7.25,0,0,FALSE
US,CA,96050,SISKIYOU CO LOCAL TAX SL,2,6,0.25,0,1,7.25,0,0,FALSE
US,CA,96051,SHASTA COUNTY,1,6,0.25,0,1,7.25,0,0,FALSE
US,CA,96052,TRINITY COUNTY,1,6,0.25,0,1,7.25,0,0,FALSE
US,CA,96054,MODOC COUNTY,1,6,0.25,0,1,7.25,0,0,FALSE
US,CA,96055,TEHAMA COUNTY,1,6,0.25,0,1,7.25,0,0,FALSE
US,CA,96056,LASSEN COUNTY,3,6,0.25,0,1,7.25,0,0,FALSE
US,CA,96057,SISKIYOU CO LOCAL TAX SL,1,6,0.25,0,1,7.25,0,0,FALSE
US,CA,96058,SISKIYOU CO LOCAL TAX SL,1,6,0.25,0,1,7.25,0,0,FALSE
US,CA,96059,TEHAMA COUNTY,1,6,0.25,0,1,7.25,0,0,FALSE
US,CA,96061,TEHAMA COUNTY,2,6,0.25,0,1,7.25,0,0,FALSE
US,CA,96062,SHASTA COUNTY,1,6,0.25,0,1,7.25,0,0,FALSE
US,CA,96063,TEHAMA COUNTY,1,6,0.25,0,1,7.25,0,0,FALSE
US,CA,96064,SISKIYOU CO LOCAL TAX SL,1,6,0.25,0,1,7.25,0,0,FALSE
US,CA,96065,SHASTA COUNTY,1,6,0.25,0,1,7.25,0,0,FALSE
US,CA,96067,MT. SHASTA,1,6,0.25,0.25,1,7.5,0,0,FALSE
US,CA,96068,LASSEN COUNTY,1,6,0.25,0,1,7.25,0,0,FALSE
US,CA,96069,SHASTA COUNTY,1,6,0.25,0,1,7.25,0,0,FALSE
US,CA,96070,SHASTA COUNTY,2,6,0.25,0,1,7.25,0,0,FALSE
US,CA,96071,SHASTA COUNTY,1,6,0.25,0,1,7.25,0,0,FALSE
US,CA,96073,SHASTA COUNTY,1,6,0.25,0,1,7.25,0,0,FALSE
US,CA,96074,TEHAMA COUNTY,1,6,0.25,0,1,7.25,0,0,FALSE
US,CA,96075,TEHAMA COUNTY,1,6,0.25,0,1,7.25,0,0,FALSE
US,CA,96076,TRINITY COUNTY,2,6,0.25,0,1,7.25,0,0,FALSE
US,CA,96078,TEHAMA COUNTY,1,6,0.25,0,1,7.25,0,0,FALSE
US,CA,96080,RED BLUFF,2,6,0.25,0.25,1,7.5,0,0,FALSE
US,CA,96084,SHASTA COUNTY,1,6,0.25,0,1,7.25,0,0,FALSE
US,CA,96085,SISKIYOU CO LOCAL TAX SL,1,6,0.25,0,1,7.25,0,0,FALSE
US,CA,96086,SISKIYOU CO LOCAL TAX SL,1,6,0.25,0,1,7.25,0,0,FALSE
US,CA,96087,SHASTA COUNTY,1,6,0.25,0,1,7.25,0,0,FALSE
US,CA,96088,SHASTA COUNTY,2,6,0.25,0,1,7.25,0,0,FALSE
US,CA,96089,SHASTA LAKE,2,6,0.25,0,1,7.25,0,0,FALSE
US,CA,96090,TEHAMA,1,6,0.25,0,1,7.25,0,0,FALSE
US,CA,96091,TRINITY COUNTY,1,6,0.25,0,1,7.25,0,0,FALSE
US,CA,96092,TEHAMA COUNTY,1,6,0.25,0,1,7.25,0,0,FALSE
US,CA,96093,TRINITY COUNTY,1,6,0.25,0,1,7.25,0,0,FALSE
US,CA,96094,SISKIYOU CO LOCAL TAX SL,3,6,0.25,0,1,7.25,0,0,FALSE
US,CA,96095,SHASTA COUNTY,1,6,0.25,0,1,7.25,0,0,FALSE
US,CA,96096,SHASTA COUNTY,1,6,0.25,0,1,7.25,0,0,FALSE
US,CA,96097,YREKA,1,6,0.25,0.5,1,7.75,0,0,FALSE
US,CA,96099,REDDING,1,6,0.25,0,1,7.25,0,0,FALSE
US,CA,96101,ALTURAS,3,6,0.25,0,1,7.25,0,0,FALSE
US,CA,96103,PLUMAS COUNTY,5,6,0.25,0,1,7.25,0,0,FALSE
US,CA,96104,MODOC COUNTY,1,6,0.25,0,1,7.25,0,0,FALSE
US,CA,96105,PLUMAS COUNTY,1,6,0.25,0,1,7.25,0,0,FALSE
US,CA,96106,PLUMAS COUNTY,1,6,0.25,0,1,7.25,0,0,FALSE
US,CA,96107,MONO COUNTY,2,6,0.25,0,1,7.25,0,0,FALSE
US,CA,96108,MODOC COUNTY,2,6,0.25,0,1,7.25,0,0,FALSE
US,CA,96109,LASSEN COUNTY,1,6,0.25,0,1,7.25,0,0,FALSE
US,CA,96110,MODOC COUNTY,1,6,0.25,0,1,7.25,0,0,FALSE
US,CA,96111,NEVADA COUNTY,2,6,0.25,0,1.25,7.5,0,0,FALSE
US,CA,96112,MODOC COUNTY,1,6,0.25,0,1,7.25,0,0,FALSE
US,CA,96113,LASSEN COUNTY,2,6,0.25,0,1,7.25,0,0,FALSE
US,CA,96114,LASSEN COUNTY,1,6,0.25,0,1,7.25,0,0,FALSE
US,CA,96115,MODOC COUNTY,1,6,0.25,0,1,7.25,0,0,FALSE
US,CA,96116,MODOC COUNTY,1,6,0.25,0,1,7.25,0,0,FALSE
US,CA,96117,LASSEN COUNTY,1,6,0.25,0,1,7.25,0,0,FALSE
US,CA,96118,LOYALTON,1,6,0.25,0,1,7.25,0,0,FALSE
US,CA,96119,LASSEN COUNTY,1,6,0.25,0,1,7.25,0,0,FALSE
US,CA,96120,ALPINE COUNTY,6,6,0.25,0,1,7.25,0,0,FALSE
US,CA,96121,LASSEN COUNTY,1,6,0.25,0,1,7.25,0,0,FALSE
US,CA,96122,PORTOLA,2,6,0.25,0,1,7.25,0,0,FALSE
US,CA,96123,LASSEN COUNTY,1,6,0.25,0,1,7.25,0,0,FALSE
US,CA,96124,SIERRA COUNTY,2,6,0.25,0,1,7.25,0,0,FALSE
US,CA,96125,SIERRA COUNTY,2,6,0.25,0,1,7.25,0,0,FALSE
US,CA,96126,SIERRA COUNTY,1,6,0.25,0,1,7.25,0,0,FALSE
US,CA,96127,LASSEN COUNTY,1,6,0.25,0,1,7.25,0,0,FALSE
US,CA,96128,LASSEN COUNTY,1,6,0.25,0,1,7.25,0,0,FALSE
US,CA,96129,PLUMAS COUNTY,2,6,0.25,0,1,7.25,0,0,FALSE
US,CA,96130,SUSANVILLE,3,6,0.25,0,1,7.25,0,0,FALSE
US,CA,96132,LASSEN COUNTY,1,6,0.25,0,1,7.25,0,0,FALSE
US,CA,96133,MONO COUNTY,1,6,0.25,0,1,7.25,0,0,FALSE
US,CA,96134,MODOC COUNTY,3,6,0.25,0,1,7.25,0,0,FALSE
US,CA,96135,PLUMAS COUNTY,1,6,0.25,0,1,7.25,0,0,FALSE
US,CA,96136,LASSEN COUNTY,1,6,0.25,0,1,7.25,0,0,FALSE
US,CA,96137,PLUMAS COUNTY,3,6,0.25,0,1,7.25,0,0,FALSE
US,CA,96140,PLACER COUNTY NORTH TAHOE AREA,6,6,0.25,0,1,7.25,0,0,FALSE
US,CA,96141,PLACER COUNTY NORTH TAHOE AREA,2,6,0.25,0,1,7.25,0,0,FALSE
US,CA,96142,EL DORADO COUNTY,3,6,0.25,0,1,7.25,0,0,FALSE
US,CA,96143,PLACER COUNTY NORTH TAHOE AREA,2,6,0.25,0,1,7.25,0,0,FALSE
US,CA,96145,PLACER COUNTY NORTH TAHOE AREA,2,6,0.25,0,1,7.25,0,0,FALSE
US,CA,96146,PLACER COUNTY NORTH TAHOE AREA,3,6,0.25,0,1,7.25,0,0,FALSE
US,CA,96148,PLACER COUNTY NORTH TAHOE AREA,1,6,0.25,0,1,7.25,0,0,FALSE
US,CA,96150,SOUTH LAKE TAHOE NON REDEVELOPMENT AREA,1,6,0.25,0.5,1,7.75,0,0,FALSE
US,CA,96151,SOUTH LAKE TAHOE NON REDEVELOPMENT AREA,2,6,0.25,0.5,1,7.75,0,0,FALSE
US,CA,96152,SOUTH LAKE TAHOE NON REDEVELOPMENT AREA,1,6,0.25,0.5,1,7.75,0,0,FALSE
US,CA,96154,SOUTH LAKE TAHOE NON REDEVELOPMENT AREA,1,6,0.25,0.5,1,7.75,0,0,FALSE
US,CA,96155,EL DORADO COUNTY,3,6,0.25,0,1,7.25,0,0,FALSE
US,CA,96157,EL DORADO COUNTY,1,6,0.25,0,1,7.25,0,0,FALSE
US,CA,96158,SOUTH LAKE TAHOE NON REDEVELOPMENT AREA,2,6,0.25,0.5,1,7.75,0,0,FALSE
US,CA,96160,TRUCKEE TOURISM BUSINESS IMPROVEMENT DISTRICT,1,6,0.25,0.75,1.25,8.25,0,0,FALSE
US,CA,96161,TRUCKEE TOURISM BUSINESS IMPROVEMENT DISTRICT,8,6,0.25,0.75,1.25,8.25,0,0,FALSE
US,CA,96162,TRUCKEE TOURISM BUSINESS IMPROVEMENT DISTRICT,1,6,0.25,0.75,1.25,8.25,0,0,FALSE
