country,state,zipcode,tax_region_name,RiskLevel,state_rate,county_rate,city_rate,special_rate,combined_rate,medicinal_excise,adult_excise,has_medical_excise
US,CO,80001,ARVADA (JEFFERSON CO),1,2.9,0.5,3.46,1.1,7.96,0,0,FALSE
US,CO,80002,ARVADA (JEFFERSON CO),1,2.9,0.5,3.46,1.1,7.96,0,0,FALSE
US,CO,80003,ARVADA (JEFFERSON CO),4,2.9,0.5,3.46,1.1,7.96,0,0,FALSE
US,CO,80004,ARVADA (JEFFERSON CO),1,2.9,0.5,3.46,1.1,7.96,0,0,FALSE
US,CO,80005,ARVADA (JEFFERSON CO),4,2.9,0.5,3.46,1.1,7.96,0,0,FALSE
US,CO,80006,ARVADA (JEFFERSON CO),1,2.9,0.5,3.46,1.1,7.96,0,0,FALSE
US,CO,80007,ARVADA (JEFFERSON CO),1,2.9,0.5,3.46,1.1,7.96,0,0,FALSE
US,CO,80010,AURORA (ADAMS CO),2,2.9,0.75,3.75,1.1,8.5,0,0,FALSE
US,CO,80011,AURORA (ARAPAHOE CO),2,2.9,0.25,3.75,1.1,8,0,0,FALSE
US,CO,80012,AURORA (ARAPAHOE CO),4,2.9,0.25,3.75,1.1,8,0,0,FALSE
US,CO,80013,AURORA (ARAPAHOE CO),2,2.9,0.25,3.75,1.1,8,0,0,FALSE
US,CO,80014,AURORA (ARAPAHOE CO),4,2.9,0.25,3.75,1.1,8,0,0,FALSE
US,CO,80015,AURORA (ARAPAHOE CO),4,2.9,0.25,3.75,1.1,8,0,0,FALSE
US,CO,80016,AURORA (ARAPAHOE CO),5,2.9,0.25,3.75,1.1,8,0,0,FALSE
US,CO,80017,AURORA (ARAPAHOE CO),2,2.9,0.25,3.75,1.1,8,0,0,FALSE
US,CO,80018,AURORA CD ONLY,2,2.9,0.25,3.75,0.1,7,0,0,FALSE
US,CO,80019,AURORA (ADAMS CO),2,2.9,0.75,3.75,1.1,8.5,0,0,FALSE
US,CO,80020,BROOMFIELD,4,2.9,0,4.15,1.1,8.15,0,0,FALSE
US,CO,80021,WESTMINSTER (JEFFERSON CO),4,2.9,0.5,3.85,1.1,8.35,0,0,FALSE
US,CO,80022,COMMERCE,4,2.9,0.75,4.5,1.1,9.25,0,0,FALSE
US,CO,80023,BROOMFIELD,5,2.9,0,4.15,1.1,8.15,0,0,FALSE
US,CO,80024,BROOMFIELD,1,2.9,0,4.15,1.1,8.15,0,0,FALSE
US,CO,80025,BOULDER CO REMAINDER,1,2.9,0.985,0,1.1,4.985,0,0,FALSE
US,CO,80026,LAFAYETTE,1,2.9,0.985,3.5,1.1,8.485,0,0,FALSE
US,CO,80027,LOUISVILLE,2,2.9,0.985,3.65,1.1,8.635,0,0,FALSE
US,CO,80030,WESTMINSTER (ADAMS CO),3,2.9,0.75,3.85,1.1,8.6,0,0,FALSE
US,CO,80031,WESTMINSTER (ADAMS CO),3,2.9,0.75,3.85,1.1,8.6,0,0,FALSE
US,CO,80033,WHEAT RIDGE,3,2.9,0.5,3.5,1.1,8,0,0,FALSE
US,CO,80034,WHEAT RIDGE,2,2.9,0.5,3.5,1.1,8,0,0,FALSE
US,CO,80035,WESTMINSTER (ADAMS CO),3,2.9,0.75,3.85,1.1,8.6,0,0,FALSE
US,CO,80036,WESTMINSTER (ADAMS CO),3,2.9,0.75,3.85,1.1,8.6,0,0,FALSE
US,CO,80037,COMMERCE,1,2.9,0.75,4.5,1.1,9.25,0,0,FALSE
US,CO,80038,BROOMFIELD,3,2.9,0,4.15,1.1,8.15,0,0,FALSE
US,CO,80040,AURORA (ADAMS CO),2,2.9,0.75,3.75,1.1,8.5,0,0,FALSE
US,CO,80041,AURORA (ARAPAHOE CO),2,2.9,0.25,3.75,1.1,8,0,0,FALSE
US,CO,80042,AURORA (ADAMS CO),2,2.9,0.75,3.75,1.1,8.5,0,0,FALSE
US,CO,80044,AURORA (ADAMS CO),2,2.9,0.75,3.75,1.1,8.5,0,0,FALSE
US,CO,80045,AURORA (ADAMS CO),2,2.9,0.75,3.75,1.1,8.5,0,0,FALSE
US,CO,80046,CENTENNIAL,2,2.9,0.25,2.5,1.1,6.75,0,0,FALSE
US,CO,80047,AURORA (ARAPAHOE CO),2,2.9,0.25,3.75,1.1,8,0,0,FALSE
US,CO,80101,ELBERT COUNTY,1,2.9,1,0,0,3.9,0,0,FALSE
US,CO,80102,ADAMS CO REMAINDER CULTUR,1,2.9,0.75,0,0.1,3.75,0,0,FALSE
US,CO,80103,ARAPAHOE CO REMAIND CULTU,1,2.9,0.25,0,0.1,3.25,0,0,FALSE
US,CO,80104,CASTLE ROCK,1,2.9,1,4,0,7.9,0,0,FALSE
US,CO,80105,ARAPAHOE CO REMAIND CULTU,1,2.9,0.25,0,0.1,3.25,0,0,FALSE
US,CO,80106,EL PASO COUNTY / RTA,2,2.9,1.23,0,1,5.13,0,0,FALSE
US,CO,80107,ELBERT COUNTY,1,2.9,1,0,0,3.9,0,0,FALSE
US,CO,80108,CASTLE ROCK,2,2.9,1,4,0,7.9,0,0,FALSE
US,CO,80109,CASTLE ROCK,1,2.9,1,4,0,7.9,0,0,FALSE
US,CO,80110,ENGLEWOOD,5,2.9,0.25,3.5,1.1,7.75,0,0,FALSE
US,CO,80111,GREENWOOD VILLAGE,6,2.9,0.25,3,1.1,7.25,0,0,FALSE
US,CO,80112,CENTENNIAL,6,2.9,0.25,2.5,1.1,6.75,0,0,FALSE
US,CO,80113,ENGLEWOOD,3,2.9,0.25,3.5,1.1,7.75,0,0,FALSE
US,CO,80116,DOUGLAS COUNTY / CD,1,2.9,1,0,0.1,4,0,0,FALSE
US,CO,80117,ELBERT COUNTY,1,2.9,1,0,0,3.9,0,0,FALSE
US,CO,80118,DOUGLAS COUNTY / CD,1,2.9,1,0,0.1,4,0,0,FALSE
US,CO,80120,LITTLETON (ARAPAHOE CO),3,2.9,0.25,3,1.1,7.25,0,0,FALSE
US,CO,80121,CENTENNIAL,8,2.9,0.25,2.5,1.1,6.75,0,0,FALSE
US,CO,80122,CENTENNIAL,4,2.9,0.25,2.5,1.1,6.75,0,0,FALSE
US,CO,80123,DENVER,10,2.9,0,4.31,1.1,8.31,0,0,FALSE
US,CO,80124,LONE TREE,5,2.9,1,1.8125,1.1,6.8125,0,0,FALSE
US,CO,80125,DOUGLAS COUNTY / CD,4,2.9,1,0,0.1,4,0,0,FALSE
US,CO,80126,HIGHLANDS RANCH,4,2.9,1,0,1.1,5,0,0,FALSE
US,CO,80127,JEFFERSON CO S E LID,5,2.9,0.5,0,1.6,5,0,0,FALSE
US,CO,80128,JEFFERSON CO S E LID,3,2.9,0.5,0,1.6,5,0,0,FALSE
US,CO,80129,HIGHLANDS RANCH,4,2.9,1,0,1.1,5,0,0,FALSE
US,CO,80130,HIGHLANDS RANCH,4,2.9,1,0,1.1,5,0,0,FALSE
US,CO,80131,DOUGLAS COUNTY / CD,1,2.9,1,0,0.1,4,0,0,FALSE
US,CO,80132,EL PASO COUNTY / RTA,2,2.9,1.23,0,1,5.13,0,0,FALSE
US,CO,80133,PALMER LAKE,1,2.9,1.23,3,0,7.13,0,0,FALSE
US,CO,80134,DOUGLAS CO REMAINDER,3,2.9,1,0,1.1,5,0,0,FALSE
US,CO,80135,DOUGLAS COUNTY / CD,2,2.9,1,0,0.1,4,0,0,FALSE
US,CO,80136,ADAMS CO REMAINDER CULTUR,1,2.9,0.75,0,0.1,3.75,0,0,FALSE
US,CO,80137,ADAMS CO REMAINDER CULTUR,1,2.9,0.75,0,0.1,3.75,0,0,FALSE
US,CO,80138,PARKER,1,2.9,1,3,1.1,8,0,0,FALSE
US,CO,80150,ENGLEWOOD,2,2.9,0.25,3.5,1.1,7.75,0,0,FALSE
US,CO,80151,ENGLEWOOD,1,2.9,0.25,3.5,1.1,7.75,0,0,FALSE
US,CO,80155,CENTENNIAL,2,2.9,0.25,2.5,1.1,6.75,0,0,FALSE
US,CO,80160,LITTLETON (ARAPAHOE CO),3,2.9,0.25,3,1.1,7.25,0,0,FALSE
US,CO,80161,LITTLETON (ARAPAHOE CO),4,2.9,0.25,3,1.1,7.25,0,0,FALSE
US,CO,80162,JEFFERSON CO S E LID,3,2.9,0.5,0,1.6,5,0,0,FALSE
US,CO,80163,HIGHLANDS RANCH,4,2.9,1,0,1.1,5,0,0,FALSE
US,CO,80165,LITTLETON (ARAPAHOE CO),3,2.9,0.25,3,1.1,7.25,0,0,FALSE
US,CO,80166,LITTLETON (ARAPAHOE CO),3,2.9,0.25,3,1.1,7.25,0,0,FALSE
US,CO,80201,DENVER,1,2.9,0,4.31,1.1,8.31,0,0,FALSE
US,CO,80202,DENVER,1,2.9,0,4.31,1.1,8.31,0,0,FALSE
US,CO,80203,DENVER,1,2.9,0,4.31,1.1,8.31,0,0,FALSE
US,CO,80204,DENVER,1,2.9,0,4.31,1.1,8.31,0,0,FALSE
US,CO,80205,DENVER,1,2.9,0,4.31,1.1,8.31,0,0,FALSE
US,CO,80206,DENVER,1,2.9,0,4.31,1.1,8.31,0,0,FALSE
US,CO,80207,DENVER,1,2.9,0,4.31,1.1,8.31,0,0,FALSE
US,CO,80208,DENVER,1,2.9,0,4.31,1.1,8.31,0,0,FALSE
US,CO,80209,DENVER,1,2.9,0,4.31,1.1,8.31,0,0,FALSE
US,CO,80210,DENVER,1,2.9,0,4.31,1.1,8.31,0,0,FALSE
US,CO,80211,DENVER,1,2.9,0,4.31,1.1,8.31,0,0,FALSE
US,CO,80212,DENVER,3,2.9,0,4.31,1.1,8.31,0,0,FALSE
US,CO,80214,LAKEWOOD,5,2.9,0.5,3,1.1,7.5,0,0,FALSE
US,CO,80215,LAKEWOOD,4,2.9,0.5,3,1.1,7.5,0,0,FALSE
US,CO,80216,DENVER,1,2.9,0,4.31,1.1,8.31,0,0,FALSE
US,CO,80217,DENVER,1,2.9,0,4.31,1.1,8.31,0,0,FALSE
US,CO,80218,DENVER,1,2.9,0,4.31,1.1,8.31,0,0,FALSE
US,CO,80219,DENVER,1,2.9,0,4.31,1.1,8.31,0,0,FALSE
US,CO,80220,DENVER,1,2.9,0,4.31,1.1,8.31,0,0,FALSE
US,CO,80221,ADAMS CO REMAINDER,8,2.9,0.75,0,1.1,4.75,0,0,FALSE
US,CO,80222,DENVER,1,2.9,0,4.31,1.1,8.31,0,0,FALSE
US,CO,80223,DENVER,1,2.9,0,4.31,1.1,8.31,0,0,FALSE
US,CO,80224,DENVER,1,2.9,0,4.31,1.1,8.31,0,0,FALSE
US,CO,80225,LAKEWOOD,3,2.9,0.5,3,1.1,7.5,0,0,FALSE
US,CO,80226,LAKEWOOD,3,2.9,0.5,3,1.1,7.5,0,0,FALSE
US,CO,80227,LAKEWOOD,3,2.9,0.5,3,1.1,7.5,0,0,FALSE
US,CO,80228,LAKEWOOD,3,2.9,0.5,3,1.1,7.5,0,0,FALSE
US,CO,80229,THORNTON,5,2.9,0.75,3.75,1.1,8.5,0,0,FALSE
US,CO,80230,DENVER,3,2.9,0,4.31,1.1,8.31,0,0,FALSE
US,CO,80231,DENVER,1,2.9,0,4.31,1.1,8.31,0,0,FALSE
US,CO,80232,LAKEWOOD,3,2.9,0.5,3,1.1,7.5,0,0,FALSE
US,CO,80233,NORTHGLENN (ADAMS CO),6,2.9,0.75,4,1.1,8.75,0,0,FALSE
US,CO,80234,WESTMINSTER (ADAMS CO),10,2.9,0.75,3.85,1.1,8.6,0,0,FALSE
US,CO,80235,LAKEWOOD,3,2.9,0.5,3,1.1,7.5,0,0,FALSE
US,CO,80236,DENVER,4,2.9,0,4.31,1.1,8.31,0,0,FALSE
US,CO,80237,DENVER,1,2.9,0,4.31,1.1,8.31,0,0,FALSE
US,CO,80238,DENVER,2,2.9,0,4.31,1.1,8.31,0,0,FALSE
US,CO,80239,DENVER,1,2.9,0,4.31,1.1,8.31,0,0,FALSE
US,CO,80241,THORNTON,8,2.9,0.75,3.75,1.1,8.5,0,0,FALSE
US,CO,80243,DENVER,1,2.9,0,4.31,1.1,8.31,0,0,FALSE
US,CO,80246,GLENDALE,2,2.9,0.25,3.75,1.1,8,0,0,FALSE
US,CO,80247,DENVER,4,2.9,0,4.31,1.1,8.31,0,0,FALSE
US,CO,80248,DENVER,1,2.9,0,4.31,1.1,8.31,0,0,FALSE
US,CO,80249,DENVER,1,2.9,0,4.31,1.1,8.31,0,0,FALSE
US,CO,80250,DENVER,1,2.9,0,4.31,1.1,8.31,0,0,FALSE
US,CO,80256,DENVER,1,2.9,0,4.31,1.1,8.31,0,0,FALSE
US,CO,80257,DENVER,1,2.9,0,4.31,1.1,8.31,0,0,FALSE
US,CO,80259,DENVER,1,2.9,0,4.31,1.1,8.31,0,0,FALSE
US,CO,80260,FEDERAL HEIGHTS,8,2.9,0.75,4,1.1,8.75,0,0,FALSE
US,CO,80261,DENVER,1,2.9,0,4.31,1.1,8.31,0,0,FALSE
US,CO,80263,DENVER,1,2.9,0,4.31,1.1,8.31,0,0,FALSE
US,CO,80264,DENVER,1,2.9,0,4.31,1.1,8.31,0,0,FALSE
US,CO,80265,DENVER,1,2.9,0,4.31,1.1,8.31,0,0,FALSE
US,CO,80266,DENVER,1,2.9,0,4.31,1.1,8.31,0,0,FALSE
US,CO,80271,DENVER,1,2.9,0,4.31,1.1,8.31,0,0,FALSE
US,CO,80273,DENVER,1,2.9,0,4.31,1.1,8.31,0,0,FALSE
US,CO,80274,DENVER,1,2.9,0,4.31,1.1,8.31,0,0,FALSE
US,CO,80281,DENVER,1,2.9,0,4.31,1.1,8.31,0,0,FALSE
US,CO,80290,DENVER,1,2.9,0,4.31,1.1,8.31,0,0,FALSE
US,CO,80291,DENVER,1,2.9,0,4.31,1.1,8.31,0,0,FALSE
US,CO,80293,DENVER,1,2.9,0,4.31,1.1,8.31,0,0,FALSE
US,CO,80294,DENVER,1,2.9,0,4.31,1.1,8.31,0,0,FALSE
US,CO,80295,DENVER,1,2.9,0,4.31,1.1,8.31,0,0,FALSE
US,CO,80299,DENVER,1,2.9,0,4.31,1.1,8.31,0,0,FALSE
US,CO,80301,BOULDER,1,2.9,0.985,3.86,1.1,8.845,0,0,FALSE
US,CO,80302,BOULDER,1,2.9,0.985,3.86,1.1,8.845,0,0,FALSE
US,CO,80303,BOULDER,1,2.9,0.985,3.86,1.1,8.845,0,0,FALSE
US,CO,80304,BOULDER,1,2.9,0.985,3.86,1.1,8.845,0,0,FALSE
US,CO,80305,BOULDER,1,2.9,0.985,3.86,1.1,8.845,0,0,FALSE
US,CO,80306,BOULDER,1,2.9,0.985,3.86,1.1,8.845,0,0,FALSE
US,CO,80307,BOULDER,1,2.9,0.985,3.86,1.1,8.845,0,0,FALSE
US,CO,80308,BOULDER,1,2.9,0.985,3.86,1.1,8.845,0,0,FALSE
US,CO,80309,BROOMFIELD,1,2.9,0,4.15,1.1,8.15,0,0,FALSE
US,CO,80310,BOULDER,1,2.9,0.985,3.86,1.1,8.845,0,0,FALSE
US,CO,80314,BOULDER,1,2.9,0.985,3.86,1.1,8.845,0,0,FALSE
US,CO,80401,JEFFERSON CO REMAINDER,4,2.9,0.5,0,1.1,4.5,0,0,FALSE
US,CO,80402,GOLDEN,1,2.9,0.5,3,1.1,7.5,0,0,FALSE
US,CO,80403,JEFFERSON CO REMAINDER,4,2.9,0.5,0,1.1,4.5,0,0,FALSE
US,CO,80419,GOLDEN,1,2.9,0.5,3,1.1,7.5,0,0,FALSE
US,CO,80420,ALMA,1,2.9,1,3,1,7.9,0,0,FALSE
US,CO,80421,PARK COUNTY,1,2.9,1,0,0,3.9,0,0,FALSE
US,CO,80422,GILPIN COUNTY,3,2.9,0,0,0,2.9,0,0,FALSE
US,CO,80423,EAGLE COUNTY,1,2.9,1,0,0.5,4.4,0,0,FALSE
US,CO,80424,BRECKENRIDGE,2,2.9,2,2.5,1.475,8.875,0,0,FALSE
US,CO,80425,EL PASO COUNTY / RTA,1,2.9,1.23,0,1,5.13,0,0,FALSE
US,CO,80426,EAGLE COUNTY,1,2.9,1,0,0.5,4.4,0,0,FALSE
US,CO,80427,CENTRAL,1,2.9,0,6,0,8.9,0,0,FALSE
US,CO,80428,ROUTT COUNTY,1,2.9,1,0,0,3.9,0,0,FALSE
US,CO,80429,LAKE COUNTY,1,2.9,4,0,0,6.9,0,0,FALSE
US,CO,80430,JACKSON COUNTY,1,2.9,4,0,0,6.9,0,0,FALSE
US,CO,80432,PARK CO SOUTH PARK HSD,2,2.9,1,0,1,4.9,0,0,FALSE
US,CO,80433,JEFFERSON CO REMAINDER,3,2.9,0.5,0,1.1,4.5,0,0,FALSE
US,CO,80434,JACKSON COUNTY,1,2.9,4,0,0,6.9,0,0,FALSE
US,CO,80435,DILLON,2,2.9,2,2.5,1.475,8.875,0,0,FALSE
US,CO,80436,GRAND COUNTY,1,2.9,1.3,0,0,4.2,0,0,FALSE
US,CO,80437,JEFFERSON CO REMAINDER,1,2.9,0.5,0,1.1,4.5,0,0,FALSE
US,CO,80438,EMPIRE,1,2.9,1.65,5,0,9.55,0,0,FALSE
US,CO,80439,JEFFERSON CO REMAINDER,2,2.9,0.5,0,1.1,4.5,0,0,FALSE
US,CO,80440,PARK CO SOUTH PARK HSD,1,2.9,1,0,1,4.9,0,0,FALSE
US,CO,80442,FRASER,1,2.9,1.3,5,0,9.2,0,0,FALSE
US,CO,80443,FRISCO,1,2.9,2,2,1.475,8.375,0,0,FALSE
US,CO,80444,GEORGETOWN,1,2.9,1.65,4.5,0,9.05,0,0,FALSE
US,CO,80446,GRANBY,2,2.9,1.3,4,0,8.2,0,0,FALSE
US,CO,80447,GRAND COUNTY,1,2.9,1.3,0,0,4.2,0,0,FALSE
US,CO,80448,PARK CO SOUTH PARK HSD,1,2.9,1,0,1,4.9,0,0,FALSE
US,CO,80449,PARK CO SOUTH PARK HSD,1,2.9,1,0,1,4.9,0,0,FALSE
US,CO,80451,HOT SULPHUR SPGS,1,2.9,1.3,4,0,8.2,0,0,FALSE
US,CO,80452,CLEAR CREEK COUNTY,1,2.9,1.65,0,0,4.55,0,0,FALSE
US,CO,80453,JEFFERSON CO REMAINDER,1,2.9,0.5,0,1.1,4.5,0,0,FALSE
US,CO,80454,JEFFERSON CO REMAINDER,1,2.9,0.5,0,1.1,4.5,0,0,FALSE
US,CO,80455,BOULDER CO REMAINDER,1,2.9,0.985,0,1.1,4.985,0,0,FALSE
US,CO,80456,PARK CO SOUTH PARK HSD,3,2.9,1,0,1,4.9,0,0,FALSE
US,CO,80457,JEFFERSON CO REMAINDER,1,2.9,0.5,0,1.1,4.5,0,0,FALSE
US,CO,80459,GRAND COUNTY,1,2.9,1.3,0,0,4.2,0,0,FALSE
US,CO,80461,LAKE COUNTY,1,2.9,4,0,0,6.9,0,0,FALSE
US,CO,80463,EAGLE COUNTY,1,2.9,1,0,0.5,4.4,0,0,FALSE
US,CO,80465,JEFFERSON CO REMAINDER,1,2.9,0.5,0,1.1,4.5,0,0,FALSE
US,CO,80466,BOULDER CO REMAINDER,1,2.9,0.985,0,1.1,4.985,0,0,FALSE
US,CO,80467,ROUTT COUNTY,1,2.9,1,0,0,3.9,0,0,FALSE
US,CO,80468,GRAND COUNTY,1,2.9,1.3,0,0,4.2,0,0,FALSE
US,CO,80469,ROUTT COUNTY,1,2.9,1,0,0,3.9,0,0,FALSE
US,CO,80470,JEFFERSON CO REMAINDER,1,2.9,0.5,0,1.1,4.5,0,0,FALSE
US,CO,80471,BROOMFIELD,1,2.9,0,4.15,1.1,8.15,0,0,FALSE
US,CO,80473,GRAND COUNTY,1,2.9,1.3,0,0,4.2,0,0,FALSE
US,CO,80474,GILPIN COUNTY,1,2.9,0,0,0,2.9,0,0,FALSE
US,CO,80475,PARK COUNTY,1,2.9,1,0,0,3.9,0,0,FALSE
US,CO,80476,SILVER PLUME,1,2.9,1.65,3,0,7.55,0,0,FALSE
US,CO,80477,STEAMBOAT SPRINGS LOCAL MARKETING DISTRICT,2,2.9,1,4.5,0,8.4,0,0,FALSE
US,CO,80478,GRAND COUNTY,1,2.9,1.3,0,0,4.2,0,0,FALSE
US,CO,80479,ROUTT COUNTY,1,2.9,1,0,0,3.9,0,0,FALSE
US,CO,80480,JACKSON COUNTY,1,2.9,4,0,0,6.9,0,0,FALSE
US,CO,80481,BOULDER CO REMAINDER,1,2.9,0.985,0,1.1,4.985,0,0,FALSE
US,CO,80482,WINTER PARK VILLAGE MASTER ASSOCIATION,1,2.9,1.3,7,0,11.2,0,0,FALSE
US,CO,80483,ROUTT COUNTY,1,2.9,1,0,0,3.9,0,0,FALSE
US,CO,80487,STEAMBOAT SPRINGS LOCAL MARKETING DISTRICT,2,2.9,1,4.5,0,8.4,0,0,FALSE
US,CO,80497,SILVERTHORNE,1,2.9,2,2,1.475,8.375,0,0,FALSE
US,CO,80498,SILVERTHORNE,2,2.9,2,2,1.475,8.375,0,0,FALSE
US,CO,80501,LONGMONT,2,2.9,0.985,3.53,1.1,8.515,0,0,FALSE
US,CO,80502,LONGMONT,2,2.9,0.985,3.53,1.1,8.515,0,0,FALSE
US,CO,80503,LONGMONT,3,2.9,0.985,3.53,1.1,8.515,0,0,FALSE
US,CO,80504,LONGMONT,6,2.9,0.985,3.53,1.1,8.515,0,0,FALSE
US,CO,80510,BOULDER CO REMAINDER,1,2.9,0.985,0,1.1,4.985,0,0,FALSE
US,CO,80511,ESTES PARK LOCAL MARKETING DISTRICT,1,2.9,0.8,0,0,3.7,0,0,FALSE
US,CO,80512,ESTES PARK LOCAL MARKETING DISTRICT,1,2.9,0.8,0,0,3.7,0,0,FALSE
US,CO,80513,ESTES PARK LOCAL MARKETING DISTRICT,1,2.9,0.8,0,0,3.7,0,0,FALSE
US,CO,80514,DACONO,3,2.9,0,3,0,5.9,0,0,FALSE
US,CO,80515,ESTES PARK LOCAL MARKETING DISTRICT,3,2.9,0.8,0,0,3.7,0,0,FALSE
US,CO,80516,ERIE (WELD CO),3,2.9,0,3.5,1,7.4,0,0,FALSE
US,CO,80517,ESTES PARK,2,2.9,0.8,5,0,8.7,0,0,FALSE
US,CO,80520,FIRESTONE,1,2.9,0,3.6,0,6.5,0,0,FALSE
US,CO,80521,FORT COLLINS,1,2.9,0.8,3.85,0,7.55,0,0,FALSE
US,CO,80522,FORT COLLINS,1,2.9,0.8,3.85,0,7.55,0,0,FALSE
US,CO,80523,FORT COLLINS,1,2.9,0.8,3.85,0,7.55,0,0,FALSE
US,CO,80524,FORT COLLINS,3,2.9,0.8,3.85,0,7.55,0,0,FALSE
US,CO,80525,FORT COLLINS,1,2.9,0.8,3.85,0,7.55,0,0,FALSE
US,CO,80526,FORT COLLINS,1,2.9,0.8,3.85,0,7.55,0,0,FALSE
US,CO,80527,FORT COLLINS,1,2.9,0.8,3.85,0,7.55,0,0,FALSE
US,CO,80528,FORT COLLINS,4,2.9,0.8,3.85,0,7.55,0,0,FALSE
US,CO,80530,FREDERICK,2,2.9,0,2.5,0,5.4,0,0,FALSE
US,CO,80532,ESTES PARK LOCAL MARKETING DISTRICT,1,2.9,0.8,0,0,3.7,0,0,FALSE
US,CO,80533,BOULDER CO REMAINDER,1,2.9,0.985,0,1.1,4.985,0,0,FALSE
US,CO,80534,JOHNSTOWN,3,2.9,0,3,0,5.9,0,0,FALSE
US,CO,80535,ESTES PARK LOCAL MARKETING DISTRICT,1,2.9,0.8,0,0,3.7,0,0,FALSE
US,CO,80536,ESTES PARK LOCAL MARKETING DISTRICT,2,2.9,0.8,0,0,3.7,0,0,FALSE
US,CO,80537,LOVELAND,2,2.9,0.8,3,0,6.7,0,0,FALSE
US,CO,80538,LOVELAND,2,2.9,0.8,3,0,6.7,0,0,FALSE
US,CO,80539,LOVELAND,2,2.9,0.8,3,0,6.7,0,0,FALSE
US,CO,80540,ESTES PARK LOCAL MARKETING DISTRICT,1,2.9,0.8,0,0,3.7,0,0,FALSE
US,CO,80541,BROOMFIELD,1,2.9,0,4.15,1.1,8.15,0,0,FALSE
US,CO,80542,MEAD,1,2.9,0,2,0,4.9,0,0,FALSE
US,CO,80543,MILLIKEN,1,2.9,0,2.5,0,5.4,0,0,FALSE
US,CO,80544,BOULDER CO NIWOT LID,2,2.9,0.985,0,2.1,5.985,0,0,FALSE
US,CO,80545,ESTES PARK LOCAL MARKETING DISTRICT,1,2.9,0.8,0,0,3.7,0,0,FALSE
US,CO,80546,SEVERANCE,2,2.9,0,3,0,5.9,0,0,FALSE
US,CO,80547,TIMNATH,1,2.9,0.8,3,0,6.7,0,0,FALSE
US,CO,80549,WELLINGTON,1,2.9,0.8,3,0,6.7,0,0,FALSE
US,CO,80550,WINDSOR,3,2.9,0,3.95,0,6.85,0,0,FALSE
US,CO,80551,WINDSOR,2,2.9,0,3.95,0,6.85,0,0,FALSE
US,CO,80553,FORT COLLINS,1,2.9,0.8,3.85,0,7.55,0,0,FALSE
US,CO,80601,BRIGHTON (ADAMS CO),4,2.9,0.75,3.75,1.1,8.5,0,0,FALSE
US,CO,80602,THORNTON,4,2.9,0.75,3.75,1.1,8.5,0,0,FALSE
US,CO,80603,ADAMS CO REMAINDER,3,2.9,0.75,0,1.1,4.75,0,0,FALSE
US,CO,80610,WELD COUNTY,3,2.9,0,0,0,2.9,0,0,FALSE
US,CO,80611,WELD COUNTY,1,2.9,0,0,0,2.9,0,0,FALSE
US,CO,80612,WELD COUNTY,1,2.9,0,0,0,2.9,0,0,FALSE
US,CO,80614,THORNTON,1,2.9,0.75,3.75,1.1,8.5,0,0,FALSE
US,CO,80615,EATON,3,2.9,0,3,0,5.9,0,0,FALSE
US,CO,80620,EVANS,1,2.9,0,3.5,0,6.4,0,0,FALSE
US,CO,80621,FORT LUPTON,2,2.9,0,4,0,6.9,0,0,FALSE
US,CO,80622,WELD COUNTY,1,2.9,0,0,0,2.9,0,0,FALSE
US,CO,80623,GILCREST,1,2.9,0,4,0,6.9,0,0,FALSE
US,CO,80624,WELD COUNTY,1,2.9,0,0,0,2.9,0,0,FALSE
US,CO,80631,GREELEY,2,2.9,0,4.11,0,7.01,0,0,FALSE
US,CO,80632,GREELEY,1,2.9,0,4.11,0,7.01,0,0,FALSE
US,CO,80633,GREELEY,1,2.9,0,4.11,0,7.01,0,0,FALSE
US,CO,80634,GREELEY,2,2.9,0,4.11,0,7.01,0,0,FALSE
US,CO,80638,GREELEY,1,2.9,0,4.11,0,7.01,0,0,FALSE
US,CO,80639,GREELEY,1,2.9,0,4.11,0,7.01,0,0,FALSE
US,CO,80640,COMMERCE,1,2.9,0.75,4.5,1.1,9.25,0,0,FALSE
US,CO,80642,WELD COUNTY,1,2.9,0,0,0,2.9,0,0,FALSE
US,CO,80643,WELD COUNTY,1,2.9,0,0,0,2.9,0,0,FALSE
US,CO,80644,WELD COUNTY,1,2.9,0,0,0,2.9,0,0,FALSE
US,CO,80645,WELD COUNTY,2,2.9,0,0,0,2.9,0,0,FALSE
US,CO,80646,WELD COUNTY,1,2.9,0,0,0,2.9,0,0,FALSE
US,CO,80648,NUNN,1,2.9,0,2,0,4.9,0,0,FALSE
US,CO,80649,MORGAN COUNTY,1,2.9,0,0,0,2.9,0,0,FALSE
US,CO,80650,WELD COUNTY,1,2.9,0,0,0,2.9,0,0,FALSE
US,CO,80651,WELD COUNTY,1,2.9,0,0,0,2.9,0,0,FALSE
US,CO,80652,WELD COUNTY,1,2.9,0,0,0,2.9,0,0,FALSE
US,CO,80653,MORGAN COUNTY,1,2.9,0,0,0,2.9,0,0,FALSE
US,CO,80654,MORGAN COUNTY,2,2.9,0,0,0,2.9,0,0,FALSE
US,CO,80701,FORT MORGAN,1,2.9,0,4,0,6.9,0,0,FALSE
US,CO,80705,LOG LANE VILLAGE,2,2.9,0,3,0,5.9,0,0,FALSE
US,CO,80720,AKRON,1,2.9,1.5,2.5,0,6.9,0,0,FALSE
US,CO,80721,PHILLIPS COUNTY,1,2.9,1,0,0,3.9,0,0,FALSE
US,CO,80722,LOGAN COUNTY,1,2.9,1,0,0,3.9,0,0,FALSE
US,CO,80723,BRUSH,1,2.9,0,4,0,6.9,0,0,FALSE
US,CO,80726,LOGAN COUNTY,1,2.9,1,0,0,3.9,0,0,FALSE
US,CO,80727,YUMA COUNTY,1,2.9,0,0,0,2.9,0,0,FALSE
US,CO,80728,LOGAN COUNTY,1,2.9,1,0,0,3.9,0,0,FALSE
US,CO,80729,WELD COUNTY,1,2.9,0,0,0,2.9,0,0,FALSE
US,CO,80731,HAXTUN,1,2.9,1,3.5,0,7.4,0,0,FALSE
US,CO,80732,WELD COUNTY,1,2.9,0,0,0,2.9,0,0,FALSE
US,CO,80733,HILLROSE,1,2.9,0,0,0,2.9,0,0,FALSE
US,CO,80734,HOLYOKE,1,2.9,1,1.5,0,5.4,0,0,FALSE
US,CO,80735,YUMA COUNTY,2,2.9,0,0,0,2.9,0,0,FALSE
US,CO,80736,LOGAN COUNTY,1,2.9,1,0,0,3.9,0,0,FALSE
US,CO,80737,JULESBURG,1,2.9,2,1,0,5.9,0,0,FALSE
US,CO,80740,WASHINGTON COUNTY,1,2.9,1.5,0,0,4.4,0,0,FALSE
US,CO,80741,LOGAN COUNTY,2,2.9,1,0,0,3.9,0,0,FALSE
US,CO,80742,WELD COUNTY,1,2.9,0,0,0,2.9,0,0,FALSE
US,CO,80743,WASHINGTON COUNTY,1,2.9,1.5,0,0,4.4,0,0,FALSE
US,CO,80744,SEDGWICK COUNTY,1,2.9,2,0,0,4.9,0,0,FALSE
US,CO,80745,LOGAN COUNTY,1,2.9,1,0,0,3.9,0,0,FALSE
US,CO,80746,PAOLI,2,2.9,1,0,0,3.9,0,0,FALSE
US,CO,80747,LOGAN COUNTY,1,2.9,1,0,0,3.9,0,0,FALSE
US,CO,80749,SEDGWICK COUNTY,1,2.9,2,0,0,4.9,0,0,FALSE
US,CO,80750,MORGAN COUNTY,1,2.9,0,0,0,2.9,0,0,FALSE
US,CO,80751,STERLING,1,2.9,1,3,0.1,7,0,0,FALSE
US,CO,80754,WELD COUNTY,1,2.9,0,0,0,2.9,0,0,FALSE
US,CO,80755,YUMA COUNTY,1,2.9,0,0,0,2.9,0,0,FALSE
US,CO,80757,WASHINGTON COUNTY,2,2.9,1.5,0,0,4.4,0,0,FALSE
US,CO,80758,WRAY,2,2.9,0,2.5,0,5.4,0,0,FALSE
US,CO,80759,YUMA,1,2.9,0,3,0,5.9,0,0,FALSE
US,CO,80801,WASHINGTON COUNTY,2,2.9,1.5,0,0,4.4,0,0,FALSE
US,CO,80802,CHEYENNE COUNTY,1,2.9,0,0,0,2.9,0,0,FALSE
US,CO,80804,ARRIBA,1,2.9,2,0,0,4.9,0,0,FALSE
US,CO,80805,KIT CARSON COUNTY,1,2.9,0,0,0,2.9,0,0,FALSE
US,CO,80807,BURLINGTON,1,2.9,0,2,0,4.9,0,0,FALSE
US,CO,80808,EL PASO COUNTY / RTA,2,2.9,1.23,0,1,5.13,0,0,FALSE
US,CO,80809,EL PASO COUNTY / RTA,2,2.9,1.23,0,1,5.13,0,0,FALSE
US,CO,80810,CHEYENNE WELLS,1,2.9,0,2,0,4.9,0,0,FALSE
US,CO,80812,WASHINGTON COUNTY,1,2.9,1.5,0,0,4.4,0,0,FALSE
US,CO,80813,TELLER COUNTY,1,2.9,1,0,0,3.9,0,0,FALSE
US,CO,80814,TELLER,1,2.9,1,0,0.5,4.4,0,0,FALSE
US,CO,80815,FLAGLER,1,2.9,0,2,0,4.9,0,0,FALSE
US,CO,80816,TELLER,2,2.9,1,0,0.5,4.4,0,0,FALSE
US,CO,80817,FOUNTAIN,1,2.9,1.23,3.75,0,7.88,0,0,FALSE
US,CO,80818,LINCOLN COUNTY,2,2.9,2,0,0,4.9,0,0,FALSE
US,CO,80819,EL PASO COUNTY / RTA,2,2.9,1.23,0,1,5.13,0,0,FALSE
US,CO,80820,PARK COUNTY,1,2.9,1,0,0,3.9,0,0,FALSE
US,CO,80821,LINCOLN COUNTY,3,2.9,2,0,0,4.9,0,0,FALSE
US,CO,80822,YUMA COUNTY,1,2.9,0,0,0,2.9,0,0,FALSE
US,CO,80823,LINCOLN COUNTY,1,2.9,2,0,0,4.9,0,0,FALSE
US,CO,80824,YUMA COUNTY,1,2.9,0,0,0,2.9,0,0,FALSE
US,CO,80825,CHEYENNE COUNTY,1,2.9,0,0,0,2.9,0,0,FALSE
US,CO,80826,LINCOLN COUNTY,1,2.9,2,0,0,4.9,0,0,FALSE
US,CO,80827,PARK,2,2.9,1,0,0.5,4.4,0,0,FALSE
US,CO,80828,LIMON,1,2.9,2,2,0,6.9,0,0,FALSE
US,CO,80829,MANITOU SPRINGS,2,2.9,1.23,3.6,1,8.73,0,0,FALSE
US,CO,80830,ELBERT COUNTY,1,2.9,1,0,0,3.9,0,0,FALSE
US,CO,80831,EL PASO COUNTY / RTA,2,2.9,1.23,0,1,5.13,0,0,FALSE
US,CO,80832,ELBERT COUNTY,1,2.9,1,0,0,3.9,0,0,FALSE
US,CO,80833,EL PASO COUNTY / RTA,1,2.9,1.23,0,1,5.13,0,0,FALSE
US,CO,80834,KIT CARSON COUNTY,1,2.9,0,0,0,2.9,0,0,FALSE
US,CO,80835,ELBERT COUNTY,1,2.9,1,0,0,3.9,0,0,FALSE
US,CO,80836,KIT CARSON COUNTY,1,2.9,0,0,0,2.9,0,0,FALSE
US,CO,80840,EL PASO COUNTY / RTA,1,2.9,1.23,0,1,5.13,0,0,FALSE
US,CO,80841,EL PASO COUNTY / RTA,1,2.9,1.23,0,1,5.13,0,0,FALSE
US,CO,80860,VICTOR,3,2.9,1,3,0,6.9,0,0,FALSE
US,CO,80861,KIT CARSON COUNTY,1,2.9,0,0,0,2.9,0,0,FALSE
US,CO,80862,CHEYENNE COUNTY,2,2.9,0,0,0,2.9,0,0,FALSE
US,CO,80863,WOODLAND PARK,3,2.9,1,4.09,0.5,8.49,0,0,FALSE
US,CO,80864,EL PASO COUNTY / RTA,3,2.9,1.23,0,1,5.13,0,0,FALSE
US,CO,80866,WOODLAND PARK,1,2.9,1,4.09,0.5,8.49,0,0,FALSE
US,CO,80901,COLORADO SPRINGS,1,2.9,1.23,3.12,1,8.25,0,0,FALSE
US,CO,80902,EL PASO COUNTY / RTA,2,2.9,1.23,0,1,5.13,0,0,FALSE
US,CO,80903,COLORADO SPRINGS,1,2.9,1.23,3.12,1,8.25,0,0,FALSE
US,CO,80904,COLORADO SPRINGS,1,2.9,1.23,3.12,1,8.25,0,0,FALSE
US,CO,80905,COLORADO SPRINGS,1,2.9,1.23,3.12,1,8.25,0,0,FALSE
US,CO,80906,COLORADO SPRINGS,2,2.9,1.23,3.12,1,8.25,0,0,FALSE
US,CO,80907,COLORADO SPRINGS,1,2.9,1.23,3.12,1,8.25,0,0,FALSE
US,CO,80908,EL PASO COUNTY / RTA,2,2.9,1.23,0,1,5.13,0,0,FALSE
US,CO,80909,COLORADO SPRINGS,1,2.9,1.23,3.12,1,8.25,0,0,FALSE
US,CO,80910,COLORADO SPRINGS,1,2.9,1.23,3.12,1,8.25,0,0,FALSE
US,CO,80911,EL PASO COUNTY / RTA,3,2.9,1.23,0,1,5.13,0,0,FALSE
US,CO,80912,EL PASO COUNTY / RTA,1,2.9,1.23,0,1,5.13,0,0,FALSE
US,CO,80913,EL PASO COUNTY / RTA,2,2.9,1.23,0,1,5.13,0,0,FALSE
US,CO,80914,COLORADO SPRINGS,2,2.9,1.23,3.12,1,8.25,0,0,FALSE
US,CO,80915,EL PASO COUNTY / RTA,2,2.9,1.23,0,1,5.13,0,0,FALSE
US,CO,80916,COLORADO SPRINGS,1,2.9,1.23,3.12,1,8.25,0,0,FALSE
US,CO,80917,COLORADO SPRINGS,1,2.9,1.23,3.12,1,8.25,0,0,FALSE
US,CO,80918,COLORADO SPRINGS,1,2.9,1.23,3.12,1,8.25,0,0,FALSE
US,CO,80919,COLORADO SPRINGS,2,2.9,1.23,3.12,1,8.25,0,0,FALSE
US,CO,80920,COLORADO SPRINGS,1,2.9,1.23,3.12,1,8.25,0,0,FALSE
US,CO,80921,EL PASO COUNTY / RTA,1,2.9,1.23,0,1,5.13,0,0,FALSE
US,CO,80922,COLORADO SPRINGS,2,2.9,1.23,3.12,1,8.25,0,0,FALSE
US,CO,80923,COLORADO SPRINGS,2,2.9,1.23,3.12,1,8.25,0,0,FALSE
US,CO,80924,COLORADO SPRINGS,1,2.9,1.23,3.12,1,8.25,0,0,FALSE
US,CO,80925,EL PASO COUNTY / RTA,2,2.9,1.23,0,1,5.13,0,0,FALSE
US,CO,80926,EL PASO COUNTY / RTA,1,2.9,1.23,0,1,5.13,0,0,FALSE
US,CO,80927,COLORADO SPRINGS,2,2.9,1.23,3.12,1,8.25,0,0,FALSE
US,CO,80928,EL PASO COUNTY / RTA,2,2.9,1.23,0,1,5.13,0,0,FALSE
US,CO,80929,EL PASO COUNTY / RTA,2,2.9,1.23,0,1,5.13,0,0,FALSE
US,CO,80930,EL PASO COUNTY / RTA,2,2.9,1.23,0,1,5.13,0,0,FALSE
US,CO,80931,EL PASO COUNTY / RTA,2,2.9,1.23,0,1,5.13,0,0,FALSE
US,CO,80932,COLORADO SPRINGS,1,2.9,1.23,3.12,1,8.25,0,0,FALSE
US,CO,80933,COLORADO SPRINGS,1,2.9,1.23,3.12,1,8.25,0,0,FALSE
US,CO,80934,COLORADO SPRINGS,1,2.9,1.23,3.12,1,8.25,0,0,FALSE
US,CO,80935,COLORADO SPRINGS,1,2.9,1.23,3.12,1,8.25,0,0,FALSE
US,CO,80936,COLORADO SPRINGS,1,2.9,1.23,3.12,1,8.25,0,0,FALSE
US,CO,80937,COLORADO SPRINGS,1,2.9,1.23,3.12,1,8.25,0,0,FALSE
US,CO,80938,COLORADO SPRINGS,2,2.9,1.23,3.12,1,8.25,0,0,FALSE
US,CO,80939,EL PASO COUNTY / RTA,2,2.9,1.23,0,1,5.13,0,0,FALSE
US,CO,80941,COLORADO SPRINGS,1,2.9,1.23,3.12,1,8.25,0,0,FALSE
US,CO,80942,COLORADO SPRINGS,1,2.9,1.23,3.12,1,8.25,0,0,FALSE
US,CO,80946,COLORADO SPRINGS,1,2.9,1.23,3.12,1,8.25,0,0,FALSE
US,CO,80947,COLORADO SPRINGS,1,2.9,1.23,3.12,1,8.25,0,0,FALSE
US,CO,80949,COLORADO SPRINGS,2,2.9,1.23,3.12,1,8.25,0,0,FALSE
US,CO,80950,COLORADO SPRINGS,1,2.9,1.23,3.12,1,8.25,0,0,FALSE
US,CO,80951,EL PASO COUNTY / RTA,2,2.9,1.23,0,1,5.13,0,0,FALSE
US,CO,80960,COLORADO SPRINGS,1,2.9,1.23,3.12,1,8.25,0,0,FALSE
US,CO,80962,COLORADO SPRINGS,1,2.9,1.23,3.12,1,8.25,0,0,FALSE
US,CO,80970,EL PASO COUNTY / RTA,2,2.9,1.23,0,1,5.13,0,0,FALSE
US,CO,80977,EL PASO COUNTY / RTA,1,2.9,1.23,0,1,5.13,0,0,FALSE
US,CO,80997,COLORADO SPRINGS,1,2.9,1.23,3.12,1,8.25,0,0,FALSE
US,CO,81001,PUEBLO,3,2.9,1,3.7,0,7.6,0,0,FALSE
US,CO,81002,PUEBLO,1,2.9,1,3.7,0,7.6,0,0,FALSE
US,CO,81003,PUEBLO,1,2.9,1,3.7,0,7.6,0,0,FALSE
US,CO,81004,PUEBLO,2,2.9,1,3.7,0,7.6,0,0,FALSE
US,CO,81005,PUEBLO,1,2.9,1,3.7,0,7.6,0,0,FALSE
US,CO,81006,PUEBLO COUNTY,4,2.9,1,0,0,3.9,0,0,FALSE
US,CO,81007,PUEBLO COUNTY,2,2.9,1,0,0,3.9,0,0,FALSE
US,CO,81008,PUEBLO,2,2.9,1,3.7,0,7.6,0,0,FALSE
US,CO,81009,PUEBLO,1,2.9,1,3.7,0,7.6,0,0,FALSE
US,CO,81010,PUEBLO,1,2.9,1,3.7,0,7.6,0,0,FALSE
US,CO,81011,PUEBLO,1,2.9,1,3.7,0,7.6,0,0,FALSE
US,CO,81012,PUEBLO,1,2.9,1,3.7,0,7.6,0,0,FALSE
US,CO,81019,PUEBLO COUNTY,2,2.9,1,0,0,3.9,0,0,FALSE
US,CO,81020,LAS ANIMAS COUNTY,1,2.9,1.5,0,0,4.4,0,0,FALSE
US,CO,81021,KIOWA COUNTY,1,2.9,0,0,0,2.9,0,0,FALSE
US,CO,81022,PUEBLO COUNTY,3,2.9,1,0,0,3.9,0,0,FALSE
US,CO,81023,PUEBLO COUNTY,1,2.9,1,0,0,3.9,0,0,FALSE
US,CO,81024,LAS ANIMAS COUNTY,1,2.9,1.5,0,0,4.4,0,0,FALSE
US,CO,81025,PUEBLO COUNTY,1,2.9,1,0,0,3.9,0,0,FALSE
US,CO,81027,LAS ANIMAS COUNTY,1,2.9,1.5,0,0,4.4,0,0,FALSE
US,CO,81029,BACA COUNTY,1,2.9,0,0,0,2.9,0,0,FALSE
US,CO,81030,OTERO COUNTY,1,2.9,1,0,0,3.9,0,0,FALSE
US,CO,81033,OTERO COUNTY,1,2.9,1,0,0,3.9,0,0,FALSE
US,CO,81034,OTERO COUNTY,1,2.9,1,0,0,3.9,0,0,FALSE
US,CO,81036,KIOWA COUNTY,1,2.9,0,0,0,2.9,0,0,FALSE
US,CO,81039,FOWLER,1,2.9,1,3,0,6.9,0,0,FALSE
US,CO,81040,HUERFANO COUNTY,1,2.9,2,0,0,4.9,0,0,FALSE
US,CO,81041,PROWERS COUNTY,3,2.9,1,0,0,3.9,0,0,FALSE
US,CO,81043,HARTMAN,1,2.9,1,0,0,3.9,0,0,FALSE
US,CO,81044,BENT COUNTY,1,2.9,1,0,0,3.9,0,0,FALSE
US,CO,81045,CHEYENNE COUNTY,1,2.9,0,0,0,2.9,0,0,FALSE
US,CO,81046,LAS ANIMAS COUNTY,1,2.9,1.5,0,0,4.4,0,0,FALSE
US,CO,81047,PROWERS COUNTY,3,2.9,1,0,0,3.9,0,0,FALSE
US,CO,81049,LAS ANIMAS COUNTY,2,2.9,1.5,0,0,4.4,0,0,FALSE
US,CO,81050,LA JUNTA,9,2.9,1,3,1,7.9,0,0,FALSE
US,CO,81052,LAMAR,7,2.9,1,3,0,6.9,0,0,FALSE
US,CO,81054,LAS ANIMAS,1,2.9,1,3,0,6.9,0,0,FALSE
US,CO,81055,HUERFANO COUNTY,1,2.9,2,0,0,4.9,0,0,FALSE
US,CO,81057,BENT COUNTY,1,2.9,1,0,0,3.9,0,0,FALSE
US,CO,81058,OTERO COUNTY,1,2.9,1,0,0,3.9,0,0,FALSE
US,CO,81059,LAS ANIMAS COUNTY,4,2.9,1.5,0,0,4.4,0,0,FALSE
US,CO,81062,CROWLEY COUNTY,1,2.9,2,0,0,4.9,0,0,FALSE
US,CO,81063,ORDWAY,1,2.9,2,2,0,6.9,0,0,FALSE
US,CO,81064,BACA COUNTY,1,2.9,0,0,0,2.9,0,0,FALSE
US,CO,81067,ROCKY FORD,3,2.9,1,4,0,7.9,0,0,FALSE
US,CO,81069,PUEBLO COUNTY,6,2.9,1,0,0,3.9,0,0,FALSE
US,CO,81071,KIOWA COUNTY,1,2.9,0,0,0,2.9,0,0,FALSE
US,CO,81073,SPRINGFIELD,1,2.9,0,2,0,4.9,0,0,FALSE
US,CO,81076,CROWLEY COUNTY,1,2.9,2,0,0,4.9,0,0,FALSE
US,CO,81077,OTERO COUNTY,1,2.9,1,0,0,3.9,0,0,FALSE
US,CO,81081,LAS ANIMAS COUNTY,1,2.9,1.5,0,0,4.4,0,0,FALSE
US,CO,81082,TRINIDAD,8,2.9,1.5,4,0,8.4,0,0,FALSE
US,CO,81084,TWO BUTTES,1,2.9,0,0,0,2.9,0,0,FALSE
US,CO,81087,VILAS,1,2.9,0,0,0,2.9,0,0,FALSE
US,CO,81089,WALSENBURG,1,2.9,2,3,0,7.9,0,0,FALSE
US,CO,81090,BACA COUNTY,1,2.9,0,0,0,2.9,0,0,FALSE
US,CO,81091,LAS ANIMAS COUNTY,8,2.9,1.5,0,0,4.4,0,0,FALSE
US,CO,81092,BENT COUNTY,2,2.9,1,0,0,3.9,0,0,FALSE
US,CO,81101,ALAMOSA,8,2.9,3,2,0,7.9,0,0,FALSE
US,CO,81102,ALAMOSA,1,2.9,3,2,0,7.9,0,0,FALSE
US,CO,81120,CONEJOS COUNTY,1,2.9,0,0,0,2.9,0,0,FALSE
US,CO,81121,ARCHULETA COUNTY,3,2.9,4,0,0,6.9,0,0,FALSE
US,CO,81122,LA PLATA COUNTY,5,2.9,2,0,0,4.9,0,0,FALSE
US,CO,81123,COSTILLA COUNTY,1,2.9,1,0,0,3.9,0,0,FALSE
US,CO,81124,CONEJOS COUNTY,1,2.9,0,0,0,2.9,0,0,FALSE
US,CO,81125,SAGUACHE COUNTY,1,2.9,2.5,0,0,5.4,0,0,FALSE
US,CO,81126,LAS ANIMAS COUNTY,1,2.9,1.5,0,0,4.4,0,0,FALSE
US,CO,81128,ARCHULETA COUNTY,1,2.9,4,0,0,6.9,0,0,FALSE
US,CO,81129,CONEJOS COUNTY,1,2.9,0,0,0,2.9,0,0,FALSE
US,CO,81130,MINERAL COUNTY,2,2.9,2.6,0,0,5.5,0,0,FALSE
US,CO,81131,CRESTONE,1,2.9,2.5,3,0,8.4,0,0,FALSE
US,CO,81132,DEL NORTE,6,2.9,2.6,2,0,7.5,0,0,FALSE
US,CO,81133,COSTILLA COUNTY,3,2.9,1,0,0,3.9,0,0,FALSE
US,CO,81135,RIO GRANDE COUNTY,2,2.9,2.6,0,0,5.5,0,0,FALSE
US,CO,81136,ALAMOSA COUNTY LOCAL MARKETING DISTRICT,1,2.9,3,0,0,5.9,0,0,FALSE
US,CO,81137,LA PLATA COUNTY,4,2.9,2,0,0,4.9,0,0,FALSE
US,CO,81138,CONEJOS COUNTY,1,2.9,0,0,0,2.9,0,0,FALSE
US,CO,81140,CONEJOS COUNTY,1,2.9,0,0,0,2.9,0,0,FALSE
US,CO,81141,MANASSA,1,2.9,0,1,0,3.9,0,0,FALSE
US,CO,81143,SAGUACHE COUNTY,1,2.9,2.5,0,0,5.4,0,0,FALSE
US,CO,81144,MONTE VISTA,3,2.9,2.6,2,0,7.5,0,0,FALSE
US,CO,81146,ALAMOSA COUNTY LOCAL MARKETING DISTRICT,1,2.9,3,0,0,5.9,0,0,FALSE
US,CO,81147,ARCHULETA COUNTY,4,2.9,4,0,0,6.9,0,0,FALSE
US,CO,81148,ROMEO,1,2.9,0,1,0,3.9,0,0,FALSE
US,CO,81149,SAGUACHE,1,2.9,2.5,4,0,9.4,0,0,FALSE
US,CO,81151,SANFORD,1,2.9,0,0,0,2.9,0,0,FALSE
US,CO,81152,COSTILLA COUNTY,9,2.9,1,0,0,3.9,0,0,FALSE
US,CO,81154,RIO GRANDE COUNTY,4,2.9,2.6,0,0,5.5,0,0,FALSE
US,CO,81155,SAGUACHE COUNTY,1,2.9,2.5,0,0,5.4,0,0,FALSE
US,CO,81157,PAGOSA SPRINGS,1,2.9,4,0,0,6.9,0,0,FALSE
US,CO,81201,SALIDA,7,2.9,2.75,3,0,8.65,0,0,FALSE
US,CO,81210,GUNNISON CO TR,6,2.9,1,0,1,4.9,0,0,FALSE
US,CO,81211,CHAFFEE COUNTY,2,2.9,2.75,0,0,5.65,0,0,FALSE
US,CO,81212,CANON,7,2.9,2.5,3,0,8.4,0,0,FALSE
US,CO,81215,CANON,1,2.9,2.5,3,0,8.4,0,0,FALSE
US,CO,81220,GUNNISON CO TR,1,2.9,1,0,1,4.9,0,0,FALSE
US,CO,81221,COAL CREEK,1,2.9,2.5,0,0,5.4,0,0,FALSE
US,CO,81222,FREMONT COUNTY,1,2.9,2.5,0,0,5.4,0,0,FALSE
US,CO,81223,FREMONT COUNTY,2,2.9,2.5,0,0,5.4,0,0,FALSE
US,CO,81224,GUNNISON CO TR,2,2.9,1,0,1,4.9,0,0,FALSE
US,CO,81225,MOUNT CRESTED BUTTE,5,2.9,1,5,1,9.9,0,0,FALSE
US,CO,81226,FLORENCE,4,2.9,2.5,2.5,0,7.9,0,0,FALSE
US,CO,81227,PARK CO SOUTH PARK HSD,2,2.9,1,0,1,4.9,0,0,FALSE
US,CO,81230,GUNNISON,5,2.9,1,4,1,8.9,0,0,FALSE
US,CO,81231,GUNNISON,1,2.9,1,4,1,8.9,0,0,FALSE
US,CO,81232,SALIDA,1,2.9,2.75,3,0,8.65,0,0,FALSE
US,CO,81233,FREMONT COUNTY,1,2.9,2.5,0,0,5.4,0,0,FALSE
US,CO,81235,HINSDALE COUNTY,1,2.9,5,0,0,7.9,0,0,FALSE
US,CO,81236,CHAFFEE COUNTY,5,2.9,2.75,0,0,5.65,0,0,FALSE
US,CO,81237,GUNNISON CO TR,1,2.9,1,0,1,4.9,0,0,FALSE
US,CO,81239,GUNNISON CO TR,1,2.9,1,0,1,4.9,0,0,FALSE
US,CO,81240,FREMONT COUNTY,1,2.9,2.5,0,0,5.4,0,0,FALSE
US,CO,81241,PITKIN,1,2.9,1,3,0,6.9,0,0,FALSE
US,CO,81242,PONCHA SPRINGS,1,2.9,2.75,2,0,7.65,0,0,FALSE
US,CO,81243,GUNNISON CO TR,1,2.9,1,0,1,4.9,0,0,FALSE
US,CO,81244,ROCKVALE,1,2.9,2.5,0,0,5.4,0,0,FALSE
US,CO,81247,GUNNISON,1,2.9,1,4,1,8.9,0,0,FALSE
US,CO,81248,SAGUACHE COUNTY,1,2.9,2.5,0,0,5.4,0,0,FALSE
US,CO,81252,CUSTER COUNTY,5,2.9,2,0,0,4.9,0,0,FALSE
US,CO,81253,CUSTER COUNTY,3,2.9,2,0,0,4.9,0,0,FALSE
US,CO,81290,FLORENCE,1,2.9,2.5,2.5,0,7.9,0,0,FALSE
US,CO,81301,DURANGO,5,2.9,2,3.5,0,8.4,0,0,FALSE
US,CO,81302,DURANGO,1,2.9,2,3.5,0,8.4,0,0,FALSE
US,CO,81303,LA PLATA COUNTY,1,2.9,2,0,0,4.9,0,0,FALSE
US,CO,81320,SAN MIGUEL COUNTY,1,2.9,1,0,0,3.9,0,0,FALSE
US,CO,81321,CORTEZ,2,2.9,0,4.05,0.4,7.35,0,0,FALSE
US,CO,81323,MONTEZUMA COUNTY,3,2.9,0,0,0.4,3.3,0,0,FALSE
US,CO,81324,DOLORES COUNTY,1,2.9,0,0,0,2.9,0,0,FALSE
US,CO,81325,SAN MIGUEL COUNTY,2,2.9,1,0,0,3.9,0,0,FALSE
US,CO,81326,LA PLATA COUNTY,4,2.9,2,0,0,4.9,0,0,FALSE
US,CO,81327,MONTEZUMA COUNTY,1,2.9,0,0,0.4,3.3,0,0,FALSE
US,CO,81328,MONTEZUMA COUNTY,1,2.9,0,0,0.4,3.3,0,0,FALSE
US,CO,81329,LA PLATA COUNTY,1,2.9,2,0,0,4.9,0,0,FALSE
US,CO,81330,MONTEZUMA COUNTY,2,2.9,0,0,0.4,3.3,0,0,FALSE
US,CO,81331,MONTEZUMA COUNTY,1,2.9,0,0,0.4,3.3,0,0,FALSE
US,CO,81332,RICO,1,2.9,0,5,0,7.9,0,0,FALSE
US,CO,81334,MONTEZUMA COUNTY,1,2.9,0,0,0.4,3.3,0,0,FALSE
US,CO,81335,MONTEZUMA COUNTY,1,2.9,0,0,0.4,3.3,0,0,FALSE
US,CO,81401,MONTROSE,2,2.9,1,3.3,0.75,7.95,0,0,FALSE
US,CO,81402,MONTROSE,1,2.9,1,3.3,0.75,7.95,0,0,FALSE
US,CO,81403,MONTROSE COUNTY,1,2.9,1,0,0.75,4.65,0,0,FALSE
US,CO,81410,ORCHARD CITY,2,2.9,2,0,0,4.9,0,0,FALSE
US,CO,81411,MONTROSE COUNTY,1,2.9,1,0,0.75,4.65,0,0,FALSE
US,CO,81413,DELTA COUNTY,3,2.9,2,0,0,4.9,0,0,FALSE
US,CO,81414,ORCHARD CITY,2,2.9,2,0,0,4.9,0,0,FALSE
US,CO,81415,DELTA COUNTY,2,2.9,2,0,0,4.9,0,0,FALSE
US,CO,81416,DELTA,1,2.9,2,3,0,7.9,0,0,FALSE
US,CO,81418,ORCHARD CITY,2,2.9,2,0,0,4.9,0,0,FALSE
US,CO,81419,DELTA COUNTY,2,2.9,2,0,0,4.9,0,0,FALSE
US,CO,81420,DELTA COUNTY,1,2.9,2,0,0,4.9,0,0,FALSE
US,CO,81422,NATURITA,1,2.9,1,4,0.75,8.65,0,0,FALSE
US,CO,81423,SAN MIGUEL CO RTA,1,2.9,1,0,0.25,4.15,0,0,FALSE
US,CO,81424,NUCLA,1,2.9,1,4,0.75,8.65,0,0,FALSE
US,CO,81425,MONTROSE COUNTY,1,2.9,1,0,0.75,4.65,0,0,FALSE
US,CO,81426,SAN MIGUEL CO RTA,1,2.9,1,0,0.25,4.15,0,0,FALSE
US,CO,81427,OURAY,2,2.9,2.55,4,0,9.45,0,0,FALSE
US,CO,81428,DELTA COUNTY,2,2.9,2,0,0,4.9,0,0,FALSE
US,CO,81429,SAN MIGUEL COUNTY,1,2.9,1,0,0,3.9,0,0,FALSE
US,CO,81430,SAN MIGUEL CO RTA,2,2.9,1,0,0.25,4.15,0,0,FALSE
US,CO,81431,MONTROSE COUNTY,1,2.9,1,0,0.75,4.65,0,0,FALSE
US,CO,81432,OURAY COUNTY,1,2.9,2.55,0,0,5.45,0,0,FALSE
US,CO,81433,SILVERTON,1,2.9,6.5,1,0,10.4,0,0,FALSE
US,CO,81434,GUNNISON CO TR,2,2.9,1,0,1,4.9,0,0,FALSE
US,CO,81435,MOUNTAIN VILLAGE,4,2.9,1,4.5,0.25,8.65,0,0,FALSE
US,CO,81501,GRAND JUNCTION,1,2.9,2,2.75,0.37,8.02,0,0,FALSE
US,CO,81502,GRAND JUNCTION,1,2.9,2,2.75,0.37,8.02,0,0,FALSE
US,CO,81503,MESA COUNTY,1,2.9,2,0,0.37,5.27,0,0,FALSE
US,CO,81504,MESA COUNTY,2,2.9,2,0,0.37,5.27,0,0,FALSE
US,CO,81505,GRAND JUNCTION,2,2.9,2,2.75,0.37,8.02,0,0,FALSE
US,CO,81506,GRAND JUNCTION,1,2.9,2,2.75,0.37,8.02,0,0,FALSE
US,CO,81507,MESA COUNTY,1,2.9,2,0,0.37,5.27,0,0,FALSE
US,CO,81520,MESA COUNTY,1,2.9,2,0,0.37,5.27,0,0,FALSE
US,CO,81521,FRUITA,1,2.9,2,3,0.37,8.27,0,0,FALSE
US,CO,81522,MESA COUNTY,1,2.9,2,0,0.37,5.27,0,0,FALSE
US,CO,81523,MESA COUNTY,1,2.9,2,0,0.37,5.27,0,0,FALSE
US,CO,81524,MESA COUNTY,1,2.9,2,0,0.37,5.27,0,0,FALSE
US,CO,81525,MESA COUNTY,2,2.9,2,0,0.37,5.27,0,0,FALSE
US,CO,81526,PALISADE,2,2.9,2,2,0.37,7.27,0,0,FALSE
US,CO,81527,MESA COUNTY,1,2.9,2,0,0.37,5.27,0,0,FALSE
US,CO,81601,GLENWOOD SPRINGS,4,2.9,1,3.7,1,8.6,0,0,FALSE
US,CO,81602,GLENWOOD SPRINGS,2,2.9,1,3.7,1,8.6,0,0,FALSE
US,CO,81610,MOFFAT COUNTY LOCAL MARKETING DISTRICT,3,2.9,2,0,0,4.9,0,0,FALSE
US,CO,81611,ASPEN,2,2.9,3.1,2.4,0.9,9.3,0,0,FALSE
US,CO,81612,ASPEN,1,2.9,3.1,2.4,0.9,9.3,0,0,FALSE
US,CO,81615,SNOWMASS VILLAGE,2,2.9,3.1,3.5,0.9,10.4,0,0,FALSE
US,CO,81620,AVON,2,2.9,1,4,0.5,8.4,0,0,FALSE
US,CO,81621,BASALT (EAGLE CO),2,2.9,1,3,1.3,8.2,0,0,FALSE
US,CO,81623,CARBONDALE,5,2.9,1,3.5,1,8.4,0,0,FALSE
US,CO,81624,MESA COUNTY,2,2.9,2,0,0.37,5.27,0,0,FALSE
US,CO,81625,CRAIG,2,2.9,2,4,0,8.9,0,0,FALSE
US,CO,81630,MESA COUNTY,1,2.9,2,0,0.37,5.27,0,0,FALSE
US,CO,81631,EAGLE,1,2.9,1,4.5,0.5,8.9,0,0,FALSE
US,CO,81632,EDWARDS METRO DISTRICT,2,2.9,1,0,1.5,5.4,0,0,FALSE
US,CO,81633,MOFFAT COUNTY LOCAL MARKETING DISTRICT,2,2.9,2,0,0,4.9,0,0,FALSE
US,CO,81635,GARFIELD COUNTY,4,2.9,1,0,0,3.9,0,0,FALSE
US,CO,81637,EAGLE COUNTY,3,2.9,1,0,0.5,4.4,0,0,FALSE
US,CO,81638,MOFFAT COUNTY LOCAL MARKETING DISTRICT,2,2.9,2,0,0,4.9,0,0,FALSE
US,CO,81639,ROUTT COUNTY,1,2.9,1,0,0,3.9,0,0,FALSE
US,CO,81640,MOFFAT COUNTY LOCAL MARKETING DISTRICT,3,2.9,2,0,0,4.9,0,0,FALSE
US,CO,81641,MEEKER,2,2.9,3.6,0,0,6.5,0,0,FALSE
US,CO,81642,PITKIN CO REMAINDER,3,2.9,3.1,0,0.9,6.9,0,0,FALSE
US,CO,81643,MESA COUNTY,1,2.9,2,0,0.37,5.27,0,0,FALSE
US,CO,81645,MINTURN,2,2.9,1,4,0.5,8.4,0,0,FALSE
US,CO,81646,MESA COUNTY,1,2.9,2,0,0.37,5.27,0,0,FALSE
US,CO,81647,GARFIELD COUNTY,1,2.9,1,0,0,3.9,0,0,FALSE
US,CO,81648,RANGELY,1,2.9,3.6,0,0,6.5,0,0,FALSE
US,CO,81649,RED CLIFF,1,2.9,1,3,0.5,7.4,0,0,FALSE
US,CO,81650,RIFLE,4,2.9,1,4.25,0,8.15,0,0,FALSE
US,CO,81652,SILT,1,2.9,1,3,0,6.9,0,0,FALSE
US,CO,81653,ROUTT COUNTY,1,2.9,1,0,0,3.9,0,0,FALSE
US,CO,81654,PITKIN CO REMAINDER,2,2.9,3.1,0,0.9,6.9,0,0,FALSE
US,CO,81655,EAGLE COUNTY,1,2.9,1,0,0.5,4.4,0,0,FALSE
US,CO,81656,GUNNISON CO TR,1,2.9,1,0,1,4.9,0,0,FALSE
US,CO,81657,VAIL,3,2.9,1,4,0.5,8.4,0,0,FALSE
US,CO,81658,VAIL,1,2.9,1,4,0.5,8.4,0,0,FALSE
