country,state,zipcode,tax_region_name,RiskLevel,state_rate,county_rate,city_rate,special_rate,combined_rate,medicinal_excise,adult_excise,has_medical_excise
US,DC,20001,DISTRICT OF COLUMBIA,1,6,0,0,0,6,0,0,FALSE
US,DC,20002,DISTRICT OF COLUMBIA,1,6,0,0,0,6,0,0,FALSE
US,DC,20003,DISTRICT OF COLUMBIA,1,6,0,0,0,6,0,0,FALSE
US,DC,20004,DISTRICT OF COLUMBIA,1,6,0,0,0,6,0,0,FALSE
US,DC,20005,DISTRICT OF COLUMBIA,1,6,0,0,0,6,0,0,FALSE
US,DC,20006,DISTRICT OF COLUMBIA,1,6,0,0,0,6,0,0,FALSE
US,DC,20007,DISTRICT OF COLUMBIA,1,6,0,0,0,6,0,0,FALSE
US,DC,20008,DISTRICT OF COLUMBIA,1,6,0,0,0,6,0,0,FALSE
US,DC,20009,DISTRICT OF COLUMBIA,1,6,0,0,0,6,0,0,FALSE
US,DC,20010,DISTRICT OF COLUMBIA,1,6,0,0,0,6,0,0,FALSE
US,DC,20011,DISTRICT OF COLUMBIA,1,6,0,0,0,6,0,0,FALSE
US,DC,20012,DISTRICT OF COLUMBIA,1,6,0,0,0,6,0,0,FALSE
US,DC,20013,DISTRICT OF COLUMBIA,1,6,0,0,0,6,0,0,FALSE
US,DC,20015,DISTRICT OF COLUMBIA,1,6,0,0,0,6,0,0,FALSE
US,DC,20016,DISTRICT OF COLUMBIA,1,6,0,0,0,6,0,0,FALSE
US,DC,20017,DISTRICT OF COLUMBIA,1,6,0,0,0,6,0,0,FALSE
US,DC,20018,DISTRICT OF COLUMBIA,1,6,0,0,0,6,0,0,FALSE
US,DC,20019,DISTRICT OF COLUMBIA,1,6,0,0,0,6,0,0,FALSE
US,DC,20020,DISTRICT OF COLUMBIA,1,6,0,0,0,6,0,0,FALSE
US,DC,20022,DISTRICT OF COLUMBIA,1,6,0,0,0,6,0,0,FALSE
US,DC,20023,DISTRICT OF COLUMBIA,1,6,0,0,0,6,0,0,FALSE
US,DC,20024,DISTRICT OF COLUMBIA,1,6,0,0,0,6,0,0,FALSE
US,DC,20026,DISTRICT OF COLUMBIA,1,6,0,0,0,6,0,0,FALSE
US,DC,20027,DISTRICT OF COLUMBIA,1,6,0,0,0,6,0,0,FALSE
US,DC,20029,DISTRICT OF COLUMBIA,1,6,0,0,0,6,0,0,FALSE
US,DC,20030,DISTRICT OF COLUMBIA,1,6,0,0,0,6,0,0,FALSE
US,DC,20032,DISTRICT OF COLUMBIA,1,6,0,0,0,6,0,0,FALSE
US,DC,20033,DISTRICT OF COLUMBIA,1,6,0,0,0,6,0,0,FALSE
US,DC,20035,DISTRICT OF COLUMBIA,1,6,0,0,0,6,0,0,FALSE
US,DC,20036,DISTRICT OF COLUMBIA,1,6,0,0,0,6,0,0,FALSE
US,DC,20037,DISTRICT OF COLUMBIA,1,6,0,0,0,6,0,0,FALSE
US,DC,20038,DISTRICT OF COLUMBIA,1,6,0,0,0,6,0,0,FALSE
US,DC,20039,DISTRICT OF COLUMBIA,1,6,0,0,0,6,0,0,FALSE
US,DC,20040,DISTRICT OF COLUMBIA,1,6,0,0,0,6,0,0,FALSE
US,DC,20041,DISTRICT OF COLUMBIA,1,6,0,0,0,6,0,0,FALSE
US,DC,20042,DISTRICT OF COLUMBIA,1,6,0,0,0,6,0,0,FALSE
US,DC,20043,DISTRICT OF COLUMBIA,1,6,0,0,0,6,0,0,FALSE
US,DC,20044,DISTRICT OF COLUMBIA,1,6,0,0,0,6,0,0,FALSE
US,DC,20045,DISTRICT OF COLUMBIA,1,6,0,0,0,6,0,0,FALSE
US,DC,20047,DISTRICT OF COLUMBIA,1,6,0,0,0,6,0,0,FALSE
US,DC,20049,DISTRICT OF COLUMBIA,1,6,0,0,0,6,0,0,FALSE
US,DC,20051,DISTRICT OF COLUMBIA,1,6,0,0,0,6,0,0,FALSE
US,DC,20052,DISTRICT OF COLUMBIA,1,6,0,0,0,6,0,0,FALSE
US,DC,20053,DISTRICT OF COLUMBIA,1,6,0,0,0,6,0,0,FALSE
US,DC,20055,DISTRICT OF COLUMBIA,1,6,0,0,0,6,0,0,FALSE
US,DC,20056,DISTRICT OF COLUMBIA,1,6,0,0,0,6,0,0,FALSE
US,DC,20057,DISTRICT OF COLUMBIA,1,6,0,0,0,6,0,0,FALSE
US,DC,20058,DISTRICT OF COLUMBIA,1,6,0,0,0,6,0,0,FALSE
US,DC,20059,DISTRICT OF COLUMBIA,1,6,0,0,0,6,0,0,FALSE
US,DC,20060,DISTRICT OF COLUMBIA,1,6,0,0,0,6,0,0,FALSE
US,DC,20062,DISTRICT OF COLUMBIA,1,6,0,0,0,6,0,0,FALSE
US,DC,20063,DISTRICT OF COLUMBIA,1,6,0,0,0,6,0,0,FALSE
US,DC,20064,DISTRICT OF COLUMBIA,1,6,0,0,0,6,0,0,FALSE
US,DC,20065,DISTRICT OF COLUMBIA,1,6,0,0,0,6,0,0,FALSE
US,DC,20066,DISTRICT OF COLUMBIA,1,6,0,0,0,6,0,0,FALSE
US,DC,20068,DISTRICT OF COLUMBIA,1,6,0,0,0,6,0,0,FALSE
US,DC,20069,DISTRICT OF COLUMBIA,1,6,0,0,0,6,0,0,FALSE
US,DC,20070,DISTRICT OF COLUMBIA,1,6,0,0,0,6,0,0,FALSE
US,DC,20071,DISTRICT OF COLUMBIA,1,6,0,0,0,6,0,0,FALSE
US,DC,20073,DISTRICT OF COLUMBIA,1,6,0,0,0,6,0,0,FALSE
US,DC,20076,DISTRICT OF COLUMBIA,1,6,0,0,0,6,0,0,FALSE
US,DC,20080,DISTRICT OF COLUMBIA,1,6,0,0,0,6,0,0,FALSE
US,DC,20082,DISTRICT OF COLUMBIA,1,6,0,0,0,6,0,0,FALSE
US,DC,20088,DISTRICT OF COLUMBIA,1,6,0,0,0,6,0,0,FALSE
US,DC,20090,DISTRICT OF COLUMBIA,1,6,0,0,0,6,0,0,FALSE
US,DC,20091,DISTRICT OF COLUMBIA,1,6,0,0,0,6,0,0,FALSE
US,DC,20097,DISTRICT OF COLUMBIA,1,6,0,0,0,6,0,0,FALSE
US,DC,20098,DISTRICT OF COLUMBIA,1,6,0,0,0,6,0,0,FALSE
US,DC,20201,DISTRICT OF COLUMBIA,1,6,0,0,0,6,0,0,FALSE
US,DC,20202,DISTRICT OF COLUMBIA,1,6,0,0,0,6,0,0,FALSE
US,DC,20203,DISTRICT OF COLUMBIA,1,6,0,0,0,6,0,0,FALSE
US,DC,20204,DISTRICT OF COLUMBIA,1,6,0,0,0,6,0,0,FALSE
US,DC,20206,DISTRICT OF COLUMBIA,1,6,0,0,0,6,0,0,FALSE
US,DC,20207,DISTRICT OF COLUMBIA,1,6,0,0,0,6,0,0,FALSE
US,DC,20208,DISTRICT OF COLUMBIA,1,6,0,0,0,6,0,0,FALSE
US,DC,20210,DISTRICT OF COLUMBIA,1,6,0,0,0,6,0,0,FALSE
US,DC,20211,DISTRICT OF COLUMBIA,1,6,0,0,0,6,0,0,FALSE
US,DC,20212,DISTRICT OF COLUMBIA,1,6,0,0,0,6,0,0,FALSE
US,DC,20213,DISTRICT OF COLUMBIA,1,6,0,0,0,6,0,0,FALSE
US,DC,20214,DISTRICT OF COLUMBIA,1,6,0,0,0,6,0,0,FALSE
US,DC,20215,DISTRICT OF COLUMBIA,1,6,0,0,0,6,0,0,FALSE
US,DC,20216,DISTRICT OF COLUMBIA,1,6,0,0,0,6,0,0,FALSE
US,DC,20217,DISTRICT OF COLUMBIA,1,6,0,0,0,6,0,0,FALSE
US,DC,20218,DISTRICT OF COLUMBIA,1,6,0,0,0,6,0,0,FALSE
US,DC,20219,DISTRICT OF COLUMBIA,1,6,0,0,0,6,0,0,FALSE
US,DC,20220,DISTRICT OF COLUMBIA,1,6,0,0,0,6,0,0,FALSE
US,DC,20221,DISTRICT OF COLUMBIA,1,6,0,0,0,6,0,0,FALSE
US,DC,20222,DISTRICT OF COLUMBIA,1,6,0,0,0,6,0,0,FALSE
US,DC,20223,DISTRICT OF COLUMBIA,1,6,0,0,0,6,0,0,FALSE
US,DC,20224,DISTRICT OF COLUMBIA,1,6,0,0,0,6,0,0,FALSE
US,DC,20226,DISTRICT OF COLUMBIA,1,6,0,0,0,6,0,0,FALSE
US,DC,20227,DISTRICT OF COLUMBIA,1,6,0,0,0,6,0,0,FALSE
US,DC,20228,DISTRICT OF COLUMBIA,1,6,0,0,0,6,0,0,FALSE
US,DC,20229,DISTRICT OF COLUMBIA,1,6,0,0,0,6,0,0,FALSE
US,DC,20230,DISTRICT OF COLUMBIA,1,6,0,0,0,6,0,0,FALSE
US,DC,20232,DISTRICT OF COLUMBIA,1,6,0,0,0,6,0,0,FALSE
US,DC,20233,DISTRICT OF COLUMBIA,1,6,0,0,0,6,0,0,FALSE
US,DC,20235,DISTRICT OF COLUMBIA,1,6,0,0,0,6,0,0,FALSE
US,DC,20237,DISTRICT OF COLUMBIA,1,6,0,0,0,6,0,0,FALSE
US,DC,20238,DISTRICT OF COLUMBIA,1,6,0,0,0,6,0,0,FALSE
US,DC,20239,DISTRICT OF COLUMBIA,1,6,0,0,0,6,0,0,FALSE
US,DC,20240,DISTRICT OF COLUMBIA,1,6,0,0,0,6,0,0,FALSE
US,DC,20241,DISTRICT OF COLUMBIA,1,6,0,0,0,6,0,0,FALSE
US,DC,20242,DISTRICT OF COLUMBIA,1,6,0,0,0,6,0,0,FALSE
US,DC,20244,DISTRICT OF COLUMBIA,1,6,0,0,0,6,0,0,FALSE
US,DC,20245,DISTRICT OF COLUMBIA,1,6,0,0,0,6,0,0,FALSE
US,DC,20250,DISTRICT OF COLUMBIA,1,6,0,0,0,6,0,0,FALSE
US,DC,20252,DISTRICT OF COLUMBIA,1,6,0,0,0,6,0,0,FALSE
US,DC,20254,DISTRICT OF COLUMBIA,1,6,0,0,0,6,0,0,FALSE
US,DC,20260,DISTRICT OF COLUMBIA,1,6,0,0,0,6,0,0,FALSE
US,DC,20261,DISTRICT OF COLUMBIA,1,6,0,0,0,6,0,0,FALSE
US,DC,20262,DISTRICT OF COLUMBIA,1,6,0,0,0,6,0,0,FALSE
US,DC,20265,DISTRICT OF COLUMBIA,1,6,0,0,0,6,0,0,FALSE
US,DC,20266,DISTRICT OF COLUMBIA,1,6,0,0,0,6,0,0,FALSE
US,DC,20268,DISTRICT OF COLUMBIA,1,6,0,0,0,6,0,0,FALSE
US,DC,20270,DISTRICT OF COLUMBIA,1,6,0,0,0,6,0,0,FALSE
US,DC,20277,DISTRICT OF COLUMBIA,1,6,0,0,0,6,0,0,FALSE
US,DC,20289,DISTRICT OF COLUMBIA,1,6,0,0,0,6,0,0,FALSE
US,DC,20299,DISTRICT OF COLUMBIA,1,6,0,0,0,6,0,0,FALSE
US,DC,20301,DISTRICT OF COLUMBIA,1,6,0,0,0,6,0,0,FALSE
US,DC,20303,DISTRICT OF COLUMBIA,1,6,0,0,0,6,0,0,FALSE
US,DC,20306,DISTRICT OF COLUMBIA,1,6,0,0,0,6,0,0,FALSE
US,DC,20307,DISTRICT OF COLUMBIA,1,6,0,0,0,6,0,0,FALSE
US,DC,20310,DISTRICT OF COLUMBIA,1,6,0,0,0,6,0,0,FALSE
US,DC,20314,DISTRICT OF COLUMBIA,1,6,0,0,0,6,0,0,FALSE
US,DC,20317,DISTRICT OF COLUMBIA,1,6,0,0,0,6,0,0,FALSE
US,DC,20318,DISTRICT OF COLUMBIA,1,6,0,0,0,6,0,0,FALSE
US,DC,20319,DISTRICT OF COLUMBIA,1,6,0,0,0,6,0,0,FALSE
US,DC,20330,DISTRICT OF COLUMBIA,1,6,0,0,0,6,0,0,FALSE
US,DC,20340,DISTRICT OF COLUMBIA,1,6,0,0,0,6,0,0,FALSE
US,DC,20350,DISTRICT OF COLUMBIA,1,6,0,0,0,6,0,0,FALSE
US,DC,20355,DISTRICT OF COLUMBIA,1,6,0,0,0,6,0,0,FALSE
US,DC,20370,DISTRICT OF COLUMBIA,1,6,0,0,0,6,0,0,FALSE
US,DC,20372,DISTRICT OF COLUMBIA,1,6,0,0,0,6,0,0,FALSE
US,DC,20373,DISTRICT OF COLUMBIA,1,6,0,0,0,6,0,0,FALSE
US,DC,20374,DISTRICT OF COLUMBIA,1,6,0,0,0,6,0,0,FALSE
US,DC,20375,DISTRICT OF COLUMBIA,1,6,0,0,0,6,0,0,FALSE
US,DC,20376,DISTRICT OF COLUMBIA,1,6,0,0,0,6,0,0,FALSE
US,DC,20380,DISTRICT OF COLUMBIA,1,6,0,0,0,6,0,0,FALSE
US,DC,20388,DISTRICT OF COLUMBIA,1,6,0,0,0,6,0,0,FALSE
US,DC,20389,DISTRICT OF COLUMBIA,1,6,0,0,0,6,0,0,FALSE
US,DC,20390,DISTRICT OF COLUMBIA,1,6,0,0,0,6,0,0,FALSE
US,DC,20391,DISTRICT OF COLUMBIA,1,6,0,0,0,6,0,0,FALSE
US,DC,20392,DISTRICT OF COLUMBIA,1,6,0,0,0,6,0,0,FALSE
US,DC,20393,DISTRICT OF COLUMBIA,1,6,0,0,0,6,0,0,FALSE
US,DC,20394,DISTRICT OF COLUMBIA,1,6,0,0,0,6,0,0,FALSE
US,DC,20395,DISTRICT OF COLUMBIA,1,6,0,0,0,6,0,0,FALSE
US,DC,20398,DISTRICT OF COLUMBIA,1,6,0,0,0,6,0,0,FALSE
US,DC,20401,DISTRICT OF COLUMBIA,1,6,0,0,0,6,0,0,FALSE
US,DC,20402,DISTRICT OF COLUMBIA,1,6,0,0,0,6,0,0,FALSE
US,DC,20403,DISTRICT OF COLUMBIA,1,6,0,0,0,6,0,0,FALSE
US,DC,20404,DISTRICT OF COLUMBIA,1,6,0,0,0,6,0,0,FALSE
US,DC,20405,DISTRICT OF COLUMBIA,1,6,0,0,0,6,0,0,FALSE
US,DC,20406,DISTRICT OF COLUMBIA,1,6,0,0,0,6,0,0,FALSE
US,DC,20407,DISTRICT OF COLUMBIA,1,6,0,0,0,6,0,0,FALSE
US,DC,20408,DISTRICT OF COLUMBIA,1,6,0,0,0,6,0,0,FALSE
US,DC,20410,DISTRICT OF COLUMBIA,1,6,0,0,0,6,0,0,FALSE
US,DC,20411,DISTRICT OF COLUMBIA,1,6,0,0,0,6,0,0,FALSE
US,DC,20412,DISTRICT OF COLUMBIA,1,6,0,0,0,6,0,0,FALSE
US,DC,20413,DISTRICT OF COLUMBIA,1,6,0,0,0,6,0,0,FALSE
US,DC,20414,DISTRICT OF COLUMBIA,1,6,0,0,0,6,0,0,FALSE
US,DC,20415,DISTRICT OF COLUMBIA,1,6,0,0,0,6,0,0,FALSE
US,DC,20416,DISTRICT OF COLUMBIA,1,6,0,0,0,6,0,0,FALSE
US,DC,20417,DISTRICT OF COLUMBIA,1,6,0,0,0,6,0,0,FALSE
US,DC,20418,DISTRICT OF COLUMBIA,1,6,0,0,0,6,0,0,FALSE
US,DC,20419,DISTRICT OF COLUMBIA,1,6,0,0,0,6,0,0,FALSE
US,DC,20420,DISTRICT OF COLUMBIA,1,6,0,0,0,6,0,0,FALSE
US,DC,20421,DISTRICT OF COLUMBIA,1,6,0,0,0,6,0,0,FALSE
US,DC,20422,DISTRICT OF COLUMBIA,1,6,0,0,0,6,0,0,FALSE
US,DC,20423,DISTRICT OF COLUMBIA,1,6,0,0,0,6,0,0,FALSE
US,DC,20424,DISTRICT OF COLUMBIA,1,6,0,0,0,6,0,0,FALSE
US,DC,20425,DISTRICT OF COLUMBIA,1,6,0,0,0,6,0,0,FALSE
US,DC,20426,DISTRICT OF COLUMBIA,1,6,0,0,0,6,0,0,FALSE
US,DC,20427,DISTRICT OF COLUMBIA,1,6,0,0,0,6,0,0,FALSE
US,DC,20428,DISTRICT OF COLUMBIA,1,6,0,0,0,6,0,0,FALSE
US,DC,20429,DISTRICT OF COLUMBIA,1,6,0,0,0,6,0,0,FALSE
US,DC,20431,DISTRICT OF COLUMBIA,1,6,0,0,0,6,0,0,FALSE
US,DC,20433,DISTRICT OF COLUMBIA,1,6,0,0,0,6,0,0,FALSE
US,DC,20434,DISTRICT OF COLUMBIA,1,6,0,0,0,6,0,0,FALSE
US,DC,20435,DISTRICT OF COLUMBIA,1,6,0,0,0,6,0,0,FALSE
US,DC,20436,DISTRICT OF COLUMBIA,1,6,0,0,0,6,0,0,FALSE
US,DC,20437,DISTRICT OF COLUMBIA,1,6,0,0,0,6,0,0,FALSE
US,DC,20439,DISTRICT OF COLUMBIA,1,6,0,0,0,6,0,0,FALSE
US,DC,20440,DISTRICT OF COLUMBIA,1,6,0,0,0,6,0,0,FALSE
US,DC,20441,DISTRICT OF COLUMBIA,1,6,0,0,0,6,0,0,FALSE
US,DC,20442,DISTRICT OF COLUMBIA,1,6,0,0,0,6,0,0,FALSE
US,DC,20444,DISTRICT OF COLUMBIA,1,6,0,0,0,6,0,0,FALSE
US,DC,20447,DISTRICT OF COLUMBIA,1,6,0,0,0,6,0,0,FALSE
US,DC,20451,DISTRICT OF COLUMBIA,1,6,0,0,0,6,0,0,FALSE
US,DC,20453,DISTRICT OF COLUMBIA,1,6,0,0,0,6,0,0,FALSE
US,DC,20456,DISTRICT OF COLUMBIA,1,6,0,0,0,6,0,0,FALSE
US,DC,20460,DISTRICT OF COLUMBIA,1,6,0,0,0,6,0,0,FALSE
US,DC,20463,DISTRICT OF COLUMBIA,1,6,0,0,0,6,0,0,FALSE
US,DC,20468,DISTRICT OF COLUMBIA,1,6,0,0,0,6,0,0,FALSE
US,DC,20469,DISTRICT OF COLUMBIA,1,6,0,0,0,6,0,0,FALSE
US,DC,20470,DISTRICT OF COLUMBIA,1,6,0,0,0,6,0,0,FALSE
US,DC,20472,DISTRICT OF COLUMBIA,1,6,0,0,0,6,0,0,FALSE
US,DC,20500,DISTRICT OF COLUMBIA,1,6,0,0,0,6,0,0,FALSE
US,DC,20501,DISTRICT OF COLUMBIA,1,6,0,0,0,6,0,0,FALSE
US,DC,20502,DISTRICT OF COLUMBIA,1,6,0,0,0,6,0,0,FALSE
US,DC,20503,DISTRICT OF COLUMBIA,1,6,0,0,0,6,0,0,FALSE
US,DC,20504,DISTRICT OF COLUMBIA,1,6,0,0,0,6,0,0,FALSE
US,DC,20505,DISTRICT OF COLUMBIA,1,6,0,0,0,6,0,0,FALSE
US,DC,20506,DISTRICT OF COLUMBIA,1,6,0,0,0,6,0,0,FALSE
US,DC,20507,DISTRICT OF COLUMBIA,1,6,0,0,0,6,0,0,FALSE
US,DC,20508,DISTRICT OF COLUMBIA,1,6,0,0,0,6,0,0,FALSE
US,DC,20509,DISTRICT OF COLUMBIA,1,6,0,0,0,6,0,0,FALSE
US,DC,20510,DISTRICT OF COLUMBIA,1,6,0,0,0,6,0,0,FALSE
US,DC,20511,DISTRICT OF COLUMBIA,1,6,0,0,0,6,0,0,FALSE
US,DC,20515,DISTRICT OF COLUMBIA,1,6,0,0,0,6,0,0,FALSE
US,DC,20520,DISTRICT OF COLUMBIA,1,6,0,0,0,6,0,0,FALSE
US,DC,20521,DISTRICT OF COLUMBIA,1,6,0,0,0,6,0,0,FALSE
US,DC,20522,DISTRICT OF COLUMBIA,1,6,0,0,0,6,0,0,FALSE
US,DC,20523,DISTRICT OF COLUMBIA,1,6,0,0,0,6,0,0,FALSE
US,DC,20524,DISTRICT OF COLUMBIA,1,6,0,0,0,6,0,0,FALSE
US,DC,20525,DISTRICT OF COLUMBIA,1,6,0,0,0,6,0,0,FALSE
US,DC,20526,DISTRICT OF COLUMBIA,1,6,0,0,0,6,0,0,FALSE
US,DC,20527,DISTRICT OF COLUMBIA,1,6,0,0,0,6,0,0,FALSE
US,DC,20528,DISTRICT OF COLUMBIA,1,6,0,0,0,6,0,0,FALSE
US,DC,20529,DISTRICT OF COLUMBIA,1,6,0,0,0,6,0,0,FALSE
US,DC,20530,DISTRICT OF COLUMBIA,1,6,0,0,0,6,0,0,FALSE
US,DC,20531,DISTRICT OF COLUMBIA,1,6,0,0,0,6,0,0,FALSE
US,DC,20533,DISTRICT OF COLUMBIA,1,6,0,0,0,6,0,0,FALSE
US,DC,20534,DISTRICT OF COLUMBIA,1,6,0,0,0,6,0,0,FALSE
US,DC,20535,DISTRICT OF COLUMBIA,1,6,0,0,0,6,0,0,FALSE
US,DC,20536,DISTRICT OF COLUMBIA,1,6,0,0,0,6,0,0,FALSE
US,DC,20537,DISTRICT OF COLUMBIA,1,6,0,0,0,6,0,0,FALSE
US,DC,20538,DISTRICT OF COLUMBIA,1,6,0,0,0,6,0,0,FALSE
US,DC,20539,DISTRICT OF COLUMBIA,1,6,0,0,0,6,0,0,FALSE
US,DC,20540,DISTRICT OF COLUMBIA,1,6,0,0,0,6,0,0,FALSE
US,DC,20541,DISTRICT OF COLUMBIA,1,6,0,0,0,6,0,0,FALSE
US,DC,20542,DISTRICT OF COLUMBIA,1,6,0,0,0,6,0,0,FALSE
US,DC,20543,DISTRICT OF COLUMBIA,1,6,0,0,0,6,0,0,FALSE
US,DC,20544,DISTRICT OF COLUMBIA,1,6,0,0,0,6,0,0,FALSE
US,DC,20546,DISTRICT OF COLUMBIA,1,6,0,0,0,6,0,0,FALSE
US,DC,20547,DISTRICT OF COLUMBIA,1,6,0,0,0,6,0,0,FALSE
US,DC,20548,DISTRICT OF COLUMBIA,1,6,0,0,0,6,0,0,FALSE
US,DC,20549,DISTRICT OF COLUMBIA,1,6,0,0,0,6,0,0,FALSE
US,DC,20551,DISTRICT OF COLUMBIA,1,6,0,0,0,6,0,0,FALSE
US,DC,20552,DISTRICT OF COLUMBIA,1,6,0,0,0,6,0,0,FALSE
US,DC,20553,DISTRICT OF COLUMBIA,1,6,0,0,0,6,0,0,FALSE
US,DC,20554,DISTRICT OF COLUMBIA,1,6,0,0,0,6,0,0,FALSE
US,DC,20555,DISTRICT OF COLUMBIA,1,6,0,0,0,6,0,0,FALSE
US,DC,20557,DISTRICT OF COLUMBIA,1,6,0,0,0,6,0,0,FALSE
US,DC,20558,DISTRICT OF COLUMBIA,1,6,0,0,0,6,0,0,FALSE
US,DC,20559,DISTRICT OF COLUMBIA,1,6,0,0,0,6,0,0,FALSE
US,DC,20560,DISTRICT OF COLUMBIA,1,6,0,0,0,6,0,0,FALSE
US,DC,20565,DISTRICT OF COLUMBIA,1,6,0,0,0,6,0,0,FALSE
US,DC,20566,DISTRICT OF COLUMBIA,1,6,0,0,0,6,0,0,FALSE
US,DC,20570,DISTRICT OF COLUMBIA,1,6,0,0,0,6,0,0,FALSE
US,DC,20571,DISTRICT OF COLUMBIA,1,6,0,0,0,6,0,0,FALSE
US,DC,20572,DISTRICT OF COLUMBIA,1,6,0,0,0,6,0,0,FALSE
US,DC,20573,DISTRICT OF COLUMBIA,1,6,0,0,0,6,0,0,FALSE
US,DC,20575,DISTRICT OF COLUMBIA,1,6,0,0,0,6,0,0,FALSE
US,DC,20576,DISTRICT OF COLUMBIA,1,6,0,0,0,6,0,0,FALSE
US,DC,20577,DISTRICT OF COLUMBIA,1,6,0,0,0,6,0,0,FALSE
US,DC,20578,DISTRICT OF COLUMBIA,1,6,0,0,0,6,0,0,FALSE
US,DC,20579,DISTRICT OF COLUMBIA,1,6,0,0,0,6,0,0,FALSE
US,DC,20580,DISTRICT OF COLUMBIA,1,6,0,0,0,6,0,0,FALSE
US,DC,20581,DISTRICT OF COLUMBIA,1,6,0,0,0,6,0,0,FALSE
US,DC,20585,DISTRICT OF COLUMBIA,1,6,0,0,0,6,0,0,FALSE
US,DC,20586,DISTRICT OF COLUMBIA,1,6,0,0,0,6,0,0,FALSE
US,DC,20590,DISTRICT OF COLUMBIA,1,6,0,0,0,6,0,0,FALSE
US,DC,20591,DISTRICT OF COLUMBIA,1,6,0,0,0,6,0,0,FALSE
US,DC,20593,DISTRICT OF COLUMBIA,1,6,0,0,0,6,0,0,FALSE
US,DC,20594,DISTRICT OF COLUMBIA,1,6,0,0,0,6,0,0,FALSE
US,DC,20597,DISTRICT OF COLUMBIA,1,6,0,0,0,6,0,0,FALSE
US,DC,20599,DISTRICT OF COLUMBIA,1,6,0,0,0,6,0,0,FALSE
US,DC,56901,DISTRICT OF COLUMBIA,1,6,0,0,0,6,0,0,FALSE
US,DC,56902,DISTRICT OF COLUMBIA,1,6,0,0,0,6,0,0,FALSE
US,DC,56904,DISTRICT OF COLUMBIA,1,6,0,0,0,6,0,0,FALSE
US,DC,56908,DISTRICT OF COLUMBIA,1,6,0,0,0,6,0,0,FALSE
US,DC,56915,DISTRICT OF COLUMBIA,1,6,0,0,0,6,0,0,FALSE
US,DC,56920,DISTRICT OF COLUMBIA,1,6,0,0,0,6,0,0,FALSE
US,DC,56933,DISTRICT OF COLUMBIA,1,6,0,0,0,6,0,0,FALSE
US,DC,56935,DISTRICT OF COLUMBIA,1,6,0,0,0,6,0,0,FALSE
US,DC,56944,DISTRICT OF COLUMBIA,1,6,0,0,0,6,0,0,FALSE
US,DC,56945,DISTRICT OF COLUMBIA,1,6,0,0,0,6,0,0,FALSE
US,DC,56950,DISTRICT OF COLUMBIA,1,6,0,0,0,6,0,0,FALSE
US,DC,56965,DISTRICT OF COLUMBIA,1,6,0,0,0,6,0,0,FALSE
US,DC,56967,DISTRICT OF COLUMBIA,1,6,0,0,0,6,0,0,FALSE
US,DC,56972,DISTRICT OF COLUMBIA,1,6,0,0,0,6,0,0,FALSE
US,DC,56998,DISTRICT OF COLUMBIA,1,6,0,0,0,6,0,0,FALSE
US,DC,56999,DISTRICT OF COLUMBIA,1,6,0,0,0,6,0,0,FALSE
