country,state,zipcode,tax_region_name,RiskLevel,state_rate,county_rate,city_rate,special_rate,combined_rate,medicinal_excise,adult_excise,has_medical_excise
US,FL,32003,CLAY COUNTY,2,6,1,0,0,7,0,0,FALSE
US,FL,32004,ST. JOHNS COUNTY,2,6,0.5,0,0,6.5,0,0,FALSE
US,FL,32006,CLAY COUNTY,1,6,1,0,0,7,0,0,FALSE
US,FL,32007,CLAY COUNTY,1,6,1,0,0,7,0,0,FALSE
US,FL,32008,GILCHRIST COUNTY,1,6,1,0,0,7,0,0,FALSE
US,FL,32009,NASSAU COUNTY,1,6,1,0,0,7,0,0,FALSE
US,FL,32011,NASSAU COUNTY,1,6,1,0,0,7,0,0,FALSE
US,FL,32024,COLUMBIA COUNTY,1,6,1,0,0,7,0,0,FALSE
US,FL,32025,COLUMBIA COUNTY,1,6,1,0,0,7,0,0,FALSE
US,FL,32026,CLAY COUNTY,1,6,1,0,0,7,0,0,FALSE
US,FL,32033,ST. JOHNS COUNTY,2,6,0.5,0,0,6.5,0,0,FALSE
US,FL,32034,FERDINANDA BEACH,4,6,1,0,0,7,0,0,FALSE
US,FL,32035,FERDINANDA BEACH,3,6,1,0,0,7,0,0,FALSE
US,FL,32038,COLUMBIA COUNTY,1,6,1,0,0,7,0,0,FALSE
US,FL,32040,BAKER COUNTY,2,6,1,0,0,7,0,0,FALSE
US,FL,32041,NASSAU COUNTY,1,6,1,0,0,7,0,0,FALSE
US,FL,32042,CLAY COUNTY,1,6,1,0,0,7,0,0,FALSE
US,FL,32043,CLAY COUNTY,1,6,1,0,0,7,0,0,FALSE
US,FL,32044,BRADFORD COUNTY,1,6,1,0,0,7,0,0,FALSE
US,FL,32046,NASSAU COUNTY,1,6,1,0,0,7,0,0,FALSE
US,FL,32050,CLAY COUNTY,1,6,1,0,0,7,0,0,FALSE
US,FL,32052,HAMILTON COUNTY,1,6,1,0,0,7,0,0,FALSE
US,FL,32053,HAMILTON COUNTY,1,6,1,0,0,7,0,0,FALSE
US,FL,32054,UNION COUNTY,1,6,1,0,0,7,0,0,FALSE
US,FL,32055,COLUMBIA COUNTY,1,6,1,0,0,7,0,0,FALSE
US,FL,32056,LAKE CITY,1,6,1,0,0,7,0,0,FALSE
US,FL,32058,BRADFORD COUNTY,1,6,1,0,0,7,0,0,FALSE
US,FL,32059,MADISON COUNTY,1,6,1.5,0,0,7.5,0,0,FALSE
US,FL,32060,SUWANNEE COUNTY,2,6,1,0,0,7,0,0,FALSE
US,FL,32061,COLUMBIA COUNTY,1,6,1,0,0,7,0,0,FALSE
US,FL,32062,SUWANNEE COUNTY,2,6,1,0,0,7,0,0,FALSE
US,FL,32063,BAKER COUNTY,1,6,1,0,0,7,0,0,FALSE
US,FL,32064,LIVE OAK,3,6,1,0,0,7,0,0,FALSE
US,FL,32065,CLAY COUNTY,1,6,1,0,0,7,0,0,FALSE
US,FL,32066,LAFAYETTE COUNTY,1,6,1,0,0,7,0,0,FALSE
US,FL,32067,ORANGE PARK,1,6,1,0,0,7,0,0,FALSE
US,FL,32068,CLAY COUNTY,1,6,1,0,0,7,0,0,FALSE
US,FL,32071,SUWANNEE COUNTY,1,6,1,0,0,7,0,0,FALSE
US,FL,32073,CLAY COUNTY,1,6,1,0,0,7,0,0,FALSE
US,FL,32079,CLAY COUNTY,1,6,1,0,0,7,0,0,FALSE
US,FL,32080,ST. JOHNS COUNTY,5,6,0.5,0,0,6.5,0,0,FALSE
US,FL,32081,ST. JOHNS COUNTY,3,6,0.5,0,0,6.5,0,0,FALSE
US,FL,32082,ST. JOHNS COUNTY,2,6,0.5,0,0,6.5,0,0,FALSE
US,FL,32083,UNION COUNTY,1,6,1,0,0,7,0,0,FALSE
US,FL,32084,ST. JOHNS COUNTY,4,6,0.5,0,0,6.5,0,0,FALSE
US,FL,32085,ST. AUGUSTINE,2,6,0.5,0,0,6.5,0,0,FALSE
US,FL,32086,ST. JOHNS COUNTY,4,6,0.5,0,0,6.5,0,0,FALSE
US,FL,32087,BAKER COUNTY,1,6,1,0,0,7,0,0,FALSE
US,FL,32091,BRADFORD COUNTY,2,6,1,0,0,7,0,0,FALSE
US,FL,32092,ST. JOHNS COUNTY,2,6,0.5,0,0,6.5,0,0,FALSE
US,FL,32094,SUWANNEE COUNTY,1,6,1,0,0,7,0,0,FALSE
US,FL,32095,ST. JOHNS COUNTY,2,6,0.5,0,0,6.5,0,0,FALSE
US,FL,32096,HAMILTON COUNTY,1,6,1,0,0,7,0,0,FALSE
US,FL,32097,NASSAU COUNTY,1,6,1,0,0,7,0,0,FALSE
US,FL,32099,JACKSONVILLE,2,6,1,0,0,7,0,0,FALSE
US,FL,32102,LAKE COUNTY,1,6,1,0,0,7,0,0,FALSE
US,FL,32105,VOLUSIA COUNTY,1,6,0.5,0,0,6.5,0,0,FALSE
US,FL,32110,FLAGLER COUNTY,1,6,1,0,0,7,0,0,FALSE
US,FL,32111,MARION COUNTY,1,6,1,0,0,7,0,0,FALSE
US,FL,32112,PUTNAM COUNTY,1,6,1,0,0,7,0,0,FALSE
US,FL,32113,MARION COUNTY,1,6,1,0,0,7,0,0,FALSE
US,FL,32114,DAYTONA BEACH,1,6,0.5,0,0,6.5,0,0,FALSE
US,FL,32115,DAYTONA BEACH,1,6,0.5,0,0,6.5,0,0,FALSE
US,FL,32117,HOLLY HILL,2,6,0.5,0,0,6.5,0,0,FALSE
US,FL,32118,DAYTONA BEACH,2,6,0.5,0,0,6.5,0,0,FALSE
US,FL,32119,SOUTH DAYTONA,2,6,0.5,0,0,6.5,0,0,FALSE
US,FL,32120,DAYTONA BEACH,1,6,0.5,0,0,6.5,0,0,FALSE
US,FL,32121,DAYTONA BEACH SHORES,2,6,0.5,0,0,6.5,0,0,FALSE
US,FL,32122,DAYTONA BEACH,1,6,0.5,0,0,6.5,0,0,FALSE
US,FL,32124,DAYTONA BEACH,1,6,0.5,0,0,6.5,0,0,FALSE
US,FL,32125,HOLLY HILL,2,6,0.5,0,0,6.5,0,0,FALSE
US,FL,32126,DAYTONA BEACH,1,6,0.5,0,0,6.5,0,0,FALSE
US,FL,32127,PORT ORANGE,3,6,0.5,0,0,6.5,0,0,FALSE
US,FL,32128,PORT ORANGE,1,6,0.5,0,0,6.5,0,0,FALSE
US,FL,32129,PORT ORANGE,1,6,0.5,0,0,6.5,0,0,FALSE
US,FL,32130,VOLUSIA COUNTY,1,6,0.5,0,0,6.5,0,0,FALSE
US,FL,32131,PUTNAM COUNTY,1,6,1,0,0,7,0,0,FALSE
US,FL,32132,EDGEWATER,1,6,0.5,0,0,6.5,0,0,FALSE
US,FL,32133,MARION COUNTY,1,6,1,0,0,7,0,0,FALSE
US,FL,32134,MARION COUNTY,2,6,1,0,0,7,0,0,FALSE
US,FL,32135,PALM COAST,1,6,1,0,0,7,0,0,FALSE
US,FL,32136,FLAGLER BEACH,2,6,1,0,0,7,0,0,FALSE
US,FL,32137,PALM COAST,1,6,1,0,0,7,0,0,FALSE
US,FL,32138,CLAY COUNTY,1,6,1,0,0,7,0,0,FALSE
US,FL,32139,PUTNAM COUNTY,1,6,1,0,0,7,0,0,FALSE
US,FL,32140,PUTNAM COUNTY,1,6,1,0,0,7,0,0,FALSE
US,FL,32141,EDGEWATER,1,6,0.5,0,0,6.5,0,0,FALSE
US,FL,32145,ST. JOHNS COUNTY,1,6,0.5,0,0,6.5,0,0,FALSE
US,FL,32147,PUTNAM COUNTY,1,6,1,0,0,7,0,0,FALSE
US,FL,32148,PUTNAM COUNTY,1,6,1,0,0,7,0,0,FALSE
US,FL,32149,PUTNAM COUNTY,1,6,1,0,0,7,0,0,FALSE
US,FL,32158,LADY LAKE,2,6,1,0,0,7,0,0,FALSE
US,FL,32159,LADY LAKE,3,6,1,0,0,7,0,0,FALSE
US,FL,32160,CLAY COUNTY,1,6,1,0,0,7,0,0,FALSE
US,FL,32162,SUMTER COUNTY,3,6,1,0,0,7,0,0,FALSE
US,FL,32163,MARION COUNTY,2,6,1,0,0,7,0,0,FALSE
US,FL,32164,PALM COAST,1,6,1,0,0,7,0,0,FALSE
US,FL,32168,NEW SMYRNA BEACH,2,6,0.5,0,0,6.5,0,0,FALSE
US,FL,32169,NEW SMYRNA BEACH,2,6,0.5,0,0,6.5,0,0,FALSE
US,FL,32170,NEW SMYRNA BEACH,2,6,0.5,0,0,6.5,0,0,FALSE
US,FL,32173,ORMOND BEACH,1,6,0.5,0,0,6.5,0,0,FALSE
US,FL,32174,ORMOND BEACH,1,6,0.5,0,0,6.5,0,0,FALSE
US,FL,32175,ORMOND BEACH,1,6,0.5,0,0,6.5,0,0,FALSE
US,FL,32176,ORMOND BEACH,1,6,0.5,0,0,6.5,0,0,FALSE
US,FL,32177,PALATKA,1,6,1,0,0,7,0,0,FALSE
US,FL,32179,MARION COUNTY,2,6,1,0,0,7,0,0,FALSE
US,FL,32180,VOLUSIA COUNTY,1,6,0.5,0,0,6.5,0,0,FALSE
US,FL,32181,PUTNAM COUNTY,1,6,1,0,0,7,0,0,FALSE
US,FL,32182,MARION COUNTY,1,6,1,0,0,7,0,0,FALSE
US,FL,32185,CLAY COUNTY,1,6,1,0,0,7,0,0,FALSE
US,FL,32187,PUTNAM COUNTY,1,6,1,0,0,7,0,0,FALSE
US,FL,32189,PUTNAM COUNTY,1,6,1,0,0,7,0,0,FALSE
US,FL,32190,VOLUSIA COUNTY,1,6,0.5,0,0,6.5,0,0,FALSE
US,FL,32192,MARION COUNTY,1,6,1,0,0,7,0,0,FALSE
US,FL,32193,WELAKA,1,6,1,0,0,7,0,0,FALSE
US,FL,32195,MARION COUNTY,1,6,1,0,0,7,0,0,FALSE
US,FL,32198,DAYTONA BEACH,1,6,0.5,0,0,6.5,0,0,FALSE
US,FL,32202,JACKSONVILLE,2,6,1,0,0,7,0,0,FALSE
US,FL,32203,JACKSONVILLE,2,6,1,0,0,7,0,0,FALSE
US,FL,32204,JACKSONVILLE,2,6,1,0,0,7,0,0,FALSE
US,FL,32205,JACKSONVILLE,2,6,1,0,0,7,0,0,FALSE
US,FL,32206,JACKSONVILLE,2,6,1,0,0,7,0,0,FALSE
US,FL,32207,JACKSONVILLE,2,6,1,0,0,7,0,0,FALSE
US,FL,32208,JACKSONVILLE,2,6,1,0,0,7,0,0,FALSE
US,FL,32209,JACKSONVILLE,2,6,1,0,0,7,0,0,FALSE
US,FL,32210,JACKSONVILLE,2,6,1,0,0,7,0,0,FALSE
US,FL,32211,JACKSONVILLE,2,6,1,0,0,7,0,0,FALSE
US,FL,32212,JACKSONVILLE,2,6,1,0,0,7,0,0,FALSE
US,FL,32214,JACKSONVILLE,2,6,1,0,0,7,0,0,FALSE
US,FL,32216,JACKSONVILLE,2,6,1,0,0,7,0,0,FALSE
US,FL,32217,JACKSONVILLE,2,6,1,0,0,7,0,0,FALSE
US,FL,32218,JACKSONVILLE,2,6,1,0,0,7,0,0,FALSE
US,FL,32219,JACKSONVILLE,3,6,1,0,0,7,0,0,FALSE
US,FL,32220,JACKSONVILLE,2,6,1,0,0,7,0,0,FALSE
US,FL,32221,JACKSONVILLE,2,6,1,0,0,7,0,0,FALSE
US,FL,32222,JACKSONVILLE,2,6,1,0,0,7,0,0,FALSE
US,FL,32223,JACKSONVILLE,2,6,1,0,0,7,0,0,FALSE
US,FL,32224,JACKSONVILLE,3,6,1,0,0,7,0,0,FALSE
US,FL,32225,JACKSONVILLE,2,6,1,0,0,7,0,0,FALSE
US,FL,32226,JACKSONVILLE,2,6,1,0,0,7,0,0,FALSE
US,FL,32227,JACKSONVILLE,4,6,1,0,0,7,0,0,FALSE
US,FL,32228,JACKSONVILLE,3,6,1,0,0,7,0,0,FALSE
US,FL,32229,JACKSONVILLE,2,6,1,0,0,7,0,0,FALSE
US,FL,32233,ATLANTIC BEACH,4,6,1,0,0,7,0,0,FALSE
US,FL,32234,BALDWIN,4,6,1,0,0,7,0,0,FALSE
US,FL,32235,JACKSONVILLE,2,6,1,0,0,7,0,0,FALSE
US,FL,32236,JACKSONVILLE,2,6,1,0,0,7,0,0,FALSE
US,FL,32238,JACKSONVILLE,2,6,1,0,0,7,0,0,FALSE
US,FL,32239,JACKSONVILLE,2,6,1,0,0,7,0,0,FALSE
US,FL,32240,JACKSONVILLE BEACH,3,6,1,0,0,7,0,0,FALSE
US,FL,32241,JACKSONVILLE,2,6,1,0,0,7,0,0,FALSE
US,FL,32244,JACKSONVILLE,2,6,1,0,0,7,0,0,FALSE
US,FL,32245,JACKSONVILLE,2,6,1,0,0,7,0,0,FALSE
US,FL,32246,JACKSONVILLE,2,6,1,0,0,7,0,0,FALSE
US,FL,32247,JACKSONVILLE,2,6,1,0,0,7,0,0,FALSE
US,FL,32250,JACKSONVILLE BEACH,3,6,1,0,0,7,0,0,FALSE
US,FL,32254,JACKSONVILLE,2,6,1,0,0,7,0,0,FALSE
US,FL,32255,JACKSONVILLE,2,6,1,0,0,7,0,0,FALSE
US,FL,32256,JACKSONVILLE,2,6,1,0,0,7,0,0,FALSE
US,FL,32257,JACKSONVILLE,2,6,1,0,0,7,0,0,FALSE
US,FL,32258,JACKSONVILLE,2,6,1,0,0,7,0,0,FALSE
US,FL,32259,ST. JOHNS COUNTY,5,6,0.5,0,0,6.5,0,0,FALSE
US,FL,32260,JACKSONVILLE,2,6,1,0,0,7,0,0,FALSE
US,FL,32266,NEPTUNE BEACH,3,6,1,0,0,7,0,0,FALSE
US,FL,32277,JACKSONVILLE,2,6,1,0,0,7,0,0,FALSE
US,FL,32301,TALLAHASSEE,1,6,1.5,0,0,7.5,0,0,FALSE
US,FL,32302,TALLAHASSEE,1,6,1.5,0,0,7.5,0,0,FALSE
US,FL,32303,TALLAHASSEE,1,6,1.5,0,0,7.5,0,0,FALSE
US,FL,32304,TALLAHASSEE,1,6,1.5,0,0,7.5,0,0,FALSE
US,FL,32305,LEON COUNTY,1,6,1.5,0,0,7.5,0,0,FALSE
US,FL,32306,TALLAHASSEE,1,6,1.5,0,0,7.5,0,0,FALSE
US,FL,32307,TALLAHASSEE,1,6,1.5,0,0,7.5,0,0,FALSE
US,FL,32308,TALLAHASSEE,2,6,1.5,0,0,7.5,0,0,FALSE
US,FL,32309,LEON COUNTY,3,6,1.5,0,0,7.5,0,0,FALSE
US,FL,32310,TALLAHASSEE,1,6,1.5,0,0,7.5,0,0,FALSE
US,FL,32311,LEON COUNTY,1,6,1.5,0,0,7.5,0,0,FALSE
US,FL,32312,LEON COUNTY,1,6,1.5,0,0,7.5,0,0,FALSE
US,FL,32313,TALLAHASSEE,1,6,1.5,0,0,7.5,0,0,FALSE
US,FL,32314,TALLAHASSEE,1,6,1.5,0,0,7.5,0,0,FALSE
US,FL,32315,TALLAHASSEE,1,6,1.5,0,0,7.5,0,0,FALSE
US,FL,32316,TALLAHASSEE,1,6,1.5,0,0,7.5,0,0,FALSE
US,FL,32317,LEON COUNTY,2,6,1.5,0,0,7.5,0,0,FALSE
US,FL,32318,TALLAHASSEE,1,6,1.5,0,0,7.5,0,0,FALSE
US,FL,32320,APALACHICOLA,1,6,1,0,0,7,0,0,FALSE
US,FL,32321,LIBERTY COUNTY,1,6,2,0,0,8,0,0,FALSE
US,FL,32322,CARRABELLE,1,6,1,0,0,7,0,0,FALSE
US,FL,32324,GADSDEN COUNTY,1,6,1.5,0,0,7.5,0,0,FALSE
US,FL,32326,WAKULLA COUNTY,1,6,1,0,0,7,0,0,FALSE
US,FL,32327,WAKULLA COUNTY,1,6,1,0,0,7,0,0,FALSE
US,FL,32328,FRANKLIN COUNTY,3,6,1,0,0,7,0,0,FALSE
US,FL,32330,GREENSBORO,1,6,1.5,0,0,7.5,0,0,FALSE
US,FL,32331,MADISON COUNTY,1,6,1.5,0,0,7.5,0,0,FALSE
US,FL,32332,GRETNA,1,6,1.5,0,0,7.5,0,0,FALSE
US,FL,32333,GADSDEN COUNTY,1,6,1.5,0,0,7.5,0,0,FALSE
US,FL,32334,LIBERTY COUNTY,1,6,2,0,0,8,0,0,FALSE
US,FL,32335,LIBERTY COUNTY,1,6,2,0,0,8,0,0,FALSE
US,FL,32336,JEFFERSON COUNTY,1,6,1,0,0,7,0,0,FALSE
US,FL,32337,JEFFERSON COUNTY,1,6,1,0,0,7,0,0,FALSE
US,FL,32340,MADISON COUNTY,1,6,1.5,0,0,7.5,0,0,FALSE
US,FL,32343,MIDWAY,1,6,1.5,0,0,7.5,0,0,FALSE
US,FL,32344,JEFFERSON COUNTY,1,6,1,0,0,7,0,0,FALSE
US,FL,32345,MONTICELLO,1,6,1,0,0,7,0,0,FALSE
US,FL,32346,WAKULLA COUNTY,1,6,1,0,0,7,0,0,FALSE
US,FL,32347,TAYLOR COUNTY,1,6,1,0,0,7,0,0,FALSE
US,FL,32348,TAYLOR COUNTY,1,6,1,0,0,7,0,0,FALSE
US,FL,32350,MADISON COUNTY,1,6,1.5,0,0,7.5,0,0,FALSE
US,FL,32351,GADSDEN COUNTY,1,6,1.5,0,0,7.5,0,0,FALSE
US,FL,32352,GADSDEN COUNTY,2,6,1.5,0,0,7.5,0,0,FALSE
US,FL,32355,ST. MARKS,1,6,1,0,0,7,0,0,FALSE
US,FL,32356,TAYLOR COUNTY,1,6,1,0,0,7,0,0,FALSE
US,FL,32357,TAYLOR COUNTY,1,6,1,0,0,7,0,0,FALSE
US,FL,32358,WAKULLA COUNTY,1,6,1,0,0,7,0,0,FALSE
US,FL,32359,TAYLOR COUNTY,2,6,1,0,0,7,0,0,FALSE
US,FL,32360,LIBERTY COUNTY,1,6,2,0,0,8,0,0,FALSE
US,FL,32361,JEFFERSON COUNTY,1,6,1,0,0,7,0,0,FALSE
US,FL,32362,LEON COUNTY,1,6,1.5,0,0,7.5,0,0,FALSE
US,FL,32395,TALLAHASSEE,1,6,1.5,0,0,7.5,0,0,FALSE
US,FL,32399,TALLAHASSEE,1,6,1.5,0,0,7.5,0,0,FALSE
US,FL,32401,PANAMA CITY,3,6,1,0,0,7,0,0,FALSE
US,FL,32402,BAY COUNTY,2,6,1,0,0,7,0,0,FALSE
US,FL,32403,BAY COUNTY,2,6,1,0,0,7,0,0,FALSE
US,FL,32404,BAY COUNTY,3,6,1,0,0,7,0,0,FALSE
US,FL,32405,PANAMA CITY,2,6,1,0,0,7,0,0,FALSE
US,FL,32406,PANAMA CITY,2,6,1,0,0,7,0,0,FALSE
US,FL,32407,PANAMA CITY BEACH,3,6,1,0,0,7,0,0,FALSE
US,FL,32408,BAY COUNTY TOURISM DEV,3,6,1,0,0,7,0,0,FALSE
US,FL,32409,BAY COUNTY,3,6,1,0,0,7,0,0,FALSE
US,FL,32410,PORT ST. JOE,2,6,1,0,0,7,0,0,FALSE
US,FL,32411,BAY COUNTY TOURISM DEV,2,6,1,0,0,7,0,0,FALSE
US,FL,32413,PANAMA CITY BEACH,8,6,1,0,0,7,0,0,FALSE
US,FL,32417,BAY COUNTY TOURISM DEV,3,6,1,0,0,7,0,0,FALSE
US,FL,32420,JACKSON COUNTY,1,6,1.5,0,0,7.5,0,0,FALSE
US,FL,32421,CALHOUN COUNTY,1,6,1.5,0,0,7.5,0,0,FALSE
US,FL,32422,WALTON COUNTY,1,6,1,0,0,7,0,0,FALSE
US,FL,32423,JACKSON COUNTY,1,6,1.5,0,0,7.5,0,0,FALSE
US,FL,32424,CALHOUN COUNTY,1,6,1.5,0,0,7.5,0,0,FALSE
US,FL,32425,HOLMES COUNTY,5,6,1,0,0,7,0,0,FALSE
US,FL,32426,JACKSON COUNTY,1,6,1.5,0,0,7.5,0,0,FALSE
US,FL,32427,WASHINGTON COUNTY,2,6,1.5,0,0,7.5,0,0,FALSE
US,FL,32428,WASHINGTON COUNTY,2,6,1.5,0,0,7.5,0,0,FALSE
US,FL,32430,CALHOUN COUNTY,1,6,1.5,0,0,7.5,0,0,FALSE
US,FL,32431,JACKSON COUNTY,2,6,1.5,0,0,7.5,0,0,FALSE
US,FL,32432,JACKSON COUNTY,1,6,1.5,0,0,7.5,0,0,FALSE
US,FL,32433,WALTON COUNTY,1,6,1,0,0,7,0,0,FALSE
US,FL,32435,WALTON COUNTY,1,6,1,0,0,7,0,0,FALSE
US,FL,32437,WASHINGTON COUNTY,1,6,1.5,0,0,7.5,0,0,FALSE
US,FL,32438,BAY COUNTY,1,6,1,0,0,7,0,0,FALSE
US,FL,32439,WALTON COUNTY,1,6,1,0,0,7,0,0,FALSE
US,FL,32440,JACKSON COUNTY,1,6,1.5,0,0,7.5,0,0,FALSE
US,FL,32442,JACKSON COUNTY,1,6,1.5,0,0,7.5,0,0,FALSE
US,FL,32443,JACKSON COUNTY,1,6,1.5,0,0,7.5,0,0,FALSE
US,FL,32444,LYNN HAVEN,1,6,1,0,0,7,0,0,FALSE
US,FL,32445,JACKSON COUNTY,1,6,1.5,0,0,7.5,0,0,FALSE
US,FL,32446,JACKSON COUNTY,1,6,1.5,0,0,7.5,0,0,FALSE
US,FL,32447,MARIANNA,1,6,1.5,0,0,7.5,0,0,FALSE
US,FL,32448,JACKSON COUNTY,1,6,1.5,0,0,7.5,0,0,FALSE
US,FL,32449,CALHOUN COUNTY,3,6,1.5,0,0,7.5,0,0,FALSE
US,FL,32455,WALTON COUNTY,3,6,1,0,0,7,0,0,FALSE
US,FL,32456,GULF COUNTY,5,6,1,0,0,7,0,0,FALSE
US,FL,32459,WALTON CO TOURIST DEVELOP,2,6,1,0,0,7,0,0,FALSE
US,FL,32460,JACKSON COUNTY,1,6,1.5,0,0,7.5,0,0,FALSE
US,FL,32461,WALTON CO TOURIST DEVELOP,5,6,1,0,0,7,0,0,FALSE
US,FL,32462,WASHINGTON COUNTY,1,6,1.5,0,0,7.5,0,0,FALSE
US,FL,32463,WAUSAU,1,6,1.5,0,0,7.5,0,0,FALSE
US,FL,32464,HOLMES COUNTY,1,6,1,0,0,7,0,0,FALSE
US,FL,32465,GULF COUNTY,3,6,1,0,0,7,0,0,FALSE
US,FL,32466,BAY COUNTY,2,6,1,0,0,7,0,0,FALSE
US,FL,32501,PENSACOLA,1,6,1.5,0,0,7.5,0,0,FALSE
US,FL,32502,PENSACOLA,1,6,1.5,0,0,7.5,0,0,FALSE
US,FL,32503,PENSACOLA,1,6,1.5,0,0,7.5,0,0,FALSE
US,FL,32504,PENSACOLA,1,6,1.5,0,0,7.5,0,0,FALSE
US,FL,32505,ESCAMBIA COUNTY,1,6,1.5,0,0,7.5,0,0,FALSE
US,FL,32506,ESCAMBIA COUNTY,1,6,1.5,0,0,7.5,0,0,FALSE
US,FL,32507,ESCAMBIA COUNTY,2,6,1.5,0,0,7.5,0,0,FALSE
US,FL,32508,ESCAMBIA COUNTY,1,6,1.5,0,0,7.5,0,0,FALSE
US,FL,32509,ESCAMBIA COUNTY,1,6,1.5,0,0,7.5,0,0,FALSE
US,FL,32511,ESCAMBIA COUNTY,1,6,1.5,0,0,7.5,0,0,FALSE
US,FL,32512,ESCAMBIA COUNTY,1,6,1.5,0,0,7.5,0,0,FALSE
US,FL,32513,ESCAMBIA COUNTY,1,6,1.5,0,0,7.5,0,0,FALSE
US,FL,32514,ESCAMBIA COUNTY,1,6,1.5,0,0,7.5,0,0,FALSE
US,FL,32516,ESCAMBIA COUNTY,1,6,1.5,0,0,7.5,0,0,FALSE
US,FL,32520,ESCAMBIA COUNTY,1,6,1.5,0,0,7.5,0,0,FALSE
US,FL,32522,ESCAMBIA COUNTY,1,6,1.5,0,0,7.5,0,0,FALSE
US,FL,32523,ESCAMBIA COUNTY,1,6,1.5,0,0,7.5,0,0,FALSE
US,FL,32524,ESCAMBIA COUNTY,1,6,1.5,0,0,7.5,0,0,FALSE
US,FL,32526,ESCAMBIA COUNTY,2,6,1.5,0,0,7.5,0,0,FALSE
US,FL,32530,SANTA ROSA COUNTY,1,6,1,0,0,7,0,0,FALSE
US,FL,32531,OKALOOSA,1,6,0.5,0,0,6.5,0,0,FALSE
US,FL,32533,ESCAMBIA COUNTY,1,6,1.5,0,0,7.5,0,0,FALSE
US,FL,32534,ESCAMBIA COUNTY,1,6,1.5,0,0,7.5,0,0,FALSE
US,FL,32535,ESCAMBIA COUNTY,1,6,1.5,0,0,7.5,0,0,FALSE
US,FL,32536,CRESTVIEW,1,6,0.5,0,0,6.5,0,0,FALSE
US,FL,32537,OKALOOSA,1,6,0.5,0,0,6.5,0,0,FALSE
US,FL,32538,LAUREL HILL,1,6,0.5,0,0,6.5,0,0,FALSE
US,FL,32539,OKALOOSA,1,6,0.5,0,0,6.5,0,0,FALSE
US,FL,32540,DESTIN,2,6,0.5,0,0,6.5,0,0,FALSE
US,FL,32541,DESTIN,2,6,0.5,0,0,6.5,0,0,FALSE
US,FL,32542,OKALOOSA,1,6,0.5,0,0,6.5,0,0,FALSE
US,FL,32544,OKALOOSA,1,6,0.5,0,0,6.5,0,0,FALSE
US,FL,32547,OKALOOSA,1,6,0.5,0,0,6.5,0,0,FALSE
US,FL,32548,FORT WALTON BEACH,3,6,0.5,0,0,6.5,0,0,FALSE
US,FL,32549,FORT WALTON BEACH,1,6,0.5,0,0,6.5,0,0,FALSE
US,FL,32550,WALTON CO TOURIST DEVELOP,4,6,1,0,0,7,0,0,FALSE
US,FL,32559,ESCAMBIA COUNTY,1,6,1.5,0,0,7.5,0,0,FALSE
US,FL,32560,ESCAMBIA COUNTY,1,6,1.5,0,0,7.5,0,0,FALSE
US,FL,32561,ESCAMBIA COUNTY,2,6,1.5,0,0,7.5,0,0,FALSE
US,FL,32562,GULF BREEZE,1,6,1,0,0,7,0,0,FALSE
US,FL,32563,SANTA ROSA COUNTY,1,6,1,0,0,7,0,0,FALSE
US,FL,32564,OKALOOSA,1,6,0.5,0,0,6.5,0,0,FALSE
US,FL,32565,SANTA ROSA COUNTY,1,6,1,0,0,7,0,0,FALSE
US,FL,32566,SANTA ROSA COUNTY,1,6,1,0,0,7,0,0,FALSE
US,FL,32567,WALTON COUNTY,1,6,1,0,0,7,0,0,FALSE
US,FL,32568,ESCAMBIA COUNTY,2,6,1.5,0,0,7.5,0,0,FALSE
US,FL,32569,OKALOOSA,1,6,0.5,0,0,6.5,0,0,FALSE
US,FL,32570,SANTA ROSA COUNTY,1,6,1,0,0,7,0,0,FALSE
US,FL,32571,SANTA ROSA COUNTY,2,6,1,0,0,7,0,0,FALSE
US,FL,32572,MILTON,1,6,1,0,0,7,0,0,FALSE
US,FL,32577,ESCAMBIA COUNTY,1,6,1.5,0,0,7.5,0,0,FALSE
US,FL,32578,NICEVILLE,2,6,0.5,0,0,6.5,0,0,FALSE
US,FL,32579,OKALOOSA,1,6,0.5,0,0,6.5,0,0,FALSE
US,FL,32580,VALPARAISO,1,6,0.5,0,0,6.5,0,0,FALSE
US,FL,32583,SANTA ROSA COUNTY,1,6,1,0,0,7,0,0,FALSE
US,FL,32588,NICEVILLE,1,6,0.5,0,0,6.5,0,0,FALSE
US,FL,32591,ESCAMBIA COUNTY,1,6,1.5,0,0,7.5,0,0,FALSE
US,FL,32601,GAINESVILLE,1,6,1,0,0,7,0,0,FALSE
US,FL,32603,GAINESVILLE,1,6,1,0,0,7,0,0,FALSE
US,FL,32604,GAINESVILLE,1,6,1,0,0,7,0,0,FALSE
US,FL,32605,GAINESVILLE,1,6,1,0,0,7,0,0,FALSE
US,FL,32606,ALACHUA COUNTY,1,6,1,0,0,7,0,0,FALSE
US,FL,32607,GAINESVILLE,1,6,1,0,0,7,0,0,FALSE
US,FL,32608,ALACHUA COUNTY,1,6,1,0,0,7,0,0,FALSE
US,FL,32609,GAINESVILLE,1,6,1,0,0,7,0,0,FALSE
US,FL,32610,GAINESVILLE,1,6,1,0,0,7,0,0,FALSE
US,FL,32611,GAINESVILLE,1,6,1,0,0,7,0,0,FALSE
US,FL,32612,GAINESVILLE,1,6,1,0,0,7,0,0,FALSE
US,FL,32614,GAINESVILLE,1,6,1,0,0,7,0,0,FALSE
US,FL,32615,ALACHUA COUNTY,2,6,1,0,0,7,0,0,FALSE
US,FL,32617,MARION COUNTY,1,6,1,0,0,7,0,0,FALSE
US,FL,32618,ALACHUA COUNTY,1,6,1,0,0,7,0,0,FALSE
US,FL,32619,GILCHRIST COUNTY,1,6,1,0,0,7,0,0,FALSE
US,FL,32621,LEVY COUNTY,1,6,1,0,0,7,0,0,FALSE
US,FL,32622,BRADFORD COUNTY,1,6,1,0,0,7,0,0,FALSE
US,FL,32625,LEVY COUNTY,1,6,1,0,0,7,0,0,FALSE
US,FL,32626,LEVY COUNTY,1,6,1,0,0,7,0,0,FALSE
US,FL,32627,GAINESVILLE,1,6,1,0,0,7,0,0,FALSE
US,FL,32628,DIXIE COUNTY,1,6,1,0,0,7,0,0,FALSE
US,FL,32631,ALACHUA COUNTY,1,6,1,0,0,7,0,0,FALSE
US,FL,32633,MARION COUNTY,1,6,1,0,0,7,0,0,FALSE
US,FL,32634,MARION COUNTY,1,6,1,0,0,7,0,0,FALSE
US,FL,32635,GAINESVILLE,1,6,1,0,0,7,0,0,FALSE
US,FL,32639,LEVY COUNTY,1,6,1,0,0,7,0,0,FALSE
US,FL,32640,ALACHUA COUNTY,2,6,1,0,0,7,0,0,FALSE
US,FL,32641,GAINESVILLE,1,6,1,0,0,7,0,0,FALSE
US,FL,32643,HIGH SPRINGS,1,6,1,0,0,7,0,0,FALSE
US,FL,32644,CHIEFLAND,1,6,1,0,0,7,0,0,FALSE
US,FL,32648,DIXIE COUNTY,1,6,1,0,0,7,0,0,FALSE
US,FL,32653,GAINESVILLE,1,6,1,0,0,7,0,0,FALSE
US,FL,32654,ALACHUA COUNTY,1,6,1,0,0,7,0,0,FALSE
US,FL,32656,CLAY COUNTY,1,6,1,0,0,7,0,0,FALSE
US,FL,32658,LA CROSSE,1,6,1,0,0,7,0,0,FALSE
US,FL,32662,ALACHUA COUNTY,1,6,1,0,0,7,0,0,FALSE
US,FL,32663,MARION COUNTY,1,6,1,0,0,7,0,0,FALSE
US,FL,32664,MCINTOSH,2,6,1,0,0,7,0,0,FALSE
US,FL,32666,PUTNAM COUNTY,1,6,1,0,0,7,0,0,FALSE
US,FL,32667,ALACHUA COUNTY,1,6,1,0,0,7,0,0,FALSE
US,FL,32668,LEVY COUNTY,1,6,1,0,0,7,0,0,FALSE
US,FL,32669,ALACHUA COUNTY,3,6,1,0,0,7,0,0,FALSE
US,FL,32680,DIXIE COUNTY,1,6,1,0,0,7,0,0,FALSE
US,FL,32681,MARION COUNTY,1,6,1,0,0,7,0,0,FALSE
US,FL,32683,OTTER CREEK,1,6,1,0,0,7,0,0,FALSE
US,FL,32686,MARION COUNTY,2,6,1,0,0,7,0,0,FALSE
US,FL,32692,DIXIE COUNTY,2,6,1,0,0,7,0,0,FALSE
US,FL,32693,GILCHRIST COUNTY,2,6,1,0,0,7,0,0,FALSE
US,FL,32694,ALACHUA COUNTY,1,6,1,0,0,7,0,0,FALSE
US,FL,32696,LEVY COUNTY,1,6,1,0,0,7,0,0,FALSE
US,FL,32697,WORTHINGTON SPRINGS,1,6,1,0,0,7,0,0,FALSE
US,FL,32701,ALTAMONTE SPRINGS,1,6,1,0,0,7,0,0,FALSE
US,FL,32702,LAKE COUNTY,1,6,1,0,0,7,0,0,FALSE
US,FL,32703,APOPKA,1,6,0.5,0,0,6.5,0,0,FALSE
US,FL,32704,APOPKA,1,6,0.5,0,0,6.5,0,0,FALSE
US,FL,32706,NEW SMYRNA BEACH,1,6,0.5,0,0,6.5,0,0,FALSE
US,FL,32707,CASSELBERRY,1,6,1,0,0,7,0,0,FALSE
US,FL,32708,WINTER SPRINGS,2,6,1,0,0,7,0,0,FALSE
US,FL,32709,ORANGE COUNTY,1,6,0.5,0,0,6.5,0,0,FALSE
US,FL,32710,ORANGE COUNTY,1,6,0.5,0,0,6.5,0,0,FALSE
US,FL,32712,APOPKA,1,6,0.5,0,0,6.5,0,0,FALSE
US,FL,32713,DEBARY,1,6,0.5,0,0,6.5,0,0,FALSE
US,FL,32714,ALTAMONTE SPRINGS,2,6,1,0,0,7,0,0,FALSE
US,FL,32715,ALTAMONTE SPRINGS,1,6,1,0,0,7,0,0,FALSE
US,FL,32716,ALTAMONTE SPRINGS,1,6,1,0,0,7,0,0,FALSE
US,FL,32718,CASSELBERRY,1,6,1,0,0,7,0,0,FALSE
US,FL,32719,WINTER SPRINGS,2,6,1,0,0,7,0,0,FALSE
US,FL,32720,VOLUSIA COUNTY,1,6,0.5,0,0,6.5,0,0,FALSE
US,FL,32721,DELAND,1,6,0.5,0,0,6.5,0,0,FALSE
US,FL,32723,DELAND,1,6,0.5,0,0,6.5,0,0,FALSE
US,FL,32724,DELAND,1,6,0.5,0,0,6.5,0,0,FALSE
US,FL,32725,DELTONA,2,6,0.5,0,0,6.5,0,0,FALSE
US,FL,32726,EUSTIS,1,6,1,0,0,7,0,0,FALSE
US,FL,32727,EUSTIS,1,6,1,0,0,7,0,0,FALSE
US,FL,32728,DELTONA,1,6,0.5,0,0,6.5,0,0,FALSE
US,FL,32730,SEMINOLE COUNTY,2,6,1,0,0,7,0,0,FALSE
US,FL,32732,SEMINOLE COUNTY,1,6,1,0,0,7,0,0,FALSE
US,FL,32733,SEMINOLE COUNTY,1,6,1,0,0,7,0,0,FALSE
US,FL,32735,LAKE COUNTY,1,6,1,0,0,7,0,0,FALSE
US,FL,32736,LAKE COUNTY,1,6,1,0,0,7,0,0,FALSE
US,FL,32738,DELTONA,1,6,0.5,0,0,6.5,0,0,FALSE
US,FL,32739,DELTONA,1,6,0.5,0,0,6.5,0,0,FALSE
US,FL,32744,LAKE HELEN,1,6,0.5,0,0,6.5,0,0,FALSE
US,FL,32746,SEMINOLE COUNTY,2,6,1,0,0,7,0,0,FALSE
US,FL,32747,SEMINOLE COUNTY,1,6,1,0,0,7,0,0,FALSE
US,FL,32750,LONGWOOD,1,6,1,0,0,7,0,0,FALSE
US,FL,32751,MAITLAND,2,6,0.5,0,0,6.5,0,0,FALSE
US,FL,32752,SEMINOLE COUNTY,1,6,1,0,0,7,0,0,FALSE
US,FL,32753,DEBARY,1,6,0.5,0,0,6.5,0,0,FALSE
US,FL,32754,BREVARD COUNTY,1,6,1,0,0,7,0,0,FALSE
US,FL,32756,MOUNT DORA,1,6,1,0,0,7,0,0,FALSE
US,FL,32757,MOUNT DORA,1,6,1,0,0,7,0,0,FALSE
US,FL,32759,OAK HILL,1,6,0.5,0,0,6.5,0,0,FALSE
US,FL,32762,OVIEDO,1,6,1,0,0,7,0,0,FALSE
US,FL,32763,ORANGE CITY,1,6,0.5,0,0,6.5,0,0,FALSE
US,FL,32764,VOLUSIA COUNTY,1,6,0.5,0,0,6.5,0,0,FALSE
US,FL,32765,SEMINOLE COUNTY,1,6,1,0,0,7,0,0,FALSE
US,FL,32766,SEMINOLE COUNTY,2,6,1,0,0,7,0,0,FALSE
US,FL,32767,LAKE COUNTY,1,6,1,0,0,7,0,0,FALSE
US,FL,32768,APOPKA,1,6,0.5,0,0,6.5,0,0,FALSE
US,FL,32771,SANFORD,1,6,1,0,0,7,0,0,FALSE
US,FL,32772,SANFORD,1,6,1,0,0,7,0,0,FALSE
US,FL,32773,SANFORD,1,6,1,0,0,7,0,0,FALSE
US,FL,32774,ORANGE CITY,1,6,0.5,0,0,6.5,0,0,FALSE
US,FL,32775,BREVARD COUNTY,1,6,1,0,0,7,0,0,FALSE
US,FL,32776,LAKE COUNTY,2,6,1,0,0,7,0,0,FALSE
US,FL,32777,ORANGE COUNTY,1,6,0.5,0,0,6.5,0,0,FALSE
US,FL,32778,TAVARES,2,6,1,0,0,7,0,0,FALSE
US,FL,32779,SEMINOLE COUNTY,2,6,1,0,0,7,0,0,FALSE
US,FL,32780,TITUSVILLE,1,6,1,0,0,7,0,0,FALSE
US,FL,32781,TITUSVILLE,1,6,1,0,0,7,0,0,FALSE
US,FL,32783,TITUSVILLE,1,6,1,0,0,7,0,0,FALSE
US,FL,32784,LAKE COUNTY,2,6,1,0,0,7,0,0,FALSE
US,FL,32789,WINTER PARK,1,6,0.5,0,0,6.5,0,0,FALSE
US,FL,32790,WINTER PARK,1,6,0.5,0,0,6.5,0,0,FALSE
US,FL,32791,SEMINOLE COUNTY,2,6,1,0,0,7,0,0,FALSE
US,FL,32792,ORANGE COUNTY,2,6,0.5,0,0,6.5,0,0,FALSE
US,FL,32793,ORANGE COUNTY,1,6,0.5,0,0,6.5,0,0,FALSE
US,FL,32794,EATONVILLE,1,6,0.5,0,0,6.5,0,0,FALSE
US,FL,32795,LAKE MARY,1,6,1,0,0,7,0,0,FALSE
US,FL,32796,TITUSVILLE,1,6,1,0,0,7,0,0,FALSE
US,FL,32798,ORANGE COUNTY,1,6,0.5,0,0,6.5,0,0,FALSE
US,FL,32799,LAKE MARY,1,6,1,0,0,7,0,0,FALSE
US,FL,32801,ORLANDO,2,6,0.5,0,0,6.5,0,0,FALSE
US,FL,32802,ORLANDO,2,6,0.5,0,0,6.5,0,0,FALSE
US,FL,32803,ORLANDO,2,6,0.5,0,0,6.5,0,0,FALSE
US,FL,32804,ORLANDO,2,6,0.5,0,0,6.5,0,0,FALSE
US,FL,32805,ORLANDO,2,6,0.5,0,0,6.5,0,0,FALSE
US,FL,32806,ORLANDO,2,6,0.5,0,0,6.5,0,0,FALSE
US,FL,32807,ORANGE COUNTY,3,6,0.5,0,0,6.5,0,0,FALSE
US,FL,32808,ORANGE COUNTY,3,6,0.5,0,0,6.5,0,0,FALSE
US,FL,32809,ORANGE COUNTY,5,6,0.5,0,0,6.5,0,0,FALSE
US,FL,32810,ORANGE COUNTY,2,6,0.5,0,0,6.5,0,0,FALSE
US,FL,32811,ORLANDO,3,6,0.5,0,0,6.5,0,0,FALSE
US,FL,32812,ORLANDO,3,6,0.5,0,0,6.5,0,0,FALSE
US,FL,32814,ORLANDO,2,6,0.5,0,0,6.5,0,0,FALSE
US,FL,32815,NEW SMYRNA BEACH,2,6,0.5,0,0,6.5,0,0,FALSE
US,FL,32816,ORANGE COUNTY,3,6,0.5,0,0,6.5,0,0,FALSE
US,FL,32817,ORANGE COUNTY,3,6,0.5,0,0,6.5,0,0,FALSE
US,FL,32818,ORANGE COUNTY,4,6,0.5,0,0,6.5,0,0,FALSE
US,FL,32819,ORANGE COUNTY,3,6,0.5,0,0,6.5,0,0,FALSE
US,FL,32820,ORANGE COUNTY,3,6,0.5,0,0,6.5,0,0,FALSE
US,FL,32821,ORANGE COUNTY,3,6,0.5,0,0,6.5,0,0,FALSE
US,FL,32822,ORLANDO,2,6,0.5,0,0,6.5,0,0,FALSE
US,FL,32824,ORANGE COUNTY,2,6,0.5,0,0,6.5,0,0,FALSE
US,FL,32825,ORANGE COUNTY,3,6,0.5,0,0,6.5,0,0,FALSE
US,FL,32826,ORANGE COUNTY,3,6,0.5,0,0,6.5,0,0,FALSE
US,FL,32827,ORLANDO,2,6,0.5,0,0,6.5,0,0,FALSE
US,FL,32828,ORANGE COUNTY,3,6,0.5,0,0,6.5,0,0,FALSE
US,FL,32829,ORLANDO,2,6,0.5,0,0,6.5,0,0,FALSE
US,FL,32830,ORANGE COUNTY,3,6,0.5,0,0,6.5,0,0,FALSE
US,FL,32831,ORANGE COUNTY,3,6,0.5,0,0,6.5,0,0,FALSE
US,FL,32832,ORANGE COUNTY,2,6,0.5,0,0,6.5,0,0,FALSE
US,FL,32833,ORANGE COUNTY,3,6,0.5,0,0,6.5,0,0,FALSE
US,FL,32834,ORANGE COUNTY,3,6,0.5,0,0,6.5,0,0,FALSE
US,FL,32835,ORLANDO,2,6,0.5,0,0,6.5,0,0,FALSE
US,FL,32836,ORANGE COUNTY,3,6,0.5,0,0,6.5,0,0,FALSE
US,FL,32837,ORANGE COUNTY,2,6,0.5,0,0,6.5,0,0,FALSE
US,FL,32839,ORANGE COUNTY,4,6,0.5,0,0,6.5,0,0,FALSE
US,FL,32853,ORLANDO,2,6,0.5,0,0,6.5,0,0,FALSE
US,FL,32854,ORLANDO,2,6,0.5,0,0,6.5,0,0,FALSE
US,FL,32855,ORLANDO,2,6,0.5,0,0,6.5,0,0,FALSE
US,FL,32856,ORLANDO,2,6,0.5,0,0,6.5,0,0,FALSE
US,FL,32857,ORANGE COUNTY,2,6,0.5,0,0,6.5,0,0,FALSE
US,FL,32858,ORANGE COUNTY,2,6,0.5,0,0,6.5,0,0,FALSE
US,FL,32859,ORANGE COUNTY,2,6,0.5,0,0,6.5,0,0,FALSE
US,FL,32860,ORANGE COUNTY,2,6,0.5,0,0,6.5,0,0,FALSE
US,FL,32861,ORLANDO,2,6,0.5,0,0,6.5,0,0,FALSE
US,FL,32862,ORLANDO,2,6,0.5,0,0,6.5,0,0,FALSE
US,FL,32867,ORANGE COUNTY,2,6,0.5,0,0,6.5,0,0,FALSE
US,FL,32868,ORANGE COUNTY,2,6,0.5,0,0,6.5,0,0,FALSE
US,FL,32869,ORANGE COUNTY,2,6,0.5,0,0,6.5,0,0,FALSE
US,FL,32872,ORANGE COUNTY,2,6,0.5,0,0,6.5,0,0,FALSE
US,FL,32877,ORANGE COUNTY,2,6,0.5,0,0,6.5,0,0,FALSE
US,FL,32878,ORANGE COUNTY,3,6,0.5,0,0,6.5,0,0,FALSE
US,FL,32899,ORLANDO,2,6,0.5,0,0,6.5,0,0,FALSE
US,FL,32901,MELBOURNE,1,6,1,0,0,7,0,0,FALSE
US,FL,32902,MELBOURNE,1,6,1,0,0,7,0,0,FALSE
US,FL,32903,BREVARD COUNTY,2,6,1,0,0,7,0,0,FALSE
US,FL,32904,WEST MELBOURNE,3,6,1,0,0,7,0,0,FALSE
US,FL,32905,PALM BAY,2,6,1,0,0,7,0,0,FALSE
US,FL,32906,PALM BAY,2,6,1,0,0,7,0,0,FALSE
US,FL,32907,PALM BAY,2,6,1,0,0,7,0,0,FALSE
US,FL,32908,PALM BAY,2,6,1,0,0,7,0,0,FALSE
US,FL,32909,PALM BAY,3,6,1,0,0,7,0,0,FALSE
US,FL,32910,PALM BAY,2,6,1,0,0,7,0,0,FALSE
US,FL,32911,PALM BAY,2,6,1,0,0,7,0,0,FALSE
US,FL,32912,WEST MELBOURNE,2,6,1,0,0,7,0,0,FALSE
US,FL,32919,MELBOURNE,1,6,1,0,0,7,0,0,FALSE
US,FL,32920,CAPE CANAVERAL,3,6,1,0,0,7,0,0,FALSE
US,FL,32922,COCOA,1,6,1,0,0,7,0,0,FALSE
US,FL,32923,COCOA,1,6,1,0,0,7,0,0,FALSE
US,FL,32924,COCOA,1,6,1,0,0,7,0,0,FALSE
US,FL,32925,BREVARD COUNTY,1,6,1,0,0,7,0,0,FALSE
US,FL,32926,BREVARD COUNTY,1,6,1,0,0,7,0,0,FALSE
US,FL,32927,BREVARD COUNTY,3,6,1,0,0,7,0,0,FALSE
US,FL,32931,COCOA BEACH,1,6,1,0,0,7,0,0,FALSE
US,FL,32932,COCOA BEACH,1,6,1,0,0,7,0,0,FALSE
US,FL,32934,MELBOURNE,2,6,1,0,0,7,0,0,FALSE
US,FL,32935,MELBOURNE,2,6,1,0,0,7,0,0,FALSE
US,FL,32936,MELBOURNE,2,6,1,0,0,7,0,0,FALSE
US,FL,32937,SATELLITE BEACH,3,6,1,0,0,7,0,0,FALSE
US,FL,32940,BREVARD COUNTY,3,6,1,0,0,7,0,0,FALSE
US,FL,32941,MELBOURNE,1,6,1,0,0,7,0,0,FALSE
US,FL,32948,INDIAN RIVER COUNTY,1,6,1,0,0,7,0,0,FALSE
US,FL,32949,GRANT-VALKARIA,2,6,1,0,0,7,0,0,FALSE
US,FL,32950,MALABAR,3,6,1,0,0,7,0,0,FALSE
US,FL,32951,BREVARD COUNTY,2,6,1,0,0,7,0,0,FALSE
US,FL,32952,BREVARD COUNTY,1,6,1,0,0,7,0,0,FALSE
US,FL,32953,BREVARD COUNTY,1,6,1,0,0,7,0,0,FALSE
US,FL,32954,BREVARD COUNTY,1,6,1,0,0,7,0,0,FALSE
US,FL,32955,ROCKLEDGE,2,6,1,0,0,7,0,0,FALSE
US,FL,32956,ROCKLEDGE,1,6,1,0,0,7,0,0,FALSE
US,FL,32957,INDIAN RIVER COUNTY,1,6,1,0,0,7,0,0,FALSE
US,FL,32958,SEBASTIAN,2,6,1,0,0,7,0,0,FALSE
US,FL,32959,OSCEOLA COUNTY,1,6,1.5,0,0,7.5,0,0,FALSE
US,FL,32960,VERO BEACH,1,6,1,0,0,7,0,0,FALSE
US,FL,32961,VERO BEACH,1,6,1,0,0,7,0,0,FALSE
US,FL,32962,INDIAN RIVER COUNTY,1,6,1,0,0,7,0,0,FALSE
US,FL,32963,VERO BEACH,3,6,1,0,0,7,0,0,FALSE
US,FL,32964,VERO BEACH,1,6,1,0,0,7,0,0,FALSE
US,FL,32965,INDIAN RIVER COUNTY,1,6,1,0,0,7,0,0,FALSE
US,FL,32966,INDIAN RIVER COUNTY,2,6,1,0,0,7,0,0,FALSE
US,FL,32967,INDIAN RIVER COUNTY,1,6,1,0,0,7,0,0,FALSE
US,FL,32968,INDIAN RIVER COUNTY,2,6,1,0,0,7,0,0,FALSE
US,FL,32969,INDIAN RIVER COUNTY,2,6,1,0,0,7,0,0,FALSE
US,FL,32970,INDIAN RIVER COUNTY,1,6,1,0,0,7,0,0,FALSE
US,FL,32971,INDIAN RIVER COUNTY,1,6,1,0,0,7,0,0,FALSE
US,FL,32976,BREVARD COUNTY,4,6,1,0,0,7,0,0,FALSE
US,FL,32978,SEBASTIAN,2,6,1,0,0,7,0,0,FALSE
US,FL,33001,LAYTON,4,6,1.5,0,0,7.5,0,0,FALSE
US,FL,33002,HIALHEAH,1,6,1,0,0,7,0,0,FALSE
US,FL,33004,DANIA BEACH,2,6,1,0,0,7,0,0,FALSE
US,FL,33008,HALLANDALE BEACH,3,6,1,0,0,7,0,0,FALSE
US,FL,33009,HALLANDALE BEACH,4,6,1,0,0,7,0,0,FALSE
US,FL,33010,HIALHEAH,2,6,1,0,0,7,0,0,FALSE
US,FL,33011,HIALHEAH,1,6,1,0,0,7,0,0,FALSE
US,FL,33012,HIALHEAH,1,6,1,0,0,7,0,0,FALSE
US,FL,33013,HIALHEAH,1,6,1,0,0,7,0,0,FALSE
US,FL,33014,HIALHEAH,4,6,1,0,0,7,0,0,FALSE
US,FL,33015,MIAMI DADE CNVNTN DD,5,6,1,0,0,7,0,0,FALSE
US,FL,33016,HIALHEAH,3,6,1,0,0,7,0,0,FALSE
US,FL,33017,MIAMI DADE CNVNTN DD,2,6,1,0,0,7,0,0,FALSE
US,FL,33018,HIALHEAH,3,6,1,0,0,7,0,0,FALSE
US,FL,33019,HOLLYWOOD,1,6,1,0,0,7,0,0,FALSE
US,FL,33020,HOLLYWOOD,1,6,1,0,0,7,0,0,FALSE
US,FL,33021,HOLLYWOOD,2,6,1,0,0,7,0,0,FALSE
US,FL,33022,HOLLYWOOD,1,6,1,0,0,7,0,0,FALSE
US,FL,33023,MIRAMAR,6,6,1,0,0,7,0,0,FALSE
US,FL,33024,PEMBROKE PINES,3,6,1,0,0,7,0,0,FALSE
US,FL,33025,MIRAMAR,3,6,1,0,0,7,0,0,FALSE
US,FL,33026,PEMBROKE PINES,4,6,1,0,0,7,0,0,FALSE
US,FL,33027,PEMBROKE PINES,3,6,1,0,0,7,0,0,FALSE
US,FL,33028,PEMBROKE PINES,2,6,1,0,0,7,0,0,FALSE
US,FL,33029,PEMBROKE PINES,3,6,1,0,0,7,0,0,FALSE
US,FL,33030,HOMESTEAD,4,6,1,0,0,7,0,0,FALSE
US,FL,33031,MIAMI DADE CNVNTN DD,2,6,1,0,0,7,0,0,FALSE
US,FL,33032,MIAMI DADE CNVNTN DD,4,6,1,0,0,7,0,0,FALSE
US,FL,33033,MIAMI DADE CNVNTN DD,3,6,1,0,0,7,0,0,FALSE
US,FL,33034,FLORIDA CITY,2,6,1,0,0,7,0,0,FALSE
US,FL,33035,HOMESTEAD,1,6,1,0,0,7,0,0,FALSE
US,FL,33036,"ISLAMORADA, VILLAGE OF ISLANDS",7,6,1.5,0,0,7.5,0,0,FALSE
US,FL,33037,MONROE COUNTY,4,6,1.5,0,0,7.5,0,0,FALSE
US,FL,33039,MIAMI DADE CNVNTN DD,1,6,1,0,0,7,0,0,FALSE
US,FL,33040,KEY WEST,5,6,1.5,0,0,7.5,0,0,FALSE
US,FL,33041,KEY WEST,1,6,1.5,0,0,7.5,0,0,FALSE
US,FL,33042,MONROE COUNTY,11,6,1.5,0,0,7.5,0,0,FALSE
US,FL,33043,MONROE COUNTY,2,6,1.5,0,0,7.5,0,0,FALSE
US,FL,33045,KEY WEST,1,6,1.5,0,0,7.5,0,0,FALSE
US,FL,33050,MARATHON,5,6,1.5,0,0,7.5,0,0,FALSE
US,FL,33051,KEY COLONY BEACH,2,6,1.5,0,0,7.5,0,0,FALSE
US,FL,33052,MARATHON,2,6,1.5,0,0,7.5,0,0,FALSE
US,FL,33054,OPA-LOCKA,2,6,1,0,0,7,0,0,FALSE
US,FL,33055,MIAMI DADE CNVNTN DD,3,6,1,0,0,7,0,0,FALSE
US,FL,33056,MIAMI GARDENS,3,6,1,0,0,7,0,0,FALSE
US,FL,33060,POMPANO BEACH,1,6,1,0,0,7,0,0,FALSE
US,FL,33061,POMPANO BEACH,1,6,1,0,0,7,0,0,FALSE
US,FL,33062,POMPANO BEACH,3,6,1,0,0,7,0,0,FALSE
US,FL,33063,MARGATE,3,6,1,0,0,7,0,0,FALSE
US,FL,33064,POMPANO BEACH,3,6,1,0,0,7,0,0,FALSE
US,FL,33065,CORAL SPRINGS,3,6,1,0,0,7,0,0,FALSE
US,FL,33066,COCONUT CREEK,2,6,1,0,0,7,0,0,FALSE
US,FL,33067,CORAL SPRINGS,3,6,1,0,0,7,0,0,FALSE
US,FL,33068,NORTH LAUDERDALE,3,6,1,0,0,7,0,0,FALSE
US,FL,33069,POMPANO BEACH,1,6,1,0,0,7,0,0,FALSE
US,FL,33070,MONROE COUNTY,2,6,1.5,0,0,7.5,0,0,FALSE
US,FL,33071,CORAL SPRINGS,2,6,1,0,0,7,0,0,FALSE
US,FL,33073,COCONUT CREEK,5,6,1,0,0,7,0,0,FALSE
US,FL,33074,POMPANO BEACH,1,6,1,0,0,7,0,0,FALSE
US,FL,33075,CORAL SPRINGS,1,6,1,0,0,7,0,0,FALSE
US,FL,33076,PARKLAND,3,6,1,0,0,7,0,0,FALSE
US,FL,33077,CORAL SPRINGS,1,6,1,0,0,7,0,0,FALSE
US,FL,33081,HOLLYWOOD,1,6,1,0,0,7,0,0,FALSE
US,FL,33082,PEMBROKE PINES,1,6,1,0,0,7,0,0,FALSE
US,FL,33083,HOLLYWOOD,1,6,1,0,0,7,0,0,FALSE
US,FL,33084,HOLLYWOOD,2,6,1,0,0,7,0,0,FALSE
US,FL,33090,HOMESTEAD,1,6,1,0,0,7,0,0,FALSE
US,FL,33092,MIAMI DADE CNVNTN DD,3,6,1,0,0,7,0,0,FALSE
US,FL,33093,COCONUT CREEK,1,6,1,0,0,7,0,0,FALSE
US,FL,33097,COCONUT CREEK,1,6,1,0,0,7,0,0,FALSE
US,FL,33101,MIAMI,1,6,1,0,0,7,0,0,FALSE
US,FL,33106,MIAMI DADE CNVNTN DD,1,6,1,0,0,7,0,0,FALSE
US,FL,33109,MIAMI DADE CNVNTN DD,3,6,1,0,0,7,0,0,FALSE
US,FL,33112,SWEETWATER,1,6,1,0,0,7,0,0,FALSE
US,FL,33114,CORAL GABLES,2,6,1,0,0,7,0,0,FALSE
US,FL,33116,MIAMI DADE CNVNTN DD,1,6,1,0,0,7,0,0,FALSE
US,FL,33119,MIAMI BEACH,2,6,1,0,0,7,0,0,FALSE
US,FL,33122,DORAL,2,6,1,0,0,7,0,0,FALSE
US,FL,33124,MIAMI,2,6,1,0,0,7,0,0,FALSE
US,FL,33125,MIAMI,1,6,1,0,0,7,0,0,FALSE
US,FL,33126,MIAMI,2,6,1,0,0,7,0,0,FALSE
US,FL,33127,MIAMI,1,6,1,0,0,7,0,0,FALSE
US,FL,33128,MIAMI,1,6,1,0,0,7,0,0,FALSE
US,FL,33129,MIAMI,1,6,1,0,0,7,0,0,FALSE
US,FL,33130,MIAMI,1,6,1,0,0,7,0,0,FALSE
US,FL,33131,MIAMI,1,6,1,0,0,7,0,0,FALSE
US,FL,33132,MIAMI,2,6,1,0,0,7,0,0,FALSE
US,FL,33133,MIAMI,3,6,1,0,0,7,0,0,FALSE
US,FL,33134,CORAL GABLES,3,6,1,0,0,7,0,0,FALSE
US,FL,33135,MIAMI,1,6,1,0,0,7,0,0,FALSE
US,FL,33136,MIAMI,1,6,1,0,0,7,0,0,FALSE
US,FL,33137,MIAMI,1,6,1,0,0,7,0,0,FALSE
US,FL,33138,MIAMI,3,6,1,0,0,7,0,0,FALSE
US,FL,33139,MIAMI BEACH,3,6,1,0,0,7,0,0,FALSE
US,FL,33140,MIAMI BEACH,3,6,1,0,0,7,0,0,FALSE
US,FL,33141,MIAMI BEACH,5,6,1,0,0,7,0,0,FALSE
US,FL,33142,MIAMI,1,6,1,0,0,7,0,0,FALSE
US,FL,33143,MIAMI DADE CNVNTN DD,3,6,1,0,0,7,0,0,FALSE
US,FL,33144,MIAMI DADE CNVNTN DD,4,6,1,0,0,7,0,0,FALSE
US,FL,33145,MIAMI,3,6,1,0,0,7,0,0,FALSE
US,FL,33146,CORAL GABLES,4,6,1,0,0,7,0,0,FALSE
US,FL,33147,MIAMI DADE CNVNTN DD,1,6,1,0,0,7,0,0,FALSE
US,FL,33149,KEY BISCAYNE,2,6,1,0,0,7,0,0,FALSE
US,FL,33150,MIAMI DADE CNVNTN DD,3,6,1,0,0,7,0,0,FALSE
US,FL,33152,MIAMI DADE CNVNTN DD,1,6,1,0,0,7,0,0,FALSE
US,FL,33153,MIAMI SHORES,2,6,1,0,0,7,0,0,FALSE
US,FL,33154,BAY HARBOR ISLANDS,7,6,1,0,0,7,0,0,FALSE
US,FL,33155,MIAMI DADE CNVNTN DD,3,6,1,0,0,7,0,0,FALSE
US,FL,33156,PINECREST,8,6,1,0,0,7,0,0,FALSE
US,FL,33157,MIAMI DADE CNVNTN DD,6,6,1,0,0,7,0,0,FALSE
US,FL,33158,PALMETTO BAY,6,6,1,0,0,7,0,0,FALSE
US,FL,33159,MIAMI,1,6,1,0,0,7,0,0,FALSE
US,FL,33160,SUNNY ISLES BEACH,6,6,1,0,0,7,0,0,FALSE
US,FL,33161,NORTH MIAMI,5,6,1,0,0,7,0,0,FALSE
US,FL,33162,NORTH MIAMI BEACH,6,6,1,0,0,7,0,0,FALSE
US,FL,33163,MIAMI DADE CNVNTN DD,2,6,1,0,0,7,0,0,FALSE
US,FL,33164,MIAMI GARDENS,3,6,1,0,0,7,0,0,FALSE
US,FL,33165,MIAMI DADE CNVNTN DD,3,6,1,0,0,7,0,0,FALSE
US,FL,33166,DORAL,6,6,1,0,0,7,0,0,FALSE
US,FL,33167,MIAMI DADE CNVNTN DD,3,6,1,0,0,7,0,0,FALSE
US,FL,33168,MIAMI DADE CNVNTN DD,3,6,1,0,0,7,0,0,FALSE
US,FL,33169,MIAMI GARDENS,4,6,1,0,0,7,0,0,FALSE
US,FL,33170,MIAMI DADE CNVNTN DD,6,6,1,0,0,7,0,0,FALSE
US,FL,33172,MIAMI DADE CNVNTN DD,4,6,1,0,0,7,0,0,FALSE
US,FL,33173,MIAMI DADE CNVNTN DD,2,6,1,0,0,7,0,0,FALSE
US,FL,33174,MIAMI DADE CNVNTN DD,4,6,1,0,0,7,0,0,FALSE
US,FL,33175,MIAMI DADE CNVNTN DD,2,6,1,0,0,7,0,0,FALSE
US,FL,33176,MIAMI DADE CNVNTN DD,4,6,1,0,0,7,0,0,FALSE
US,FL,33177,MIAMI DADE CNVNTN DD,4,6,1,0,0,7,0,0,FALSE
US,FL,33178,DORAL,3,6,1,0,0,7,0,0,FALSE
US,FL,33179,MIAMI DADE CNVNTN DD,3,6,1,0,0,7,0,0,FALSE
US,FL,33180,AVENTURA,4,6,1,0,0,7,0,0,FALSE
US,FL,33181,NORTH MIAMI,4,6,1,0,0,7,0,0,FALSE
US,FL,33182,MIAMI DADE CNVNTN DD,4,6,1,0,0,7,0,0,FALSE
US,FL,33183,MIAMI DADE CNVNTN DD,3,6,1,0,0,7,0,0,FALSE
US,FL,33184,MIAMI DADE CNVNTN DD,3,6,1,0,0,7,0,0,FALSE
US,FL,33185,MIAMI DADE CNVNTN DD,2,6,1,0,0,7,0,0,FALSE
US,FL,33186,MIAMI DADE CNVNTN DD,2,6,1,0,0,7,0,0,FALSE
US,FL,33187,MIAMI DADE CNVNTN DD,4,6,1,0,0,7,0,0,FALSE
US,FL,33189,CUTLER BAY,4,6,1,0,0,7,0,0,FALSE
US,FL,33190,CUTLER BAY,4,6,1,0,0,7,0,0,FALSE
US,FL,33191,DORAL,2,6,1,0,0,7,0,0,FALSE
US,FL,33192,DORAL,2,6,1,0,0,7,0,0,FALSE
US,FL,33193,MIAMI DADE CNVNTN DD,1,6,1,0,0,7,0,0,FALSE
US,FL,33194,MIAMI DADE CNVNTN DD,3,6,1,0,0,7,0,0,FALSE
US,FL,33195,MIAMI DADE CNVNTN DD,2,6,1,0,0,7,0,0,FALSE
US,FL,33196,MIAMI DADE CNVNTN DD,2,6,1,0,0,7,0,0,FALSE
US,FL,33197,MIAMI DADE CNVNTN DD,2,6,1,0,0,7,0,0,FALSE
US,FL,33198,DORAL,1,6,1,0,0,7,0,0,FALSE
US,FL,33199,MIAMI DADE CNVNTN DD,1,6,1,0,0,7,0,0,FALSE
US,FL,33222,MIAMI DADE CNVNTN DD,1,6,1,0,0,7,0,0,FALSE
US,FL,33231,MIAMI,2,6,1,0,0,7,0,0,FALSE
US,FL,33233,MIAMI,1,6,1,0,0,7,0,0,FALSE
US,FL,33234,CORAL GABLES,3,6,1,0,0,7,0,0,FALSE
US,FL,33238,MIAMI,1,6,1,0,0,7,0,0,FALSE
US,FL,33239,MIAMI BEACH,2,6,1,0,0,7,0,0,FALSE
US,FL,33242,MIAMI,1,6,1,0,0,7,0,0,FALSE
US,FL,33243,SOUTH MIAMI,2,6,1,0,0,7,0,0,FALSE
US,FL,33245,MIAMI,1,6,1,0,0,7,0,0,FALSE
US,FL,33247,MIAMI DADE CNVNTN DD,1,6,1,0,0,7,0,0,FALSE
US,FL,33255,MIAMI DADE CNVNTN DD,2,6,1,0,0,7,0,0,FALSE
US,FL,33256,MIAMI DADE CNVNTN DD,5,6,1,0,0,7,0,0,FALSE
US,FL,33257,PALMETTO BAY,3,6,1,0,0,7,0,0,FALSE
US,FL,33261,NORTH MIAMI,5,6,1,0,0,7,0,0,FALSE
US,FL,33265,MIAMI DADE CNVNTN DD,2,6,1,0,0,7,0,0,FALSE
US,FL,33266,MIAMI SPRINGS,2,6,1,0,0,7,0,0,FALSE
US,FL,33269,MIAMI GARDENS,1,6,1,0,0,7,0,0,FALSE
US,FL,33280,MIAMI DADE CNVNTN DD,2,6,1,0,0,7,0,0,FALSE
US,FL,33283,MIAMI DADE CNVNTN DD,1,6,1,0,0,7,0,0,FALSE
US,FL,33296,PINECREST,1,6,1,0,0,7,0,0,FALSE
US,FL,33299,MIAMI DADE CNVNTN DD,1,6,1,0,0,7,0,0,FALSE
US,FL,33301,FORT LAUDERDALE,1,6,1,0,0,7,0,0,FALSE
US,FL,33302,FORT LAUDERDALE,1,6,1,0,0,7,0,0,FALSE
US,FL,33303,FORT LAUDERDALE,1,6,1,0,0,7,0,0,FALSE
US,FL,33304,FORT LAUDERDALE,2,6,1,0,0,7,0,0,FALSE
US,FL,33305,FORT LAUDERDALE,4,6,1,0,0,7,0,0,FALSE
US,FL,33306,FORT LAUDERDALE,3,6,1,0,0,7,0,0,FALSE
US,FL,33307,FORT LAUDERDALE,1,6,1,0,0,7,0,0,FALSE
US,FL,33308,FORT LAUDERDALE,4,6,1,0,0,7,0,0,FALSE
US,FL,33309,OAKLAND PARK,6,6,1,0,0,7,0,0,FALSE
US,FL,33310,OAKLAND PARK,1,6,1,0,0,7,0,0,FALSE
US,FL,33311,FORT LAUDERDALE,6,6,1,0,0,7,0,0,FALSE
US,FL,33312,FORT LAUDERDALE,3,6,1,0,0,7,0,0,FALSE
US,FL,33313,LAUDERHILL,6,6,1,0,0,7,0,0,FALSE
US,FL,33314,DAVIE,3,6,1,0,0,7,0,0,FALSE
US,FL,33315,FORT LAUDERDALE,1,6,1,0,0,7,0,0,FALSE
US,FL,33316,FORT LAUDERDALE,2,6,1,0,0,7,0,0,FALSE
US,FL,33317,PLANTATION,3,6,1,0,0,7,0,0,FALSE
US,FL,33318,SUNRISE,2,6,1,0,0,7,0,0,FALSE
US,FL,33319,LAUDERHILL,7,6,1,0,0,7,0,0,FALSE
US,FL,33320,SUNRISE,2,6,1,0,0,7,0,0,FALSE
US,FL,33321,TAMARAC,3,6,1,0,0,7,0,0,FALSE
US,FL,33322,SUNRISE,3,6,1,0,0,7,0,0,FALSE
US,FL,33323,SUNRISE,3,6,1,0,0,7,0,0,FALSE
US,FL,33324,PLANTATION,3,6,1,0,0,7,0,0,FALSE
US,FL,33325,DAVIE,4,6,1,0,0,7,0,0,FALSE
US,FL,33326,WESTON,5,6,1,0,0,7,0,0,FALSE
US,FL,33327,WESTON,2,6,1,0,0,7,0,0,FALSE
US,FL,33328,DAVIE,3,6,1,0,0,7,0,0,FALSE
US,FL,33329,DAVIE,3,6,1,0,0,7,0,0,FALSE
US,FL,33330,DAVIE,6,6,1,0,0,7,0,0,FALSE
US,FL,33331,DAVIE,5,6,1,0,0,7,0,0,FALSE
US,FL,33332,SOUTHWEST RANCHES,4,6,1,0,0,7,0,0,FALSE
US,FL,33334,OAKLAND PARK,3,6,1,0,0,7,0,0,FALSE
US,FL,33335,FORT LAUDERDALE,1,6,1,0,0,7,0,0,FALSE
US,FL,33338,PLANTATION,1,6,1,0,0,7,0,0,FALSE
US,FL,33339,FORT LAUDERDALE,1,6,1,0,0,7,0,0,FALSE
US,FL,33345,SUNRISE,2,6,1,0,0,7,0,0,FALSE
US,FL,33346,FORT LAUDERDALE,1,6,1,0,0,7,0,0,FALSE
US,FL,33348,FORT LAUDERDALE,1,6,1,0,0,7,0,0,FALSE
US,FL,33351,SUNRISE,4,6,1,0,0,7,0,0,FALSE
US,FL,33355,DAVIE,1,6,1,0,0,7,0,0,FALSE
US,FL,33359,NORTH LAUDERDALE,1,6,1,0,0,7,0,0,FALSE
US,FL,33388,PLANTATION,2,6,1,0,0,7,0,0,FALSE
US,FL,33394,FORT LAUDERDALE,1,6,1,0,0,7,0,0,FALSE
US,FL,33401,WEST PALM BEACH,1,6,1,0,0,7,0,0,FALSE
US,FL,33402,WEST PALM BEACH,1,6,1,0,0,7,0,0,FALSE
US,FL,33403,LAKE PARK,5,6,1,0,0,7,0,0,FALSE
US,FL,33404,RIVIERA BEACH,4,6,1,0,0,7,0,0,FALSE
US,FL,33405,WEST PALM BEACH,1,6,1,0,0,7,0,0,FALSE
US,FL,33406,PALM BEACH COUNTY,6,6,1,0,0,7,0,0,FALSE
US,FL,33407,WEST PALM BEACH,3,6,1,0,0,7,0,0,FALSE
US,FL,33408,NORTH PALM BEACH,4,6,1,0,0,7,0,0,FALSE
US,FL,33409,WEST PALM BEACH,2,6,1,0,0,7,0,0,FALSE
US,FL,33410,PALM BEACH GARDENS,4,6,1,0,0,7,0,0,FALSE
US,FL,33411,PALM BEACH COUNTY,3,6,1,0,0,7,0,0,FALSE
US,FL,33412,PALM BEACH COUNTY,3,6,1,0,0,7,0,0,FALSE
US,FL,33413,PALM BEACH COUNTY,3,6,1,0,0,7,0,0,FALSE
US,FL,33414,WELLINGTON,4,6,1,0,0,7,0,0,FALSE
US,FL,33415,PALM BEACH COUNTY,4,6,1,0,0,7,0,0,FALSE
US,FL,33416,PALM BEACH COUNTY,1,6,1,0,0,7,0,0,FALSE
US,FL,33417,PALM BEACH COUNTY,2,6,1,0,0,7,0,0,FALSE
US,FL,33418,PALM BEACH GARDENS,3,6,1,0,0,7,0,0,FALSE
US,FL,33419,LAKE PARK,2,6,1,0,0,7,0,0,FALSE
US,FL,33420,LAKE PARK,2,6,1,0,0,7,0,0,FALSE
US,FL,33421,ROYAL PALM BEACH,3,6,1,0,0,7,0,0,FALSE
US,FL,33422,PALM BEACH COUNTY,2,6,1,0,0,7,0,0,FALSE
US,FL,33424,BOYNTON BEACH,1,6,1,0,0,7,0,0,FALSE
US,FL,33425,BOYNTON BEACH,1,6,1,0,0,7,0,0,FALSE
US,FL,33426,BOYNTON BEACH,1,6,1,0,0,7,0,0,FALSE
US,FL,33427,BOCA RATON,1,6,1,0,0,7,0,0,FALSE
US,FL,33428,PALM BEACH COUNTY,1,6,1,0,0,7,0,0,FALSE
US,FL,33429,BOCA RATON,1,6,1,0,0,7,0,0,FALSE
US,FL,33430,BELLE GLADE,1,6,1,0,0,7,0,0,FALSE
US,FL,33431,BOCA RATON,1,6,1,0,0,7,0,0,FALSE
US,FL,33432,BOCA RATON,1,6,1,0,0,7,0,0,FALSE
US,FL,33433,PALM BEACH COUNTY,1,6,1,0,0,7,0,0,FALSE
US,FL,33434,PALM BEACH COUNTY,1,6,1,0,0,7,0,0,FALSE
US,FL,33435,BOYNTON BEACH,3,6,1,0,0,7,0,0,FALSE
US,FL,33436,PALM BEACH COUNTY,3,6,1,0,0,7,0,0,FALSE
US,FL,33437,PALM BEACH COUNTY,1,6,1,0,0,7,0,0,FALSE
US,FL,33438,PALM BEACH COUNTY,2,6,1,0,0,7,0,0,FALSE
US,FL,33440,HENDRY COUNTY,1,6,1,0,0,7,0,0,FALSE
US,FL,33441,DEERFIELD BEACH,1,6,1,0,0,7,0,0,FALSE
US,FL,33442,DEERFIELD BEACH,1,6,1,0,0,7,0,0,FALSE
US,FL,33443,DEERFIELD BEACH,1,6,1,0,0,7,0,0,FALSE
US,FL,33444,DELRAY BEACH,1,6,1,0,0,7,0,0,FALSE
US,FL,33445,DELRAY BEACH,1,6,1,0,0,7,0,0,FALSE
US,FL,33446,PALM BEACH COUNTY,2,6,1,0,0,7,0,0,FALSE
US,FL,33448,PALM BEACH COUNTY,2,6,1,0,0,7,0,0,FALSE
US,FL,33449,PALM BEACH COUNTY,3,6,1,0,0,7,0,0,FALSE
US,FL,33454,GREENACRES,3,6,1,0,0,7,0,0,FALSE
US,FL,33455,MARTIN,1,6,0.5,0,0,6.5,0,0,FALSE
US,FL,33458,JUPITER,1,6,1,0,0,7,0,0,FALSE
US,FL,33459,GLADES COUNTY,1,6,1,0,0,7,0,0,FALSE
US,FL,33460,LAKE WORTH,1,6,1,0,0,7,0,0,FALSE
US,FL,33461,PALM SPRINGS,3,6,1,0,0,7,0,0,FALSE
US,FL,33462,LANTANA,4,6,1,0,0,7,0,0,FALSE
US,FL,33463,GREENACRES,3,6,1,0,0,7,0,0,FALSE
US,FL,33464,BOCA RATON,2,6,1,0,0,7,0,0,FALSE
US,FL,33465,LAKE WORTH,2,6,1,0,0,7,0,0,FALSE
US,FL,33466,PALM SPRINGS,1,6,1,0,0,7,0,0,FALSE
US,FL,33467,PALM BEACH COUNTY,4,6,1,0,0,7,0,0,FALSE
US,FL,33468,JUPITER,1,6,1,0,0,7,0,0,FALSE
US,FL,33469,TEQUESTA,4,6,1,0,0,7,0,0,FALSE
US,FL,33470,PALM BEACH COUNTY,4,6,1,0,0,7,0,0,FALSE
US,FL,33471,GLADES COUNTY,1,6,1,0,0,7,0,0,FALSE
US,FL,33472,PALM BEACH COUNTY,1,6,1,0,0,7,0,0,FALSE
US,FL,33473,PALM BEACH COUNTY,1,6,1,0,0,7,0,0,FALSE
US,FL,33474,BOYNTON BEACH,1,6,1,0,0,7,0,0,FALSE
US,FL,33475,MARTIN,1,6,0.5,0,0,6.5,0,0,FALSE
US,FL,33476,PAHOKEE,1,6,1,0,0,7,0,0,FALSE
US,FL,33477,JUPITER,1,6,1,0,0,7,0,0,FALSE
US,FL,33478,PALM BEACH COUNTY,1,6,1,0,0,7,0,0,FALSE
US,FL,33480,PALM BEACH,2,6,1,0,0,7,0,0,FALSE
US,FL,33481,BOCA RATON,1,6,1,0,0,7,0,0,FALSE
US,FL,33482,DELRAY BEACH,1,6,1,0,0,7,0,0,FALSE
US,FL,33483,DELRAY BEACH,2,6,1,0,0,7,0,0,FALSE
US,FL,33484,PALM BEACH COUNTY,2,6,1,0,0,7,0,0,FALSE
US,FL,33486,BOCA RATON,1,6,1,0,0,7,0,0,FALSE
US,FL,33487,BOCA RATON,2,6,1,0,0,7,0,0,FALSE
US,FL,33488,PALM BEACH COUNTY,1,6,1,0,0,7,0,0,FALSE
US,FL,33493,SOUTH BAY,1,6,1,0,0,7,0,0,FALSE
US,FL,33496,PALM BEACH COUNTY,1,6,1,0,0,7,0,0,FALSE
US,FL,33497,PALM BEACH COUNTY,1,6,1,0,0,7,0,0,FALSE
US,FL,33498,PALM BEACH COUNTY,1,6,1,0,0,7,0,0,FALSE
US,FL,33499,BOCA RATON,1,6,1,0,0,7,0,0,FALSE
US,FL,33503,LAKELAND,1,6,1,0,0,7,0,0,FALSE
US,FL,33508,HILLSBOROUGH COUNTY,1,6,2.5,0,0,8.5,0,0,FALSE
US,FL,33509,HILLSBOROUGH COUNTY,1,6,2.5,0,0,8.5,0,0,FALSE
US,FL,33510,HILLSBOROUGH COUNTY,1,6,2.5,0,0,8.5,0,0,FALSE
US,FL,33511,HILLSBOROUGH COUNTY,1,6,2.5,0,0,8.5,0,0,FALSE
US,FL,33513,SUMTER COUNTY,1,6,1,0,0,7,0,0,FALSE
US,FL,33514,SUMTER COUNTY,1,6,1,0,0,7,0,0,FALSE
US,FL,33521,COLEMAN,1,6,1,0,0,7,0,0,FALSE
US,FL,33523,PASCO COUNTY,2,6,1,0,0,7,0,0,FALSE
US,FL,33524,PASCO COUNTY,1,6,1,0,0,7,0,0,FALSE
US,FL,33525,PASCO COUNTY,1,6,1,0,0,7,0,0,FALSE
US,FL,33526,DADE CITY,1,6,1,0,0,7,0,0,FALSE
US,FL,33527,HILLSBOROUGH COUNTY,1,6,2.5,0,0,8.5,0,0,FALSE
US,FL,33530,HILLSBOROUGH COUNTY,1,6,2.5,0,0,8.5,0,0,FALSE
US,FL,33534,HILLSBOROUGH COUNTY,1,6,2.5,0,0,8.5,0,0,FALSE
US,FL,33537,LAKELAND,1,6,1,0,0,7,0,0,FALSE
US,FL,33538,SUMTER COUNTY,1,6,1,0,0,7,0,0,FALSE
US,FL,33539,LAKELAND,1,6,1,0,0,7,0,0,FALSE
US,FL,33540,PASCO COUNTY,1,6,1,0,0,7,0,0,FALSE
US,FL,33541,PASCO COUNTY,1,6,1,0,0,7,0,0,FALSE
US,FL,33542,ZEPHYRHILLS,1,6,1,0,0,7,0,0,FALSE
US,FL,33543,PASCO COUNTY,2,6,1,0,0,7,0,0,FALSE
US,FL,33544,PASCO COUNTY,2,6,1,0,0,7,0,0,FALSE
US,FL,33545,PASCO COUNTY,2,6,1,0,0,7,0,0,FALSE
US,FL,33547,HILLSBOROUGH COUNTY,1,6,2.5,0,0,8.5,0,0,FALSE
US,FL,33548,HILLSBOROUGH COUNTY,1,6,2.5,0,0,8.5,0,0,FALSE
US,FL,33549,HILLSBOROUGH COUNTY,1,6,2.5,0,0,8.5,0,0,FALSE
US,FL,33550,HILLSBOROUGH COUNTY,1,6,2.5,0,0,8.5,0,0,FALSE
US,FL,33556,HILLSBOROUGH COUNTY,1,6,2.5,0,0,8.5,0,0,FALSE
US,FL,33558,HILLSBOROUGH COUNTY,1,6,2.5,0,0,8.5,0,0,FALSE
US,FL,33559,HILLSBOROUGH COUNTY,1,6,2.5,0,0,8.5,0,0,FALSE
US,FL,33563,PLANT CITY,1,6,2.5,0,0,8.5,0,0,FALSE
US,FL,33564,PLANT CITY,1,6,2.5,0,0,8.5,0,0,FALSE
US,FL,33565,HILLSBOROUGH COUNTY,1,6,2.5,0,0,8.5,0,0,FALSE
US,FL,33566,HILLSBOROUGH COUNTY,1,6,2.5,0,0,8.5,0,0,FALSE
US,FL,33567,HILLSBOROUGH COUNTY,1,6,2.5,0,0,8.5,0,0,FALSE
US,FL,33568,HILLSBOROUGH COUNTY,1,6,2.5,0,0,8.5,0,0,FALSE
US,FL,33569,HILLSBOROUGH COUNTY,1,6,2.5,0,0,8.5,0,0,FALSE
US,FL,33570,HILLSBOROUGH COUNTY,1,6,2.5,0,0,8.5,0,0,FALSE
US,FL,33571,HILLSBOROUGH COUNTY,1,6,2.5,0,0,8.5,0,0,FALSE
US,FL,33572,HILLSBOROUGH COUNTY,2,6,2.5,0,0,8.5,0,0,FALSE
US,FL,33573,HILLSBOROUGH COUNTY,1,6,2.5,0,0,8.5,0,0,FALSE
US,FL,33574,ST. LEO,1,6,1,0,0,7,0,0,FALSE
US,FL,33576,PASCO COUNTY,1,6,1,0,0,7,0,0,FALSE
US,FL,33578,HILLSBOROUGH COUNTY,1,6,2.5,0,0,8.5,0,0,FALSE
US,FL,33579,HILLSBOROUGH COUNTY,1,6,2.5,0,0,8.5,0,0,FALSE
US,FL,33583,HILLSBOROUGH COUNTY,1,6,2.5,0,0,8.5,0,0,FALSE
US,FL,33584,HILLSBOROUGH COUNTY,1,6,2.5,0,0,8.5,0,0,FALSE
US,FL,33585,SUMTER COUNTY,1,6,1,0,0,7,0,0,FALSE
US,FL,33586,HILLSBOROUGH COUNTY,1,6,2.5,0,0,8.5,0,0,FALSE
US,FL,33587,HILLSBOROUGH COUNTY,1,6,2.5,0,0,8.5,0,0,FALSE
US,FL,33592,HILLSBOROUGH COUNTY,1,6,2.5,0,0,8.5,0,0,FALSE
US,FL,33593,LAKELAND,1,6,1,0,0,7,0,0,FALSE
US,FL,33594,HILLSBOROUGH COUNTY,1,6,2.5,0,0,8.5,0,0,FALSE
US,FL,33595,HILLSBOROUGH COUNTY,1,6,2.5,0,0,8.5,0,0,FALSE
US,FL,33596,HILLSBOROUGH COUNTY,1,6,2.5,0,0,8.5,0,0,FALSE
US,FL,33597,SUMTER COUNTY,2,6,1,0,0,7,0,0,FALSE
US,FL,33598,HILLSBOROUGH COUNTY,1,6,2.5,0,0,8.5,0,0,FALSE
US,FL,33601,DOWNTOWN / HISTORIC YBOR TMD ASSESSMENT ,1,6,2.5,0,0,8.5,0,0,FALSE
US,FL,33602,DOWNTOWN / HISTORIC YBOR TMD ASSESSMENT ,1,6,2.5,0,0,8.5,0,0,FALSE
US,FL,33603,TAMPA,1,6,2.5,0,0,8.5,0,0,FALSE
US,FL,33604,TAMPA,1,6,2.5,0,0,8.5,0,0,FALSE
US,FL,33605,TAMPA,2,6,2.5,0,0,8.5,0,0,FALSE
US,FL,33606,TAMPA,1,6,2.5,0,0,8.5,0,0,FALSE
US,FL,33607,TAMPA,1,6,2.5,0,0,8.5,0,0,FALSE
US,FL,33609,TAMPA,1,6,2.5,0,0,8.5,0,0,FALSE
US,FL,33610,TAMPA,1,6,2.5,0,0,8.5,0,0,FALSE
US,FL,33611,TAMPA,1,6,2.5,0,0,8.5,0,0,FALSE
US,FL,33612,TAMPA,1,6,2.5,0,0,8.5,0,0,FALSE
US,FL,33613,HILLSBOROUGH COUNTY,1,6,2.5,0,0,8.5,0,0,FALSE
US,FL,33614,HILLSBOROUGH COUNTY,1,6,2.5,0,0,8.5,0,0,FALSE
US,FL,33615,HILLSBOROUGH COUNTY,1,6,2.5,0,0,8.5,0,0,FALSE
US,FL,33616,TAMPA,1,6,2.5,0,0,8.5,0,0,FALSE
US,FL,33617,HILLSBOROUGH COUNTY,2,6,2.5,0,0,8.5,0,0,FALSE
US,FL,33618,HILLSBOROUGH COUNTY,2,6,2.5,0,0,8.5,0,0,FALSE
US,FL,33619,HILLSBOROUGH COUNTY,2,6,2.5,0,0,8.5,0,0,FALSE
US,FL,33620,TAMPA,1,6,2.5,0,0,8.5,0,0,FALSE
US,FL,33621,TAMPA,1,6,2.5,0,0,8.5,0,0,FALSE
US,FL,33622,TAMPA,1,6,2.5,0,0,8.5,0,0,FALSE
US,FL,33623,TAMPA,1,6,2.5,0,0,8.5,0,0,FALSE
US,FL,33624,HILLSBOROUGH COUNTY,2,6,2.5,0,0,8.5,0,0,FALSE
US,FL,33625,HILLSBOROUGH COUNTY,2,6,2.5,0,0,8.5,0,0,FALSE
US,FL,33626,HILLSBOROUGH COUNTY,3,6,2.5,0,0,8.5,0,0,FALSE
US,FL,33629,TAMPA,2,6,2.5,0,0,8.5,0,0,FALSE
US,FL,33630,TAMPA,1,6,2.5,0,0,8.5,0,0,FALSE
US,FL,33634,HILLSBOROUGH COUNTY,1,6,2.5,0,0,8.5,0,0,FALSE
US,FL,33635,HILLSBOROUGH COUNTY,1,6,2.5,0,0,8.5,0,0,FALSE
US,FL,33637,TEMPLE TERRACE,2,6,2.5,0,0,8.5,0,0,FALSE
US,FL,33646,DOWNTOWN / HISTORIC YBOR TMD ASSESSMENT ,1,6,2.5,0,0,8.5,0,0,FALSE
US,FL,33647,TAMPA,2,6,2.5,0,0,8.5,0,0,FALSE
US,FL,33650,TAMPA,1,6,2.5,0,0,8.5,0,0,FALSE
US,FL,33664,TAMPA,1,6,2.5,0,0,8.5,0,0,FALSE
US,FL,33672,DOWNTOWN / HISTORIC YBOR TMD ASSESSMENT ,1,6,2.5,0,0,8.5,0,0,FALSE
US,FL,33673,TAMPA,1,6,2.5,0,0,8.5,0,0,FALSE
US,FL,33674,TAMPA,1,6,2.5,0,0,8.5,0,0,FALSE
US,FL,33675,DOWNTOWN / HISTORIC YBOR TMD ASSESSMENT ,2,6,2.5,0,0,8.5,0,0,FALSE
US,FL,33677,TAMPA,1,6,2.5,0,0,8.5,0,0,FALSE
US,FL,33679,TAMPA,1,6,2.5,0,0,8.5,0,0,FALSE
US,FL,33680,TAMPA,1,6,2.5,0,0,8.5,0,0,FALSE
US,FL,33681,TAMPA,1,6,2.5,0,0,8.5,0,0,FALSE
US,FL,33682,HILLSBOROUGH COUNTY,1,6,2.5,0,0,8.5,0,0,FALSE
US,FL,33684,HILLSBOROUGH COUNTY,1,6,2.5,0,0,8.5,0,0,FALSE
US,FL,33685,HILLSBOROUGH COUNTY,1,6,2.5,0,0,8.5,0,0,FALSE
US,FL,33687,TAMPA,1,6,2.5,0,0,8.5,0,0,FALSE
US,FL,33688,HILLSBOROUGH COUNTY,2,6,2.5,0,0,8.5,0,0,FALSE
US,FL,33689,HILLSBOROUGH COUNTY,1,6,2.5,0,0,8.5,0,0,FALSE
US,FL,33694,HILLSBOROUGH COUNTY,1,6,2.5,0,0,8.5,0,0,FALSE
US,FL,33701,ST. PETERSBURG,2,6,1,0,0,7,0,0,FALSE
US,FL,33702,ST. PETERSBURG,2,6,1,0,0,7,0,0,FALSE
US,FL,33703,ST. PETERSBURG,2,6,1,0,0,7,0,0,FALSE
US,FL,33704,ST. PETERSBURG,2,6,1,0,0,7,0,0,FALSE
US,FL,33705,ST. PETERSBURG,2,6,1,0,0,7,0,0,FALSE
US,FL,33706,ST. PETE BEACH ,6,6,1,0,0,7,0,0,FALSE
US,FL,33707,GULFPORT,6,6,1,0,0,7,0,0,FALSE
US,FL,33708,MADEIRA BEACH,7,6,1,0,0,7,0,0,FALSE
US,FL,33709,PINELLAS COUNTY,3,6,1,0,0,7,0,0,FALSE
US,FL,33710,ST. PETERSBURG,2,6,1,0,0,7,0,0,FALSE
US,FL,33711,ST. PETERSBURG,3,6,1,0,0,7,0,0,FALSE
US,FL,33712,ST. PETERSBURG,2,6,1,0,0,7,0,0,FALSE
US,FL,33713,ST. PETERSBURG,2,6,1,0,0,7,0,0,FALSE
US,FL,33714,PINELLAS COUNTY,2,6,1,0,0,7,0,0,FALSE
US,FL,33715,ST. PETERSBURG,3,6,1,0,0,7,0,0,FALSE
US,FL,33716,ST. PETERSBURG,2,6,1,0,0,7,0,0,FALSE
US,FL,33729,ST. PETERSBURG,2,6,1,0,0,7,0,0,FALSE
US,FL,33730,ST. PETERSBURG,2,6,1,0,0,7,0,0,FALSE
US,FL,33731,ST. PETERSBURG,2,6,1,0,0,7,0,0,FALSE
US,FL,33732,ST. PETERSBURG,2,6,1,0,0,7,0,0,FALSE
US,FL,33733,ST. PETERSBURG,2,6,1,0,0,7,0,0,FALSE
US,FL,33734,ST. PETERSBURG,2,6,1,0,0,7,0,0,FALSE
US,FL,33736,ST. PETERSBURG,2,6,1,0,0,7,0,0,FALSE
US,FL,33738,PINELLAS COUNTY,3,6,1,0,0,7,0,0,FALSE
US,FL,33741,ST. PETERSBURG,2,6,1,0,0,7,0,0,FALSE
US,FL,33742,ST. PETERSBURG,2,6,1,0,0,7,0,0,FALSE
US,FL,33743,ST. PETERSBURG,2,6,1,0,0,7,0,0,FALSE
US,FL,33744,PINELLAS COUNTY,1,6,1,0,0,7,0,0,FALSE
US,FL,33747,ST. PETERSBURG,2,6,1,0,0,7,0,0,FALSE
US,FL,33755,CLEARWATER,1,6,1,0,0,7,0,0,FALSE
US,FL,33756,CLEARWATER,1,6,1,0,0,7,0,0,FALSE
US,FL,33757,CLEARWATER,1,6,1,0,0,7,0,0,FALSE
US,FL,33758,CLEARWATER,1,6,1,0,0,7,0,0,FALSE
US,FL,33759,CLEARWATER,1,6,1,0,0,7,0,0,FALSE
US,FL,33760,PINELLAS COUNTY,1,6,1,0,0,7,0,0,FALSE
US,FL,33761,CLEARWATER,1,6,1,0,0,7,0,0,FALSE
US,FL,33762,PINELLAS COUNTY,1,6,1,0,0,7,0,0,FALSE
US,FL,33763,PINELLAS COUNTY,1,6,1,0,0,7,0,0,FALSE
US,FL,33764,CLEARWATER,1,6,1,0,0,7,0,0,FALSE
US,FL,33765,CLEARWATER,1,6,1,0,0,7,0,0,FALSE
US,FL,33766,CLEARWATER,1,6,1,0,0,7,0,0,FALSE
US,FL,33767,CLEARWATER,2,6,1,0,0,7,0,0,FALSE
US,FL,33769,PINELLAS COUNTY,1,6,1,0,0,7,0,0,FALSE
US,FL,33770,LARGO,2,6,1,0,0,7,0,0,FALSE
US,FL,33771,LARGO,1,6,1,0,0,7,0,0,FALSE
US,FL,33772,SEMINOLE,1,6,1,0,0,7,0,0,FALSE
US,FL,33773,PINELLAS COUNTY,1,6,1,0,0,7,0,0,FALSE
US,FL,33774,LARGO,1,6,1,0,0,7,0,0,FALSE
US,FL,33775,PINELLAS COUNTY,1,6,1,0,0,7,0,0,FALSE
US,FL,33776,PINELLAS COUNTY,2,6,1,0,0,7,0,0,FALSE
US,FL,33777,PINELLAS COUNTY,2,6,1,0,0,7,0,0,FALSE
US,FL,33778,LARGO,2,6,1,0,0,7,0,0,FALSE
US,FL,33779,LARGO,1,6,1,0,0,7,0,0,FALSE
US,FL,33780,PINELLAS PARK,1,6,1,0,0,7,0,0,FALSE
US,FL,33781,PINELLAS PARK,1,6,1,0,0,7,0,0,FALSE
US,FL,33782,PINELLAS PARK,1,6,1,0,0,7,0,0,FALSE
US,FL,33784,ST. PETERSBURG,2,6,1,0,0,7,0,0,FALSE
US,FL,33785,INDIAN ROCKS BEACH,4,6,1,0,0,7,0,0,FALSE
US,FL,33786,BELLEAIR BEACH,3,6,1,0,0,7,0,0,FALSE
US,FL,33801,POLK COUNTY,1,6,1,0,0,7,0,0,FALSE
US,FL,33802,LAKELAND,1,6,1,0,0,7,0,0,FALSE
US,FL,33803,LAKELAND,1,6,1,0,0,7,0,0,FALSE
US,FL,33804,LAKELAND,1,6,1,0,0,7,0,0,FALSE
US,FL,33805,LAKELAND,2,6,1,0,0,7,0,0,FALSE
US,FL,33806,LAKELAND,1,6,1,0,0,7,0,0,FALSE
US,FL,33807,POLK COUNTY,1,6,1,0,0,7,0,0,FALSE
US,FL,33809,POLK COUNTY,1,6,1,0,0,7,0,0,FALSE
US,FL,33810,POLK COUNTY,1,6,1,0,0,7,0,0,FALSE
US,FL,33811,POLK COUNTY,1,6,1,0,0,7,0,0,FALSE
US,FL,33812,POLK COUNTY,1,6,1,0,0,7,0,0,FALSE
US,FL,33813,POLK COUNTY,1,6,1,0,0,7,0,0,FALSE
US,FL,33815,LAKELAND,1,6,1,0,0,7,0,0,FALSE
US,FL,33820,POLK COUNTY,1,6,1,0,0,7,0,0,FALSE
US,FL,33823,POLK COUNTY,1,6,1,0,0,7,0,0,FALSE
US,FL,33825,HIGHLANDS COUNTY,1,6,1.5,0,0,7.5,0,0,FALSE
US,FL,33827,POLK COUNTY,1,6,1,0,0,7,0,0,FALSE
US,FL,33830,BARTOW,1,6,1,0,0,7,0,0,FALSE
US,FL,33831,BARTOW,1,6,1,0,0,7,0,0,FALSE
US,FL,33834,HARDEE COUNTY,1,6,1,0,0,7,0,0,FALSE
US,FL,33835,LAKELAND,1,6,1,0,0,7,0,0,FALSE
US,FL,33836,DAVENPORT,1,6,1,0,0,7,0,0,FALSE
US,FL,33837,POLK COUNTY,1,6,1,0,0,7,0,0,FALSE
US,FL,33838,DUNDEE,1,6,1,0,0,7,0,0,FALSE
US,FL,33839,EAGLE LAKE,1,6,1,0,0,7,0,0,FALSE
US,FL,33840,POLK COUNTY,1,6,1,0,0,7,0,0,FALSE
US,FL,33841,FORT MEADE,1,6,1,0,0,7,0,0,FALSE
US,FL,33843,POLK COUNTY,1,6,1,0,0,7,0,0,FALSE
US,FL,33844,HAINES CITY,1,6,1,0,0,7,0,0,FALSE
US,FL,33845,HAINES CITY,1,6,1,0,0,7,0,0,FALSE
US,FL,33846,POLK COUNTY,1,6,1,0,0,7,0,0,FALSE
US,FL,33847,POLK COUNTY,1,6,1,0,0,7,0,0,FALSE
US,FL,33848,OSCEOLA COUNTY,1,6,1.5,0,0,7.5,0,0,FALSE
US,FL,33849,POLK COUNTY,1,6,1,0,0,7,0,0,FALSE
US,FL,33850,LAKE ALFRED,1,6,1,0,0,7,0,0,FALSE
US,FL,33851,LAKELAND,1,6,1,0,0,7,0,0,FALSE
US,FL,33852,HIGHLANDS COUNTY,1,6,1.5,0,0,7.5,0,0,FALSE
US,FL,33853,LAKE WALES,1,6,1,0,0,7,0,0,FALSE
US,FL,33854,OSCEOLA COUNTY,2,6,1.5,0,0,7.5,0,0,FALSE
US,FL,33855,POLK COUNTY,2,6,1,0,0,7,0,0,FALSE
US,FL,33856,OSCEOLA COUNTY,2,6,1.5,0,0,7.5,0,0,FALSE
US,FL,33857,HIGHLANDS COUNTY,1,6,1.5,0,0,7.5,0,0,FALSE
US,FL,33858,POLK COUNTY,1,6,1,0,0,7,0,0,FALSE
US,FL,33859,POLK COUNTY,1,6,1,0,0,7,0,0,FALSE
US,FL,33860,POLK COUNTY,1,6,1,0,0,7,0,0,FALSE
US,FL,33862,LAKE PLACID,1,6,1.5,0,0,7.5,0,0,FALSE
US,FL,33863,LAKELAND,1,6,1,0,0,7,0,0,FALSE
US,FL,33865,HARDEE COUNTY,1,6,1,0,0,7,0,0,FALSE
US,FL,33867,LAKE WALES,2,6,1,0,0,7,0,0,FALSE
US,FL,33868,POLK COUNTY,1,6,1,0,0,7,0,0,FALSE
US,FL,33870,HIGHLANDS COUNTY,1,6,1.5,0,0,7.5,0,0,FALSE
US,FL,33871,SEBRING,1,6,1.5,0,0,7.5,0,0,FALSE
US,FL,33872,HIGHLANDS COUNTY,1,6,1.5,0,0,7.5,0,0,FALSE
US,FL,33873,HARDEE COUNTY,1,6,1,0,0,7,0,0,FALSE
US,FL,33875,HIGHLANDS COUNTY,1,6,1.5,0,0,7.5,0,0,FALSE
US,FL,33876,HIGHLANDS COUNTY,1,6,1.5,0,0,7.5,0,0,FALSE
US,FL,33877,LAKELAND,1,6,1,0,0,7,0,0,FALSE
US,FL,33880,WINTER HAVEN,3,6,1,0,0,7,0,0,FALSE
US,FL,33881,WINTER HAVEN,2,6,1,0,0,7,0,0,FALSE
US,FL,33882,WINTER HAVEN,1,6,1,0,0,7,0,0,FALSE
US,FL,33883,WINTER HAVEN,1,6,1,0,0,7,0,0,FALSE
US,FL,33884,POLK COUNTY,2,6,1,0,0,7,0,0,FALSE
US,FL,33885,WINTER HAVEN,3,6,1,0,0,7,0,0,FALSE
US,FL,33888,POLK COUNTY,1,6,1,0,0,7,0,0,FALSE
US,FL,33890,HARDEE COUNTY,1,6,1,0,0,7,0,0,FALSE
US,FL,33896,POLK COUNTY,2,6,1,0,0,7,0,0,FALSE
US,FL,33897,POLK COUNTY,1,6,1,0,0,7,0,0,FALSE
US,FL,33898,POLK COUNTY,1,6,1,0,0,7,0,0,FALSE
US,FL,33901,FORT MYERS,1,6,0.5,0,0,6.5,0,0,FALSE
US,FL,33902,LEE COUNTY,1,6,0.5,0,0,6.5,0,0,FALSE
US,FL,33903,LEE COUNTY,2,6,0.5,0,0,6.5,0,0,FALSE
US,FL,33904,CAPE CORAL,1,6,0.5,0,0,6.5,0,0,FALSE
US,FL,33905,LEE COUNTY,2,6,0.5,0,0,6.5,0,0,FALSE
US,FL,33906,LEE COUNTY,1,6,0.5,0,0,6.5,0,0,FALSE
US,FL,33907,LEE COUNTY,1,6,0.5,0,0,6.5,0,0,FALSE
US,FL,33908,LEE COUNTY,1,6,0.5,0,0,6.5,0,0,FALSE
US,FL,33909,CAPE CORAL,1,6,0.5,0,0,6.5,0,0,FALSE
US,FL,33910,CAPE CORAL,2,6,0.5,0,0,6.5,0,0,FALSE
US,FL,33911,LEE COUNTY,1,6,0.5,0,0,6.5,0,0,FALSE
US,FL,33912,LEE COUNTY,2,6,0.5,0,0,6.5,0,0,FALSE
US,FL,33913,LEE COUNTY,2,6,0.5,0,0,6.5,0,0,FALSE
US,FL,33914,CAPE CORAL,1,6,0.5,0,0,6.5,0,0,FALSE
US,FL,33915,CAPE CORAL,1,6,0.5,0,0,6.5,0,0,FALSE
US,FL,33916,FORT MYERS,1,6,0.5,0,0,6.5,0,0,FALSE
US,FL,33917,LEE COUNTY,2,6,0.5,0,0,6.5,0,0,FALSE
US,FL,33918,LEE COUNTY,2,6,0.5,0,0,6.5,0,0,FALSE
US,FL,33919,LEE COUNTY,1,6,0.5,0,0,6.5,0,0,FALSE
US,FL,33920,LEE COUNTY,1,6,0.5,0,0,6.5,0,0,FALSE
US,FL,33921,LEE COUNTY,1,6,0.5,0,0,6.5,0,0,FALSE
US,FL,33922,LEE COUNTY,1,6,0.5,0,0,6.5,0,0,FALSE
US,FL,33924,LEE COUNTY,1,6,0.5,0,0,6.5,0,0,FALSE
US,FL,33928,ESTERO,1,6,0.5,0,0,6.5,0,0,FALSE
US,FL,33929,ESTERO,1,6,0.5,0,0,6.5,0,0,FALSE
US,FL,33930,HENDRY COUNTY,1,6,1,0,0,7,0,0,FALSE
US,FL,33931,FORT MYERS BEACH,1,6,0.5,0,0,6.5,0,0,FALSE
US,FL,33932,FORT MYERS BEACH,1,6,0.5,0,0,6.5,0,0,FALSE
US,FL,33935,HENDRY COUNTY,2,6,1,0,0,7,0,0,FALSE
US,FL,33936,LEE COUNTY,2,6,0.5,0,0,6.5,0,0,FALSE
US,FL,33938,CHARLOTTE COUNTY,1,6,1,0,0,7,0,0,FALSE
US,FL,33944,GLADES COUNTY,1,6,1,0,0,7,0,0,FALSE
US,FL,33945,CHARLOTTE COUNTY,1,6,1,0,0,7,0,0,FALSE
US,FL,33946,CHARLOTTE COUNTY,2,6,1,0,0,7,0,0,FALSE
US,FL,33947,CHARLOTTE COUNTY,3,6,1,0,0,7,0,0,FALSE
US,FL,33948,CHARLOTTE COUNTY,1,6,1,0,0,7,0,0,FALSE
US,FL,33949,CHARLOTTE COUNTY,1,6,1,0,0,7,0,0,FALSE
US,FL,33950,PUNTA GORDA,1,6,1,0,0,7,0,0,FALSE
US,FL,33951,PUNTA GORDA,1,6,1,0,0,7,0,0,FALSE
US,FL,33952,CHARLOTTE COUNTY,1,6,1,0,0,7,0,0,FALSE
US,FL,33953,CHARLOTTE COUNTY,1,6,1,0,0,7,0,0,FALSE
US,FL,33954,CHARLOTTE COUNTY,1,6,1,0,0,7,0,0,FALSE
US,FL,33955,CHARLOTTE COUNTY,1,6,1,0,0,7,0,0,FALSE
US,FL,33956,LEE COUNTY,2,6,0.5,0,0,6.5,0,0,FALSE
US,FL,33957,SANIBEL,1,6,0.5,0,0,6.5,0,0,FALSE
US,FL,33960,HIGHLANDS COUNTY,1,6,1.5,0,0,7.5,0,0,FALSE
US,FL,33965,LEE COUNTY,1,6,0.5,0,0,6.5,0,0,FALSE
US,FL,33966,LEE COUNTY,1,6,0.5,0,0,6.5,0,0,FALSE
US,FL,33967,LEE COUNTY,2,6,0.5,0,0,6.5,0,0,FALSE
US,FL,33970,LEE COUNTY,1,6,0.5,0,0,6.5,0,0,FALSE
US,FL,33971,LEE COUNTY,2,6,0.5,0,0,6.5,0,0,FALSE
US,FL,33972,LEE COUNTY,2,6,0.5,0,0,6.5,0,0,FALSE
US,FL,33973,LEE COUNTY,2,6,0.5,0,0,6.5,0,0,FALSE
US,FL,33974,LEE COUNTY,2,6,0.5,0,0,6.5,0,0,FALSE
US,FL,33975,LABELLE,1,6,1,0,0,7,0,0,FALSE
US,FL,33976,LEE COUNTY,2,6,0.5,0,0,6.5,0,0,FALSE
US,FL,33980,CHARLOTTE COUNTY,2,6,1,0,0,7,0,0,FALSE
US,FL,33981,CHARLOTTE COUNTY,1,6,1,0,0,7,0,0,FALSE
US,FL,33982,CHARLOTTE COUNTY,1,6,1,0,0,7,0,0,FALSE
US,FL,33983,CHARLOTTE COUNTY,2,6,1,0,0,7,0,0,FALSE
US,FL,33990,CAPE CORAL,1,6,0.5,0,0,6.5,0,0,FALSE
US,FL,33991,CAPE CORAL,2,6,0.5,0,0,6.5,0,0,FALSE
US,FL,33993,CAPE CORAL,3,6,0.5,0,0,6.5,0,0,FALSE
US,FL,33994,LEE COUNTY,1,6,0.5,0,0,6.5,0,0,FALSE
US,FL,34101,NAPLES,1,6,1,0,0,7,0,0,FALSE
US,FL,34102,NAPLES,1,6,1,0,0,7,0,0,FALSE
US,FL,34103,NAPLES,1,6,1,0,0,7,0,0,FALSE
US,FL,34104,COLLIER COUNTY,1,6,1,0,0,7,0,0,FALSE
US,FL,34105,COLLIER COUNTY,1,6,1,0,0,7,0,0,FALSE
US,FL,34106,NAPLES,1,6,1,0,0,7,0,0,FALSE
US,FL,34107,COLLIER COUNTY,2,6,1,0,0,7,0,0,FALSE
US,FL,34108,COLLIER COUNTY,2,6,1,0,0,7,0,0,FALSE
US,FL,34109,COLLIER COUNTY,1,6,1,0,0,7,0,0,FALSE
US,FL,34110,COLLIER COUNTY,1,6,1,0,0,7,0,0,FALSE
US,FL,34112,COLLIER COUNTY,1,6,1,0,0,7,0,0,FALSE
US,FL,34113,COLLIER COUNTY,1,6,1,0,0,7,0,0,FALSE
US,FL,34114,COLLIER COUNTY,1,6,1,0,0,7,0,0,FALSE
US,FL,34116,COLLIER COUNTY,2,6,1,0,0,7,0,0,FALSE
US,FL,34117,COLLIER COUNTY,1,6,1,0,0,7,0,0,FALSE
US,FL,34119,COLLIER COUNTY,1,6,1,0,0,7,0,0,FALSE
US,FL,34120,COLLIER COUNTY,1,6,1,0,0,7,0,0,FALSE
US,FL,34133,BONITA SPRINGS,1,6,0.5,0,0,6.5,0,0,FALSE
US,FL,34134,BONITA SPRINGS,3,6,0.5,0,0,6.5,0,0,FALSE
US,FL,34135,BONITA SPRINGS,1,6,0.5,0,0,6.5,0,0,FALSE
US,FL,34136,BONITA SPRINGS,1,6,0.5,0,0,6.5,0,0,FALSE
US,FL,34138,COLLIER COUNTY,1,6,1,0,0,7,0,0,FALSE
US,FL,34139,EVERGLADES,2,6,1,0,0,7,0,0,FALSE
US,FL,34140,COLLIER COUNTY,1,6,1,0,0,7,0,0,FALSE
US,FL,34141,COLLIER COUNTY,2,6,1,0,0,7,0,0,FALSE
US,FL,34142,COLLIER COUNTY,2,6,1,0,0,7,0,0,FALSE
US,FL,34145,MARCO ISLAND,1,6,1,0,0,7,0,0,FALSE
US,FL,34146,MARCO ISLAND,1,6,1,0,0,7,0,0,FALSE
US,FL,34201,MANATEE COUNTY,2,6,1,0,0,7,0,0,FALSE
US,FL,34202,MANATEE COUNTY,3,6,1,0,0,7,0,0,FALSE
US,FL,34203,MANATEE COUNTY,4,6,1,0,0,7,0,0,FALSE
US,FL,34204,MANATEE COUNTY,1,6,1,0,0,7,0,0,FALSE
US,FL,34205,BRADENTON,3,6,1,0,0,7,0,0,FALSE
US,FL,34206,BRADENTON,1,6,1,0,0,7,0,0,FALSE
US,FL,34207,MANATEE COUNTY,2,6,1,0,0,7,0,0,FALSE
US,FL,34208,BRADENTON,2,6,1,0,0,7,0,0,FALSE
US,FL,34209,MANATEE COUNTY,2,6,1,0,0,7,0,0,FALSE
US,FL,34210,MANATEE COUNTY,1,6,1,0,0,7,0,0,FALSE
US,FL,34211,MANATEE COUNTY,3,6,1,0,0,7,0,0,FALSE
US,FL,34212,MANATEE COUNTY,3,6,1,0,0,7,0,0,FALSE
US,FL,34215,MANATEE COUNTY,1,6,1,0,0,7,0,0,FALSE
US,FL,34216,ANNA MARIA,1,6,1,0,0,7,0,0,FALSE
US,FL,34217,HOLMES BEACH,2,6,1,0,0,7,0,0,FALSE
US,FL,34219,MANATEE COUNTY,2,6,1,0,0,7,0,0,FALSE
US,FL,34220,PALMETTO,1,6,1,0,0,7,0,0,FALSE
US,FL,34221,MANATEE COUNTY,2,6,1,0,0,7,0,0,FALSE
US,FL,34222,MANATEE COUNTY,1,6,1,0,0,7,0,0,FALSE
US,FL,34223,SARASOTA COUNTY,4,6,1,0,0,7,0,0,FALSE
US,FL,34224,CHARLOTTE COUNTY,4,6,1,0,0,7,0,0,FALSE
US,FL,34228,LONGBOAT KEY,1,6,1,0,0,7,0,0,FALSE
US,FL,34229,SARASOTA COUNTY,1,6,1,0,0,7,0,0,FALSE
US,FL,34230,SARASOTA,2,6,1,0,0,7,0,0,FALSE
US,FL,34231,SARASOTA COUNTY,2,6,1,0,0,7,0,0,FALSE
US,FL,34232,SARASOTA COUNTY,2,6,1,0,0,7,0,0,FALSE
US,FL,34233,SARASOTA COUNTY,2,6,1,0,0,7,0,0,FALSE
US,FL,34234,SARASOTA,2,6,1,0,0,7,0,0,FALSE
US,FL,34235,SARASOTA COUNTY,2,6,1,0,0,7,0,0,FALSE
US,FL,34236,SARASOTA,2,6,1,0,0,7,0,0,FALSE
US,FL,34237,SARASOTA,2,6,1,0,0,7,0,0,FALSE
US,FL,34238,SARASOTA COUNTY,2,6,1,0,0,7,0,0,FALSE
US,FL,34239,SARASOTA,2,6,1,0,0,7,0,0,FALSE
US,FL,34240,SARASOTA COUNTY,3,6,1,0,0,7,0,0,FALSE
US,FL,34241,SARASOTA COUNTY,2,6,1,0,0,7,0,0,FALSE
US,FL,34242,SARASOTA COUNTY,4,6,1,0,0,7,0,0,FALSE
US,FL,34243,MANATEE COUNTY,2,6,1,0,0,7,0,0,FALSE
US,FL,34249,SARASOTA COUNTY,1,6,1,0,0,7,0,0,FALSE
US,FL,34250,MANATEE COUNTY,2,6,1,0,0,7,0,0,FALSE
US,FL,34251,MANATEE COUNTY,1,6,1,0,0,7,0,0,FALSE
US,FL,34260,MANATEE COUNTY,2,6,1,0,0,7,0,0,FALSE
US,FL,34264,MANATEE COUNTY,1,6,1,0,0,7,0,0,FALSE
US,FL,34266,DE SOTO COUNTY,3,6,1.5,0,0,7.5,0,0,FALSE
US,FL,34267,CHARLOTTE COUNTY,1,6,1,0,0,7,0,0,FALSE
US,FL,34268,CHARLOTTE COUNTY,1,6,1,0,0,7,0,0,FALSE
US,FL,34269,DE SOTO COUNTY,1,6,1.5,0,0,7.5,0,0,FALSE
US,FL,34270,MANATEE COUNTY,1,6,1,0,0,7,0,0,FALSE
US,FL,34272,SARASOTA COUNTY,1,6,1,0,0,7,0,0,FALSE
US,FL,34274,SARASOTA COUNTY,1,6,1,0,0,7,0,0,FALSE
US,FL,34275,SARASOTA COUNTY,2,6,1,0,0,7,0,0,FALSE
US,FL,34276,SARASOTA COUNTY,2,6,1,0,0,7,0,0,FALSE
US,FL,34277,SARASOTA COUNTY,2,6,1,0,0,7,0,0,FALSE
US,FL,34280,MANATEE COUNTY,2,6,1,0,0,7,0,0,FALSE
US,FL,34282,MANATEE COUNTY,1,6,1,0,0,7,0,0,FALSE
US,FL,34284,VENICE,1,6,1,0,0,7,0,0,FALSE
US,FL,34285,VENICE,1,6,1,0,0,7,0,0,FALSE
US,FL,34286,NORTH PORT,2,6,1,0,0,7,0,0,FALSE
US,FL,34287,NORTH PORT,2,6,1,0,0,7,0,0,FALSE
US,FL,34288,NORTH PORT,1,6,1,0,0,7,0,0,FALSE
US,FL,34289,NORTH PORT,1,6,1,0,0,7,0,0,FALSE
US,FL,34290,NORTH PORT,2,6,1,0,0,7,0,0,FALSE
US,FL,34291,NORTH PORT,2,6,1,0,0,7,0,0,FALSE
US,FL,34292,SARASOTA COUNTY,1,6,1,0,0,7,0,0,FALSE
US,FL,34293,SARASOTA COUNTY,1,6,1,0,0,7,0,0,FALSE
US,FL,34295,SARASOTA COUNTY,3,6,1,0,0,7,0,0,FALSE
US,FL,34420,MARION COUNTY,1,6,1,0,0,7,0,0,FALSE
US,FL,34423,CRYSTAL RIVER,1,6,0,0,0,6,0,0,FALSE
US,FL,34428,CITRUS COUNTY,1,6,0,0,0,6,0,0,FALSE
US,FL,34429,CITRUS COUNTY,1,6,0,0,0,6,0,0,FALSE
US,FL,34430,DUNNELLON,2,6,1,0,0,7,0,0,FALSE
US,FL,34431,MARION COUNTY,2,6,1,0,0,7,0,0,FALSE
US,FL,34432,MARION COUNTY,2,6,1,0,0,7,0,0,FALSE
US,FL,34433,CITRUS COUNTY,3,6,0,0,0,6,0,0,FALSE
US,FL,34434,CITRUS COUNTY,3,6,0,0,0,6,0,0,FALSE
US,FL,34436,CITRUS COUNTY,1,6,0,0,0,6,0,0,FALSE
US,FL,34441,CITRUS COUNTY,1,6,0,0,0,6,0,0,FALSE
US,FL,34442,CITRUS COUNTY,2,6,0,0,0,6,0,0,FALSE
US,FL,34445,CITRUS COUNTY,1,6,0,0,0,6,0,0,FALSE
US,FL,34446,CITRUS COUNTY,2,6,0,0,0,6,0,0,FALSE
US,FL,34447,CITRUS COUNTY,1,6,0,0,0,6,0,0,FALSE
US,FL,34448,CITRUS COUNTY,2,6,0,0,0,6,0,0,FALSE
US,FL,34449,LEVY COUNTY,1,6,1,0,0,7,0,0,FALSE
US,FL,34450,CITRUS COUNTY,1,6,0,0,0,6,0,0,FALSE
US,FL,34451,INVERNESS,1,6,0,0,0,6,0,0,FALSE
US,FL,34452,CITRUS COUNTY,1,6,0,0,0,6,0,0,FALSE
US,FL,34453,CITRUS COUNTY,1,6,0,0,0,6,0,0,FALSE
US,FL,34460,CITRUS COUNTY,1,6,0,0,0,6,0,0,FALSE
US,FL,34461,CITRUS COUNTY,1,6,0,0,0,6,0,0,FALSE
US,FL,34464,CITRUS COUNTY,1,6,0,0,0,6,0,0,FALSE
US,FL,34465,CITRUS COUNTY,2,6,0,0,0,6,0,0,FALSE
US,FL,34470,OCALA,1,6,1,0,0,7,0,0,FALSE
US,FL,34471,OCALA,2,6,1,0,0,7,0,0,FALSE
US,FL,34472,MARION COUNTY,2,6,1,0,0,7,0,0,FALSE
US,FL,34473,MARION COUNTY,1,6,1,0,0,7,0,0,FALSE
US,FL,34474,OCALA,1,6,1,0,0,7,0,0,FALSE
US,FL,34475,OCALA,1,6,1,0,0,7,0,0,FALSE
US,FL,34476,MARION COUNTY,1,6,1,0,0,7,0,0,FALSE
US,FL,34477,MARION COUNTY,1,6,1,0,0,7,0,0,FALSE
US,FL,34478,OCALA,1,6,1,0,0,7,0,0,FALSE
US,FL,34479,MARION COUNTY,1,6,1,0,0,7,0,0,FALSE
US,FL,34480,MARION COUNTY,2,6,1,0,0,7,0,0,FALSE
US,FL,34481,MARION COUNTY,1,6,1,0,0,7,0,0,FALSE
US,FL,34482,MARION COUNTY,1,6,1,0,0,7,0,0,FALSE
US,FL,34483,MARION COUNTY,1,6,1,0,0,7,0,0,FALSE
US,FL,34484,SUMTER COUNTY,1,6,1,0,0,7,0,0,FALSE
US,FL,34487,CITRUS COUNTY,1,6,0,0,0,6,0,0,FALSE
US,FL,34488,MARION COUNTY,1,6,1,0,0,7,0,0,FALSE
US,FL,34489,MARION COUNTY,1,6,1,0,0,7,0,0,FALSE
US,FL,34491,MARION COUNTY,1,6,1,0,0,7,0,0,FALSE
US,FL,34492,MARION COUNTY,1,6,1,0,0,7,0,0,FALSE
US,FL,34498,YANKEETOWN,1,6,1,0,0,7,0,0,FALSE
US,FL,34601,HERNANDO COUNTY,2,6,0.5,0,0,6.5,0,0,FALSE
US,FL,34602,HERNANDO COUNTY,3,6,0.5,0,0,6.5,0,0,FALSE
US,FL,34603,BROOKSVILLE,2,6,0.5,0,0,6.5,0,0,FALSE
US,FL,34604,HERNANDO COUNTY,3,6,0.5,0,0,6.5,0,0,FALSE
US,FL,34605,BROOKSVILLE,2,6,0.5,0,0,6.5,0,0,FALSE
US,FL,34606,HERNANDO COUNTY,4,6,0.5,0,0,6.5,0,0,FALSE
US,FL,34607,HERNANDO COUNTY,5,6,0.5,0,0,6.5,0,0,FALSE
US,FL,34608,HERNANDO COUNTY,3,6,0.5,0,0,6.5,0,0,FALSE
US,FL,34609,HERNANDO COUNTY,3,6,0.5,0,0,6.5,0,0,FALSE
US,FL,34610,PASCO COUNTY,4,6,1,0,0,7,0,0,FALSE
US,FL,34611,HERNANDO COUNTY,3,6,0.5,0,0,6.5,0,0,FALSE
US,FL,34613,HERNANDO COUNTY,4,6,0.5,0,0,6.5,0,0,FALSE
US,FL,34614,HERNANDO COUNTY,3,6,0.5,0,0,6.5,0,0,FALSE
US,FL,34636,HERNANDO COUNTY,1,6,0.5,0,0,6.5,0,0,FALSE
US,FL,34637,PASCO COUNTY,1,6,1,0,0,7,0,0,FALSE
US,FL,34638,PASCO COUNTY,1,6,1,0,0,7,0,0,FALSE
US,FL,34639,PASCO COUNTY,1,6,1,0,0,7,0,0,FALSE
US,FL,34652,PASCO COUNTY,1,6,1,0,0,7,0,0,FALSE
US,FL,34653,PASCO COUNTY,1,6,1,0,0,7,0,0,FALSE
US,FL,34654,PASCO COUNTY,1,6,1,0,0,7,0,0,FALSE
US,FL,34655,PASCO COUNTY,3,6,1,0,0,7,0,0,FALSE
US,FL,34656,NEW PORT RICHEY,1,6,1,0,0,7,0,0,FALSE
US,FL,34660,PINELLAS COUNTY,1,6,1,0,0,7,0,0,FALSE
US,FL,34661,HERNANDO COUNTY,1,6,0.5,0,0,6.5,0,0,FALSE
US,FL,34667,PASCO COUNTY,3,6,1,0,0,7,0,0,FALSE
US,FL,34668,PASCO COUNTY,1,6,1,0,0,7,0,0,FALSE
US,FL,34669,PASCO COUNTY,2,6,1,0,0,7,0,0,FALSE
US,FL,34673,PASCO COUNTY,1,6,1,0,0,7,0,0,FALSE
US,FL,34674,PASCO COUNTY,2,6,1,0,0,7,0,0,FALSE
US,FL,34677,OLDSMAR,1,6,1,0,0,7,0,0,FALSE
US,FL,34679,PASCO COUNTY,1,6,1,0,0,7,0,0,FALSE
US,FL,34680,PASCO COUNTY,1,6,1,0,0,7,0,0,FALSE
US,FL,34681,PINELLAS COUNTY,1,6,1,0,0,7,0,0,FALSE
US,FL,34682,PINELLAS COUNTY,1,6,1,0,0,7,0,0,FALSE
US,FL,34683,PINELLAS COUNTY,1,6,1,0,0,7,0,0,FALSE
US,FL,34684,PINELLAS COUNTY,1,6,1,0,0,7,0,0,FALSE
US,FL,34685,PINELLAS COUNTY,1,6,1,0,0,7,0,0,FALSE
US,FL,34688,PINELLAS COUNTY,2,6,1,0,0,7,0,0,FALSE
US,FL,34689,TARPON SPRINGS,2,6,1,0,0,7,0,0,FALSE
US,FL,34690,PASCO COUNTY,3,6,1,0,0,7,0,0,FALSE
US,FL,34691,PASCO COUNTY,3,6,1,0,0,7,0,0,FALSE
US,FL,34692,PASCO COUNTY,1,6,1,0,0,7,0,0,FALSE
US,FL,34695,SAFETY HARBOR,1,6,1,0,0,7,0,0,FALSE
US,FL,34697,DUNEDIN,1,6,1,0,0,7,0,0,FALSE
US,FL,34698,DUNEDIN,1,6,1,0,0,7,0,0,FALSE
US,FL,34705,ASTATULA,1,6,1,0,0,7,0,0,FALSE
US,FL,34711,CLERMONT,1,6,1,0,0,7,0,0,FALSE
US,FL,34712,CLERMONT,1,6,1,0,0,7,0,0,FALSE
US,FL,34713,LAKE COUNTY,2,6,1,0,0,7,0,0,FALSE
US,FL,34714,LAKE COUNTY,2,6,1,0,0,7,0,0,FALSE
US,FL,34715,MINNEOLA,3,6,1,0,0,7,0,0,FALSE
US,FL,34729,LAKE COUNTY,1,6,1,0,0,7,0,0,FALSE
US,FL,34731,FRUITLAND PARK,1,6,1,0,0,7,0,0,FALSE
US,FL,34734,ORANGE COUNTY,1,6,0.5,0,0,6.5,0,0,FALSE
US,FL,34736,LAKE COUNTY,1,6,1,0,0,7,0,0,FALSE
US,FL,34737,LAKE COUNTY,2,6,1,0,0,7,0,0,FALSE
US,FL,34739,OSCEOLA COUNTY,1,6,1.5,0,0,7.5,0,0,FALSE
US,FL,34740,OAKLAND,1,6,0.5,0,0,6.5,0,0,FALSE
US,FL,34741,KISSIMMEE,2,6,1.5,0,0,7.5,0,0,FALSE
US,FL,34742,KISSIMMEE,2,6,1.5,0,0,7.5,0,0,FALSE
US,FL,34743,OSCEOLA COUNTY,3,6,1.5,0,0,7.5,0,0,FALSE
US,FL,34744,OSCEOLA COUNTY,3,6,1.5,0,0,7.5,0,0,FALSE
US,FL,34745,KISSIMMEE,2,6,1.5,0,0,7.5,0,0,FALSE
US,FL,34746,OSCEOLA COUNTY,2,6,1.5,0,0,7.5,0,0,FALSE
US,FL,34747,OSCEOLA COUNTY,4,6,1.5,0,0,7.5,0,0,FALSE
US,FL,34748,LEESBURG,1,6,1,0,0,7,0,0,FALSE
US,FL,34749,LEESBURG,1,6,1,0,0,7,0,0,FALSE
US,FL,34753,MASCOTTE,1,6,1,0,0,7,0,0,FALSE
US,FL,34755,MINNEOLA,1,6,1,0,0,7,0,0,FALSE
US,FL,34756,LAKE COUNTY,1,6,1,0,0,7,0,0,FALSE
US,FL,34758,OSCEOLA COUNTY,3,6,1.5,0,0,7.5,0,0,FALSE
US,FL,34759,POLK COUNTY,3,6,1,0,0,7,0,0,FALSE
US,FL,34760,OAKLAND,1,6,0.5,0,0,6.5,0,0,FALSE
US,FL,34761,OCOEE,1,6,0.5,0,0,6.5,0,0,FALSE
US,FL,34762,LAKE COUNTY,1,6,1,0,0,7,0,0,FALSE
US,FL,34769,ST. CLOUD,1,6,1.5,0,0,7.5,0,0,FALSE
US,FL,34770,ST. CLOUD,1,6,1.5,0,0,7.5,0,0,FALSE
US,FL,34771,OSCEOLA COUNTY,2,6,1.5,0,0,7.5,0,0,FALSE
US,FL,34772,ST. CLOUD,1,6,1.5,0,0,7.5,0,0,FALSE
US,FL,34773,OSCEOLA COUNTY,2,6,1.5,0,0,7.5,0,0,FALSE
US,FL,34777,WINTER GARDEN,1,6,0.5,0,0,6.5,0,0,FALSE
US,FL,34778,WINTER GARDEN,1,6,0.5,0,0,6.5,0,0,FALSE
US,FL,34785,SUMTER COUNTY,1,6,1,0,0,7,0,0,FALSE
US,FL,34786,ORANGE COUNTY,1,6,0.5,0,0,6.5,0,0,FALSE
US,FL,34787,WINTER GARDEN,2,6,0.5,0,0,6.5,0,0,FALSE
US,FL,34788,LAKE COUNTY,2,6,1,0,0,7,0,0,FALSE
US,FL,34789,LEESBURG,1,6,1,0,0,7,0,0,FALSE
US,FL,34797,LAKE COUNTY,2,6,1,0,0,7,0,0,FALSE
US,FL,34945,ST. LUCIE COUNTY,1,6,1,0,0,7,0,0,FALSE
US,FL,34946,ST. LUCIE COUNTY,1,6,1,0,0,7,0,0,FALSE
US,FL,34947,FORT PIERCE,1,6,1,0,0,7,0,0,FALSE
US,FL,34948,FORT PIERCE,1,6,1,0,0,7,0,0,FALSE
US,FL,34949,ST. LUCIE COUNTY,2,6,1,0,0,7,0,0,FALSE
US,FL,34950,FORT PIERCE,1,6,1,0,0,7,0,0,FALSE
US,FL,34951,ST. LUCIE COUNTY,1,6,1,0,0,7,0,0,FALSE
US,FL,34952,PORT ST. LUCIE,3,6,1,0,0,7,0,0,FALSE
US,FL,34953,PORT ST. LUCIE,5,6,1,0,0,7,0,0,FALSE
US,FL,34954,FORT PIERCE,1,6,1,0,0,7,0,0,FALSE
US,FL,34956,INDIANTOWN,1,6,0.5,0,0,6.5,0,0,FALSE
US,FL,34957,MARTIN,2,6,0.5,0,0,6.5,0,0,FALSE
US,FL,34958,MARTIN,1,6,0.5,0,0,6.5,0,0,FALSE
US,FL,34972,OKEECHOBEE COUNTY,3,6,1,0,0,7,0,0,FALSE
US,FL,34973,OKEECHOBEE,1,6,1,0,0,7,0,0,FALSE
US,FL,34974,OKEECHOBEE COUNTY,1,6,1,0,0,7,0,0,FALSE
US,FL,34979,ST. LUCIE COUNTY,1,6,1,0,0,7,0,0,FALSE
US,FL,34981,ST. LUCIE COUNTY,1,6,1,0,0,7,0,0,FALSE
US,FL,34982,FORT PIERCE,1,6,1,0,0,7,0,0,FALSE
US,FL,34983,PORT ST. LUCIE,5,6,1,0,0,7,0,0,FALSE
US,FL,34984,PORT ST. LUCIE,3,6,1,0,0,7,0,0,FALSE
US,FL,34985,PORT ST. LUCIE,3,6,1,0,0,7,0,0,FALSE
US,FL,34986,PORT ST. LUCIE,5,6,1,0,0,7,0,0,FALSE
US,FL,34987,PORT ST. LUCIE,5,6,1,0,0,7,0,0,FALSE
US,FL,34988,PORT ST. LUCIE,5,6,1,0,0,7,0,0,FALSE
US,FL,34990,MARTIN,1,6,0.5,0,0,6.5,0,0,FALSE
US,FL,34991,MARTIN,1,6,0.5,0,0,6.5,0,0,FALSE
US,FL,34992,MARTIN,1,6,0.5,0,0,6.5,0,0,FALSE
US,FL,34994,STUART,1,6,0.5,0,0,6.5,0,0,FALSE
US,FL,34995,STUART,1,6,0.5,0,0,6.5,0,0,FALSE
US,FL,34996,MARTIN,2,6,0.5,0,0,6.5,0,0,FALSE
US,FL,34997,MARTIN,1,6,0.5,0,0,6.5,0,0,FALSE
