country,state,zipcode,tax_region_name,RiskLevel,state_rate,county_rate,city_rate,special_rate,combined_rate,medicinal_excise,adult_excise,has_medical_excise
US,GA,30002,AVONDALE ESTATES,1,4,3,0,1,8,0,0,FALSE
US,GA,30003,NORCROSS,2,4,2,0,0,6,0,0,FALSE
US,GA,30004,SOUTH FULTON,2,4,3,0,0.75,7.75,0,0,FALSE
US,GA,30005,ALPHARETTA,3,4,3,0,0.75,7.75,0,0,FALSE
US,GA,30006,MARIETTA,1,4,2,0,0,6,0,0,FALSE
US,GA,30007,MARIETTA,1,4,2,0,0,6,0,0,FALSE
US,GA,30008,COBB COUNTY,1,4,2,0,0,6,0,0,FALSE
US,GA,30009,ALPHARETTA,2,4,3,0,0.75,7.75,0,0,FALSE
US,GA,30010,NORCROSS,4,4,2,0,0,6,0,0,FALSE
US,GA,30011,AUBURN,1,4,3,0,0,7,0,0,FALSE
US,GA,30012,ROCKDALE COUNTY,1,4,3,0,0,7,0,0,FALSE
US,GA,30013,ROCKDALE COUNTY,1,4,3,0,0,7,0,0,FALSE
US,GA,30014,NEWTON COUNTY,4,4,3,0,0,7,0,0,FALSE
US,GA,30015,COVINGTON,1,4,3,0,0,7,0,0,FALSE
US,GA,30016,NEWTON COUNTY,2,4,3,0,0,7,0,0,FALSE
US,GA,30017,GWINNETT COUNTY,1,4,2,0,0,6,0,0,FALSE
US,GA,30018,JERSEY,1,4,3,0,0,7,0,0,FALSE
US,GA,30019,GWINNETT COUNTY,1,4,2,0,0,6,0,0,FALSE
US,GA,30021,CLARKSTON,1,4,3,0,1,8,0,0,FALSE
US,GA,30022,SOUTH FULTON,3,4,3,0,0.75,7.75,0,0,FALSE
US,GA,30023,ALPHARETTA,1,4,3,0,0.75,7.75,0,0,FALSE
US,GA,30024,SUWANEE,3,4,2,0,0,6,0,0,FALSE
US,GA,30025,SOCIAL CIRCLE,1,4,3,0,0,7,0,0,FALSE
US,GA,30028,FORSYTH COUNTY,1,4,3,0,0,7,0,0,FALSE
US,GA,30030,DECATUR,1,4,3,0,1,8,0,0,FALSE
US,GA,30031,DECATUR,1,4,3,0,1,8,0,0,FALSE
US,GA,30032,DEKALB CO TSPLOST SP,3,4,3,0,1,8,0,0,FALSE
US,GA,30033,DECATUR,3,4,3,0,1,8,0,0,FALSE
US,GA,30034,DEKALB CO TSPLOST SP,1,4,3,0,1,8,0,0,FALSE
US,GA,30035,DEKALB CO TSPLOST SP,2,4,3,0,1,8,0,0,FALSE
US,GA,30036,DECATUR,1,4,3,0,1,8,0,0,FALSE
US,GA,30037,DEKALB CO TSPLOST SP,1,4,3,0,1,8,0,0,FALSE
US,GA,30038,STONECREST,1,4,3,0,1,8,0,0,FALSE
US,GA,30039,GWINNETT COUNTY,1,4,2,0,0,6,0,0,FALSE
US,GA,30040,FORSYTH COUNTY,1,4,3,0,0,7,0,0,FALSE
US,GA,30041,FORSYTH COUNTY,1,4,3,0,0,7,0,0,FALSE
US,GA,30042,GWINNETT COUNTY,1,4,2,0,0,6,0,0,FALSE
US,GA,30043,GWINNETT COUNTY,1,4,2,0,0,6,0,0,FALSE
US,GA,30044,GWINNETT COUNTY,1,4,2,0,0,6,0,0,FALSE
US,GA,30045,GWINNETT COUNTY,1,4,2,0,0,6,0,0,FALSE
US,GA,30046,GWINNETT COUNTY,1,4,2,0,0,6,0,0,FALSE
US,GA,30047,GWINNETT COUNTY,1,4,2,0,0,6,0,0,FALSE
US,GA,30048,GWINNETT COUNTY,1,4,2,0,0,6,0,0,FALSE
US,GA,30049,GWINNETT COUNTY,1,4,2,0,0,6,0,0,FALSE
US,GA,30052,GWINNETT COUNTY,3,4,2,0,0,6,0,0,FALSE
US,GA,30054,NEWTON COUNTY,1,4,3,0,0,7,0,0,FALSE
US,GA,30055,JASPER COUNTY,1,4,3,0,0,7,0,0,FALSE
US,GA,30056,JASPER COUNTY,1,4,3,0,0,7,0,0,FALSE
US,GA,30058,DEKALB CO TSPLOST SP,1,4,3,0,1,8,0,0,FALSE
US,GA,30060,MARIETTA,1,4,2,0,0,6,0,0,FALSE
US,GA,30061,MARIETTA,1,4,2,0,0,6,0,0,FALSE
US,GA,30062,COBB COUNTY,1,4,2,0,0,6,0,0,FALSE
US,GA,30063,MARIETTA,1,4,2,0,0,6,0,0,FALSE
US,GA,30064,COBB COUNTY,1,4,2,0,0,6,0,0,FALSE
US,GA,30065,MARIETTA,1,4,2,0,0,6,0,0,FALSE
US,GA,30066,COBB COUNTY,1,4,2,0,0,6,0,0,FALSE
US,GA,30067,COBB COUNTY,1,4,2,0,0,6,0,0,FALSE
US,GA,30068,COBB COUNTY,1,4,2,0,0,6,0,0,FALSE
US,GA,30069,MARIETTA,1,4,2,0,0,6,0,0,FALSE
US,GA,30070,PORTERDALE,1,4,3,0,0,7,0,0,FALSE
US,GA,30071,NORCROSS,4,4,2,0,0,6,0,0,FALSE
US,GA,30072,PINE LAKE,1,4,3,0,1,8,0,0,FALSE
US,GA,30074,DECATUR,2,4,3,0,1,8,0,0,FALSE
US,GA,30075,ROSWELL,2,4,3,0,0.75,7.75,0,0,FALSE
US,GA,30076,ROSWELL,1,4,3,0,0.75,7.75,0,0,FALSE
US,GA,30077,ROSWELL,1,4,3,0,0.75,7.75,0,0,FALSE
US,GA,30078,SNELLVILLE,1,4,2,0,0,6,0,0,FALSE
US,GA,30079,DEKALB CO TSPLOST SP,1,4,3,0,1,8,0,0,FALSE
US,GA,30080,SMYRNA,1,4,2,0,0,6,0,0,FALSE
US,GA,30081,SMYRNA,1,4,2,0,0,6,0,0,FALSE
US,GA,30082,SMYRNA,1,4,2,0,0,6,0,0,FALSE
US,GA,30083,DECATUR,2,4,3,0,1,8,0,0,FALSE
US,GA,30084,TUCKER,1,4,3,0,1,8,0,0,FALSE
US,GA,30085,DECATUR,1,4,3,0,1,8,0,0,FALSE
US,GA,30086,DECATUR,1,4,3,0,1,8,0,0,FALSE
US,GA,30087,GWINNETT COUNTY,2,4,2,0,0,6,0,0,FALSE
US,GA,30088,DEKALB CO TSPLOST SP,1,4,3,0,1,8,0,0,FALSE
US,GA,30090,MARIETTA,1,4,2,0,0,6,0,0,FALSE
US,GA,30091,NORCROSS,1,4,2,0,0,6,0,0,FALSE
US,GA,30092,PEACHTREE CORNERS,5,4,2,0,0,6,0,0,FALSE
US,GA,30093,GWINNETT COUNTY,1,4,2,0,0,6,0,0,FALSE
US,GA,30094,ROCKDALE COUNTY,1,4,3,0,0,7,0,0,FALSE
US,GA,30095,DULUTH,2,4,2,0,0,6,0,0,FALSE
US,GA,30096,GWINNETT COUNTY,4,4,2,0,0,6,0,0,FALSE
US,GA,30097,SOUTH FULTON,4,4,3,0,0.75,7.75,0,0,FALSE
US,GA,30098,JOHNS CREEK,2,4,3,0,0.75,7.75,0,0,FALSE
US,GA,30099,GWINNETT COUNTY,2,4,2,0,0,6,0,0,FALSE
US,GA,30101,COBB COUNTY,3,4,2,0,0,6,0,0,FALSE
US,GA,30102,CHEROKEE COUNTY,2,4,2,0,0,6,0,0,FALSE
US,GA,30103,BARTOW COUNTY,1,4,3,0,0,7,0,0,FALSE
US,GA,30104,POLK COUNTY,1,4,3,0,0,7,0,0,FALSE
US,GA,30105,FLOYD COUNTY,1,4,3,0,0,7,0,0,FALSE
US,GA,30106,COBB COUNTY,1,4,2,0,0,6,0,0,FALSE
US,GA,30107,CHEROKEE COUNTY,1,4,2,0,0,6,0,0,FALSE
US,GA,30108,CARROLL COUNTY,1,4,3,0,0,7,0,0,FALSE
US,GA,30109,POLK COUNTY,1,4,3,0,0,7,0,0,FALSE
US,GA,30110,HARALSON CO TSPLOST TR,1,4,3,0,1,8,0,0,FALSE
US,GA,30111,COBB COUNTY,1,4,2,0,0,6,0,0,FALSE
US,GA,30112,CARROLLTON,1,4,3,0,0,7,0,0,FALSE
US,GA,30113,HARALSON CO TSPLOST TR,1,4,3,0,1,8,0,0,FALSE
US,GA,30114,CHEROKEE COUNTY,2,4,2,0,0,6,0,0,FALSE
US,GA,30115,CHEROKEE COUNTY,2,4,2,0,0,6,0,0,FALSE
US,GA,30116,CARROLLTON,1,4,3,0,0,7,0,0,FALSE
US,GA,30117,CARROLLTON,1,4,3,0,0,7,0,0,FALSE
US,GA,30118,CARROLLTON,1,4,3,0,0,7,0,0,FALSE
US,GA,30119,CARROLLTON,2,4,3,0,0,7,0,0,FALSE
US,GA,30120,CARTERSVILLE,3,4,3,0,0,7,0,0,FALSE
US,GA,30121,BARTOW COUNTY,1,4,3,0,0,7,0,0,FALSE
US,GA,30122,DOUGLAS COUNTY,1,4,3,0,0,7,0,0,FALSE
US,GA,30123,BARTOW COUNTY,1,4,3,0,0,7,0,0,FALSE
US,GA,30124,FLOYD COUNTY,1,4,3,0,0,7,0,0,FALSE
US,GA,30125,POLK COUNTY,1,4,3,0,0,7,0,0,FALSE
US,GA,30126,COBB COUNTY,1,4,2,0,0,6,0,0,FALSE
US,GA,30127,COBB COUNTY,1,4,2,0,0,6,0,0,FALSE
US,GA,30129,POLK COUNTY,1,4,3,0,0,7,0,0,FALSE
US,GA,30132,PAULDING COUNTY,1,4,3,0,0,7,0,0,FALSE
US,GA,30133,DOUGLASVILLE,1,4,3,0,0,7,0,0,FALSE
US,GA,30134,DOUGLASVILLE,1,4,3,0,0,7,0,0,FALSE
US,GA,30135,DOUGLAS COUNTY,1,4,3,0,0,7,0,0,FALSE
US,GA,30137,EMERSON,1,4,3,0,0,7,0,0,FALSE
US,GA,30138,POLK COUNTY,1,4,3,0,0,7,0,0,FALSE
US,GA,30139,GORDON COUNTY,1,4,3,0,0,7,0,0,FALSE
US,GA,30140,POLK COUNTY,1,4,3,0,0,7,0,0,FALSE
US,GA,30141,PAULDING COUNTY,1,4,3,0,0,7,0,0,FALSE
US,GA,30142,HOLLY SPRINGS,1,4,2,0,0,6,0,0,FALSE
US,GA,30143,PICKENS COUNTY,2,4,3,0,0,7,0,0,FALSE
US,GA,30144,COBB COUNTY,2,4,2,0,0,6,0,0,FALSE
US,GA,30145,BARTOW COUNTY,2,4,3,0,0,7,0,0,FALSE
US,GA,30146,CHEROKEE COUNTY,1,4,2,0,0,6,0,0,FALSE
US,GA,30147,FLOYD COUNTY,1,4,3,0,0,7,0,0,FALSE
US,GA,30148,PICKENS COUNTY,2,4,3,0,0,7,0,0,FALSE
US,GA,30149,FLOYD COUNTY,2,4,3,0,0,7,0,0,FALSE
US,GA,30150,MOUNT ZION,1,4,3,0,0,7,0,0,FALSE
US,GA,30151,CHEROKEE COUNTY,1,4,2,0,0,6,0,0,FALSE
US,GA,30152,COBB COUNTY,1,4,2,0,0,6,0,0,FALSE
US,GA,30153,POLK COUNTY,2,4,3,0,0,7,0,0,FALSE
US,GA,30154,DOUGLASVILLE,1,4,3,0,0,7,0,0,FALSE
US,GA,30156,KENNESAW,1,4,2,0,0,6,0,0,FALSE
US,GA,30157,PAULDING COUNTY,1,4,3,0,0,7,0,0,FALSE
US,GA,30160,KENNESAW,1,4,2,0,0,6,0,0,FALSE
US,GA,30161,FLOYD COUNTY,1,4,3,0,0,7,0,0,FALSE
US,GA,30162,ROME,1,4,3,0,0,7,0,0,FALSE
US,GA,30164,ROME,1,4,3,0,0,7,0,0,FALSE
US,GA,30165,FLOYD COUNTY,1,4,3,0,0,7,0,0,FALSE
US,GA,30168,COBB COUNTY,1,4,2,0,0,6,0,0,FALSE
US,GA,30169,CANTON,1,4,2,0,0,6,0,0,FALSE
US,GA,30170,HEARD COUNTY,2,4,3,0,0,7,0,0,FALSE
US,GA,30171,BARTOW COUNTY,1,4,3,0,0,7,0,0,FALSE
US,GA,30172,POLK COUNTY,1,4,3,0,0,7,0,0,FALSE
US,GA,30173,FLOYD COUNTY,1,4,3,0,0,7,0,0,FALSE
US,GA,30175,PICKENS COUNTY,2,4,3,0,0,7,0,0,FALSE
US,GA,30176,HARALSON CO TSPLOST TR,1,4,3,0,1,8,0,0,FALSE
US,GA,30177,PICKENS COUNTY,1,4,3,0,0,7,0,0,FALSE
US,GA,30178,BARTOW COUNTY,1,4,3,0,0,7,0,0,FALSE
US,GA,30179,CARROLL COUNTY,1,4,3,0,0,7,0,0,FALSE
US,GA,30180,VILLA RICA,1,4,3,0,0,7,0,0,FALSE
US,GA,30182,CARROLL COUNTY,1,4,3,0,0,7,0,0,FALSE
US,GA,30183,CHEROKEE COUNTY,2,4,2,0,0,6,0,0,FALSE
US,GA,30184,BARTOW COUNTY,1,4,3,0,0,7,0,0,FALSE
US,GA,30185,WHITESBURG,1,4,3,0,0,7,0,0,FALSE
US,GA,30187,DOUGLAS COUNTY,1,4,3,0,0,7,0,0,FALSE
US,GA,30188,CHEROKEE COUNTY,2,4,2,0,0,6,0,0,FALSE
US,GA,30189,CHEROKEE COUNTY,1,4,2,0,0,6,0,0,FALSE
US,GA,30204,LAMAR COUNTY,1,4,3,0,0,7,0,0,FALSE
US,GA,30205,SPALDING COUNTY,1,4,3,0,0,7,0,0,FALSE
US,GA,30206,PIKE COUNTY,1,4,3,0,0,7,0,0,FALSE
US,GA,30212,GRIFFIN,1,4,3,0,0,7,0,0,FALSE
US,GA,30213,SOUTH FULTON,1,4,3,0,0.75,7.75,0,0,FALSE
US,GA,30214,FAYETTE COUNTY,2,4,3,0,0,7,0,0,FALSE
US,GA,30215,FAYETTE COUNTY,1,4,3,0,0,7,0,0,FALSE
US,GA,30216,BUTTS COUNTY,2,4,3,0,0,7,0,0,FALSE
US,GA,30217,HEARD COUNTY,1,4,3,0,0,7,0,0,FALSE
US,GA,30218,MERIWETHER COUNTY,1,4,3,0,0,7,0,0,FALSE
US,GA,30219,HEARD COUNTY,1,4,3,0,0,7,0,0,FALSE
US,GA,30220,MERIWETHER COUNTY,1,4,3,0,0,7,0,0,FALSE
US,GA,30222,MERIWETHER COUNTY,2,4,3,0,0,7,0,0,FALSE
US,GA,30223,SPALDING COUNTY,1,4,3,0,0,7,0,0,FALSE
US,GA,30224,GRIFFIN,1,4,3,0,0,7,0,0,FALSE
US,GA,30228,HENRY COUNTY,1,4,3,0,0,7,0,0,FALSE
US,GA,30229,HARALSON,1,4,3,0,0,7,0,0,FALSE
US,GA,30230,TROUP COUNTY,1,4,3,0,0,7,0,0,FALSE
US,GA,30233,BUTTS COUNTY,1,4,3,0,0,7,0,0,FALSE
US,GA,30234,BUTTS COUNTY,1,4,3,0,0,7,0,0,FALSE
US,GA,30236,CLAYTON COUNTY,2,4,4,0,0,8,0,0,FALSE
US,GA,30237,JONESBORO,1,4,4,0,0,8,0,0,FALSE
US,GA,30238,CLAYTON COUNTY,1,4,4,0,0,8,0,0,FALSE
US,GA,30240,LAGRANGE,1,4,3,0,0,7,0,0,FALSE
US,GA,30241,LAGRANGE,1,4,3,0,0,7,0,0,FALSE
US,GA,30248,HENRY COUNTY,1,4,3,0,0,7,0,0,FALSE
US,GA,30250,LOVEJOY,1,4,4,0,0,8,0,0,FALSE
US,GA,30251,MERIWETHER COUNTY,1,4,3,0,0,7,0,0,FALSE
US,GA,30252,HENRY COUNTY,1,4,3,0,0,7,0,0,FALSE
US,GA,30253,HENRY COUNTY,1,4,3,0,0,7,0,0,FALSE
US,GA,30256,PIKE COUNTY,1,4,3,0,0,7,0,0,FALSE
US,GA,30257,LAMAR COUNTY,1,4,3,0,0,7,0,0,FALSE
US,GA,30258,PIKE COUNTY,1,4,3,0,0,7,0,0,FALSE
US,GA,30259,COWETA COUNTY,1,4,3,0,0,7,0,0,FALSE
US,GA,30260,CLAYTON COUNTY,2,4,4,0,0,8,0,0,FALSE
US,GA,30261,LAGRANGE,1,4,3,0,0,7,0,0,FALSE
US,GA,30263,COWETA COUNTY,2,4,3,0,0,7,0,0,FALSE
US,GA,30264,NEWNAN,1,4,3,0,0,7,0,0,FALSE
US,GA,30265,COWETA COUNTY,2,4,3,0,0,7,0,0,FALSE
US,GA,30266,ORCHARD HILL,1,4,3,0,0,7,0,0,FALSE
US,GA,30268,SOUTH FULTON,3,4,3,0,0.75,7.75,0,0,FALSE
US,GA,30269,PEACHTREE CITY,1,4,3,0,0,7,0,0,FALSE
US,GA,30270,PEACHTREE CITY,1,4,3,0,0,7,0,0,FALSE
US,GA,30271,NEWNAN,1,4,3,0,0,7,0,0,FALSE
US,GA,30272,SOUTH FULTON,1,4,3,0,0.75,7.75,0,0,FALSE
US,GA,30273,CLAYTON COUNTY,1,4,4,0,0,8,0,0,FALSE
US,GA,30274,CLAYTON COUNTY,1,4,4,0,0,8,0,0,FALSE
US,GA,30275,LAGRANGE,1,4,3,0,0,7,0,0,FALSE
US,GA,30276,COWETA COUNTY,1,4,3,0,0,7,0,0,FALSE
US,GA,30277,COWETA COUNTY,1,4,3,0,0,7,0,0,FALSE
US,GA,30281,HENRY COUNTY,1,4,3,0,0,7,0,0,FALSE
US,GA,30284,SPALDING COUNTY,1,4,3,0,0,7,0,0,FALSE
US,GA,30285,UPSON COUNTY,1,4,4,0,0,8,0,0,FALSE
US,GA,30286,UPSON COUNTY,1,4,4,0,0,8,0,0,FALSE
US,GA,30287,MORROW,1,4,4,0,0,8,0,0,FALSE
US,GA,30288,DEKALB CO TSPLOST SP,1,4,3,0,1,8,0,0,FALSE
US,GA,30289,TURIN,1,4,3,0,0,7,0,0,FALSE
US,GA,30290,TYRONE,1,4,3,0,0,7,0,0,FALSE
US,GA,30291,UNION CITY,1,4,3,0,0.75,7.75,0,0,FALSE
US,GA,30292,PIKE COUNTY,1,4,3,0,0,7,0,0,FALSE
US,GA,30293,MERIWETHER COUNTY,1,4,3,0,0,7,0,0,FALSE
US,GA,30294,DEKALB CO TSPLOST SP,1,4,3,0,1,8,0,0,FALSE
US,GA,30295,PIKE COUNTY,1,4,3,0,0,7,0,0,FALSE
US,GA,30296,CLAYTON COUNTY,1,4,4,0,0,8,0,0,FALSE
US,GA,30297,CLAYTON COUNTY,3,4,4,0,0,8,0,0,FALSE
US,GA,30298,FOREST PARK,2,4,4,0,0,8,0,0,FALSE
US,GA,30301,ATLANTA (FULTON CO),3,4,3,1.5,0.4,8.9,0,0,FALSE
US,GA,30302,ATLANTA (FULTON CO),3,4,3,1.5,0.4,8.9,0,0,FALSE
US,GA,30303,ATLANTA (FULTON CO),3,4,3,1.5,0.4,8.9,0,0,FALSE
US,GA,30304,ATLANTA (FULTON CO),3,4,3,1.5,0.4,8.9,0,0,FALSE
US,GA,30305,ATLANTA (FULTON CO),3,4,3,1.5,0.4,8.9,0,0,FALSE
US,GA,30306,ATLANTA TSPLOST TL,3,4,3,1.5,0.4,8.9,0,0,FALSE
US,GA,30307,ATLANTA TSPLOST TL,3,4,3,1.5,0.4,8.9,0,0,FALSE
US,GA,30308,ATLANTA (FULTON CO),3,4,3,1.5,0.4,8.9,0,0,FALSE
US,GA,30309,ATLANTA (FULTON CO),3,4,3,1.5,0.4,8.9,0,0,FALSE
US,GA,30310,ATLANTA (FULTON CO),4,4,3,1.5,0.4,8.9,0,0,FALSE
US,GA,30311,ATLANTA (FULTON CO),3,4,3,1.5,0.4,8.9,0,0,FALSE
US,GA,30312,ATLANTA (FULTON CO),3,4,3,1.5,0.4,8.9,0,0,FALSE
US,GA,30313,ATLANTA (FULTON CO),3,4,3,1.5,0.4,8.9,0,0,FALSE
US,GA,30314,ATLANTA (FULTON CO),3,4,3,1.5,0.4,8.9,0,0,FALSE
US,GA,30315,ATLANTA (FULTON CO),3,4,3,1.5,0.4,8.9,0,0,FALSE
US,GA,30316,DEKALB CO TSPLOST SP,3,4,3,0,1,8,0,0,FALSE
US,GA,30317,ATLANTA TSPLOST TL,3,4,3,1.5,0.4,8.9,0,0,FALSE
US,GA,30318,ATLANTA (FULTON CO),3,4,3,1.5,0.4,8.9,0,0,FALSE
US,GA,30319,BROOKHAVEN,6,4,3,0,1,8,0,0,FALSE
US,GA,30320,CLAYTON,3,4,4,0,0,8,0,0,FALSE
US,GA,30321,ATLANTA (FULTON CO),3,4,3,1.5,0.4,8.9,0,0,FALSE
US,GA,30322,ATLANTA TSPLOST TL,3,4,3,1.5,0.4,8.9,0,0,FALSE
US,GA,30324,ATLANTA (FULTON CO),3,4,3,1.5,0.4,8.9,0,0,FALSE
US,GA,30325,ATLANTA (FULTON CO),3,4,3,1.5,0.4,8.9,0,0,FALSE
US,GA,30326,ATLANTA (FULTON CO),4,4,3,1.5,0.4,8.9,0,0,FALSE
US,GA,30327,ATLANTA (FULTON CO),4,4,3,1.5,0.4,8.9,0,0,FALSE
US,GA,30328,SANDY SPRINGS,4,4,3,0,0.75,7.75,0,0,FALSE
US,GA,30329,DEKALB CO TSPLOST SP,5,4,3,0,1,8,0,0,FALSE
US,GA,30331,ATLANTA (FULTON CO),3,4,3,1.5,0.4,8.9,0,0,FALSE
US,GA,30332,ATLANTA (FULTON CO),3,4,3,1.5,0.4,8.9,0,0,FALSE
US,GA,30333,DEKALB CO TSPLOST SP,4,4,3,0,1,8,0,0,FALSE
US,GA,30334,EAST POINT,3,4,3,0,0.75,7.75,0,0,FALSE
US,GA,30336,FULTON COUNTY,3,4,3,0,0.75,7.75,0,0,FALSE
US,GA,30337,COLLEGE PARK,3,4,3,0,0.75,7.75,0,0,FALSE
US,GA,30338,DUNWOODY,6,4,3,0,1,8,0,0,FALSE
US,GA,30339,COBB COUNTY,7,4,2,0,0,6,0,0,FALSE
US,GA,30340,DEKALB CO TSPLOST SP,4,4,3,0,1,8,0,0,FALSE
US,GA,30341,CHAMBLEE,4,4,3,0,1,8,0,0,FALSE
US,GA,30342,ATLANTA (FULTON CO),5,4,3,1.5,0.4,8.9,0,0,FALSE
US,GA,30343,ATLANTA (FULTON CO),3,4,3,1.5,0.4,8.9,0,0,FALSE
US,GA,30344,EAST POINT,4,4,3,0,0.75,7.75,0,0,FALSE
US,GA,30345,DEKALB CO TSPLOST SP,3,4,3,0,1,8,0,0,FALSE
US,GA,30346,DUNWOODY,4,4,3,0,1,8,0,0,FALSE
US,GA,30349,CLAYTON COUNTY,3,4,4,0,0,8,0,0,FALSE
US,GA,30350,SOUTH FULTON,5,4,3,0,0.75,7.75,0,0,FALSE
US,GA,30354,ATLANTA (FULTON CO),4,4,3,1.5,0.4,8.9,0,0,FALSE
US,GA,30355,ATLANTA (FULTON CO),3,4,3,1.5,0.4,8.9,0,0,FALSE
US,GA,30356,DECATUR,4,4,3,0,1,8,0,0,FALSE
US,GA,30357,ATLANTA (FULTON CO),3,4,3,1.5,0.4,8.9,0,0,FALSE
US,GA,30358,SOUTH FULTON,4,4,3,0,0.75,7.75,0,0,FALSE
US,GA,30359,DECATUR,3,4,3,0,1,8,0,0,FALSE
US,GA,30360,DUNWOODY,5,4,3,0,1,8,0,0,FALSE
US,GA,30361,ATLANTA (FULTON CO),3,4,3,1.5,0.4,8.9,0,0,FALSE
US,GA,30362,DECATUR,4,4,3,0,1,8,0,0,FALSE
US,GA,30363,ATLANTA (FULTON CO),3,4,3,1.5,0.4,8.9,0,0,FALSE
US,GA,30364,EAST POINT,4,4,3,0,0.75,7.75,0,0,FALSE
US,GA,30366,DECATUR,4,4,3,0,1,8,0,0,FALSE
US,GA,30368,ATLANTA (FULTON CO),3,4,3,1.5,0.4,8.9,0,0,FALSE
US,GA,30369,ATLANTA (FULTON CO),3,4,3,1.5,0.4,8.9,0,0,FALSE
US,GA,30375,ATLANTA (FULTON CO),3,4,3,1.5,0.4,8.9,0,0,FALSE
US,GA,30377,ATLANTA (FULTON CO),3,4,3,1.5,0.4,8.9,0,0,FALSE
US,GA,30378,FULTON COUNTY,3,4,3,0,0.75,7.75,0,0,FALSE
US,GA,30380,SOUTH FULTON,3,4,3,0,0.75,7.75,0,0,FALSE
US,GA,30385,SOUTH FULTON,4,4,3,0,0.75,7.75,0,0,FALSE
US,GA,30388,ATLANTA (FULTON CO),3,4,3,1.5,0.4,8.9,0,0,FALSE
US,GA,30396,SOUTH FULTON,3,4,3,0,0.75,7.75,0,0,FALSE
US,GA,30398,SOUTH FULTON,3,4,3,0,0.75,7.75,0,0,FALSE
US,GA,30401,SWAINSBORO,12,4,3,0,1,8,0,0,FALSE
US,GA,30410,AILEY,4,4,3,0,1,8,0,0,FALSE
US,GA,30411,WHEELER COUNTY,1,4,3,0,1,8,0,0,FALSE
US,GA,30412,ALSTON,1,4,3,0,1,8,0,0,FALSE
US,GA,30413,JEFFERSON COUNTY,1,4,3,0,1,8,0,0,FALSE
US,GA,30414,EVANS COUNTY,1,4,3,0,1,8,0,0,FALSE
US,GA,30415,BULLOCH COUNTY,9,4,4,0,0,8,0,0,FALSE
US,GA,30417,EVANS COUNTY,1,4,3,0,1,8,0,0,FALSE
US,GA,30420,TATTNALL COUNTY,2,4,3,0,1,8,0,0,FALSE
US,GA,30421,COLLINS,1,4,3,0,1,8,0,0,FALSE
US,GA,30423,EVANS COUNTY,1,4,3,0,1,8,0,0,FALSE
US,GA,30424,SCREVEN COUNTY,1,4,3,0,0,7,0,0,FALSE
US,GA,30425,BULLOCH COUNTY,1,4,4,0,0,8,0,0,FALSE
US,GA,30426,BURKE COUNTY,1,4,2,0,1,7,0,0,FALSE
US,GA,30427,TATTNALL COUNTY,2,4,3,0,1,8,0,0,FALSE
US,GA,30428,WHEELER COUNTY,1,4,3,0,1,8,0,0,FALSE
US,GA,30429,HAGAN,1,4,3,0,1,8,0,0,FALSE
US,GA,30434,JEFFERSON COUNTY,4,4,3,0,1,8,0,0,FALSE
US,GA,30436,TOOMBS COUNTY,4,4,3,0,1,8,0,0,FALSE
US,GA,30438,MANASSAS,1,4,3,0,1,8,0,0,FALSE
US,GA,30439,CANDLER COUNTY,2,4,3,0,1,8,0,0,FALSE
US,GA,30441,EMANUEL COUNTY,5,4,3,0,1,8,0,0,FALSE
US,GA,30442,JENKINS COUNTY,1,4,3,0,1,8,0,0,FALSE
US,GA,30445,MONTGOMERY COUNTY,1,4,3,0,1,8,0,0,FALSE
US,GA,30446,SCREVEN COUNTY,1,4,3,0,0,7,0,0,FALSE
US,GA,30447,EMANUEL COUNTY,1,4,3,0,1,8,0,0,FALSE
US,GA,30448,EMANUEL COUNTY,1,4,3,0,1,8,0,0,FALSE
US,GA,30449,OLIVER,1,4,3,0,0,7,0,0,FALSE
US,GA,30450,BULLOCH COUNTY,2,4,4,0,0,8,0,0,FALSE
US,GA,30451,PULASKI,1,4,3,0,1,8,0,0,FALSE
US,GA,30452,BULLOCH COUNTY,1,4,4,0,0,8,0,0,FALSE
US,GA,30453,TATTNALL COUNTY,1,4,3,0,1,8,0,0,FALSE
US,GA,30454,LAURENS COUNTY,1,4,3,0,1,8,0,0,FALSE
US,GA,30455,SCREVEN COUNTY,1,4,3,0,0,7,0,0,FALSE
US,GA,30456,BURKE COUNTY,1,4,2,0,1,7,0,0,FALSE
US,GA,30457,TREUTLEN COUNTY,1,4,3,0,1,8,0,0,FALSE
US,GA,30458,STATESBORO,1,4,4,0,0,8,0,0,FALSE
US,GA,30459,STATESBORO,1,4,4,0,0,8,0,0,FALSE
US,GA,30460,STATESBORO,1,4,4,0,0,8,0,0,FALSE
US,GA,30461,BULLOCH COUNTY,1,4,4,0,0,8,0,0,FALSE
US,GA,30464,STILLMORE,1,4,3,0,1,8,0,0,FALSE
US,GA,30467,SYLVANIA,2,4,3,0,0,7,0,0,FALSE
US,GA,30470,MONTGOMERY COUNTY,1,4,3,0,1,8,0,0,FALSE
US,GA,30471,EMANUEL COUNTY,2,4,3,0,1,8,0,0,FALSE
US,GA,30473,TOOMBS COUNTY,1,4,3,0,1,8,0,0,FALSE
US,GA,30474,VIDALIA,6,4,3,0,1,8,0,0,FALSE
US,GA,30477,JEFFERSON COUNTY,2,4,3,0,1,8,0,0,FALSE
US,GA,30499,REIDSVILLE,1,4,3,0,1,8,0,0,FALSE
US,GA,30501,GAINESVILLE,2,4,3,0,0,7,0,0,FALSE
US,GA,30502,OAKWOOD,2,4,3,0,0,7,0,0,FALSE
US,GA,30503,GAINESVILLE,1,4,3,0,0,7,0,0,FALSE
US,GA,30504,HALL COUNTY,1,4,3,0,0,7,0,0,FALSE
US,GA,30506,HALL COUNTY,1,4,3,0,0,7,0,0,FALSE
US,GA,30507,HALL COUNTY,1,4,3,0,0,7,0,0,FALSE
US,GA,30510,HABERSHAM COUNTY,1,4,3,0,0,7,0,0,FALSE
US,GA,30511,BANKS COUNTY,1,4,4,0,0,8,0,0,FALSE
US,GA,30512,UNION COUNTY,1,4,3,0,0,7,0,0,FALSE
US,GA,30513,FANNIN COUNTY,1,4,3,0,0,7,0,0,FALSE
US,GA,30514,BLAIRSVILLE,1,4,3,0,0,7,0,0,FALSE
US,GA,30515,BUFORD,1,4,2,0,0,6,0,0,FALSE
US,GA,30516,HART COUNTY,1,4,3,0,0,7,0,0,FALSE
US,GA,30517,JACKSON COUNTY,1,4,3,0,0,7,0,0,FALSE
US,GA,30518,BUFORD,3,4,2,0,0,6,0,0,FALSE
US,GA,30519,GWINNETT COUNTY,1,4,2,0,0,6,0,0,FALSE
US,GA,30520,HART COUNTY,1,4,3,0,0,7,0,0,FALSE
US,GA,30521,FRANKLIN COUNTY,1,4,3,0,0,7,0,0,FALSE
US,GA,30522,GILMER COUNTY,1,4,3,0,0,7,0,0,FALSE
US,GA,30523,HABERSHAM COUNTY,1,4,3,0,0,7,0,0,FALSE
US,GA,30525,RABUN COUNTY,1,4,3,0,0,7,0,0,FALSE
US,GA,30527,HALL COUNTY,1,4,3,0,0,7,0,0,FALSE
US,GA,30528,WHITE COUNTY,1,4,3,0,0,7,0,0,FALSE
US,GA,30529,COMMERCE,2,4,3,0,0,7,0,0,FALSE
US,GA,30530,JACKSON COUNTY,2,4,3,0,0,7,0,0,FALSE
US,GA,30531,HABERSHAM COUNTY,1,4,3,0,0,7,0,0,FALSE
US,GA,30533,LUMPKIN COUNTY,1,4,4,0,0,8,0,0,FALSE
US,GA,30534,DAWSON COUNTY,1,4,3,0,0,7,0,0,FALSE
US,GA,30535,HABERSHAM COUNTY,1,4,3,0,0,7,0,0,FALSE
US,GA,30536,GILMER COUNTY,1,4,3,0,0,7,0,0,FALSE
US,GA,30537,SKY VALLEY,1,4,3,0,0,7,0,0,FALSE
US,GA,30538,STEPHENS COUNTY,1,4,3,0,0,7,0,0,FALSE
US,GA,30539,EAST ELLIJAY,1,4,3,0,0,7,0,0,FALSE
US,GA,30540,GILMER COUNTY,2,4,3,0,0,7,0,0,FALSE
US,GA,30541,FANNIN COUNTY,1,4,3,0,0,7,0,0,FALSE
US,GA,30542,HALL COUNTY,1,4,3,0,0,7,0,0,FALSE
US,GA,30543,HALL COUNTY,1,4,3,0,0,7,0,0,FALSE
US,GA,30545,HELEN,1,4,3,0,0,7,0,0,FALSE
US,GA,30546,TOWNS COUNTY,1,4,3,0,0,7,0,0,FALSE
US,GA,30547,BANKS COUNTY,1,4,4,0,0,8,0,0,FALSE
US,GA,30548,JACKSON COUNTY,1,4,3,0,0,7,0,0,FALSE
US,GA,30549,JACKSON COUNTY,2,4,3,0,0,7,0,0,FALSE
US,GA,30552,RABUN COUNTY,1,4,3,0,0,7,0,0,FALSE
US,GA,30553,FRANKLIN COUNTY,1,4,3,0,0,7,0,0,FALSE
US,GA,30554,BANKS COUNTY,1,4,4,0,0,8,0,0,FALSE
US,GA,30555,FANNIN COUNTY,1,4,3,0,0,7,0,0,FALSE
US,GA,30557,STEPHENS COUNTY,2,4,3,0,0,7,0,0,FALSE
US,GA,30558,JACKSON COUNTY,1,4,3,0,0,7,0,0,FALSE
US,GA,30559,FANNIN COUNTY,1,4,3,0,0,7,0,0,FALSE
US,GA,30560,FANNIN COUNTY,1,4,3,0,0,7,0,0,FALSE
US,GA,30562,MOUNTAIN CITY,1,4,3,0,0,7,0,0,FALSE
US,GA,30563,HABERSHAM COUNTY,1,4,3,0,0,7,0,0,FALSE
US,GA,30564,LUMPKIN COUNTY,1,4,4,0,0,8,0,0,FALSE
US,GA,30565,JACKSON COUNTY,1,4,3,0,0,7,0,0,FALSE
US,GA,30566,OAKWOOD,1,4,3,0,0,7,0,0,FALSE
US,GA,30567,JACKSON COUNTY,1,4,3,0,0,7,0,0,FALSE
US,GA,30568,RABUN COUNTY,1,4,3,0,0,7,0,0,FALSE
US,GA,30571,WHITE COUNTY,2,4,3,0,0,7,0,0,FALSE
US,GA,30572,UNION COUNTY,1,4,3,0,0,7,0,0,FALSE
US,GA,30573,TALLULAH FALLS,1,4,3,0,0,7,0,0,FALSE
US,GA,30575,JACKSON COUNTY,1,4,3,0,0,7,0,0,FALSE
US,GA,30576,RABUN COUNTY,1,4,3,0,0,7,0,0,FALSE
US,GA,30577,STEPHENS COUNTY,2,4,3,0,0,7,0,0,FALSE
US,GA,30580,HABERSHAM COUNTY,1,4,3,0,0,7,0,0,FALSE
US,GA,30581,RABUN COUNTY,1,4,3,0,0,7,0,0,FALSE
US,GA,30582,TOWNS COUNTY,1,4,3,0,0,7,0,0,FALSE
US,GA,30597,DAHLONEGA,1,4,4,0,0,8,0,0,FALSE
US,GA,30598,STEPHENS COUNTY,1,4,3,0,0,7,0,0,FALSE
US,GA,30599,COMMERCE,3,4,3,0,0,7,0,0,FALSE
US,GA,30601,ATHENS,1,4,3,0,1,8,0,0,FALSE
US,GA,30602,ATHENS,1,4,3,0,1,8,0,0,FALSE
US,GA,30603,ATHENS,1,4,3,0,1,8,0,0,FALSE
US,GA,30604,ATHENS,1,4,3,0,1,8,0,0,FALSE
US,GA,30605,ATHENS,1,4,3,0,1,8,0,0,FALSE
US,GA,30606,ATHENS,1,4,3,0,1,8,0,0,FALSE
US,GA,30607,JACKSON COUNTY,1,4,3,0,0,7,0,0,FALSE
US,GA,30608,ATHENS,1,4,3,0,1,8,0,0,FALSE
US,GA,30609,ATHENS,1,4,3,0,1,8,0,0,FALSE
US,GA,30612,ATHENS,1,4,3,0,1,8,0,0,FALSE
US,GA,30619,OGLETHORPE COUNTY,1,4,4,0,0,8,0,0,FALSE
US,GA,30620,BARROW COUNTY,1,4,3,0,0,7,0,0,FALSE
US,GA,30621,OCONEE COUNTY,2,4,3,0,0,7,0,0,FALSE
US,GA,30622,OCONEE COUNTY,1,4,3,0,0,7,0,0,FALSE
US,GA,30623,BOSTWICK,1,4,4,0,0,8,0,0,FALSE
US,GA,30624,ELBERT COUNTY,1,4,4,0,0,8,0,0,FALSE
US,GA,30625,MORGAN COUNTY,1,4,4,0,0,8,0,0,FALSE
US,GA,30627,OGLETHORPE COUNTY,1,4,4,0,0,8,0,0,FALSE
US,GA,30628,MADISON COUNTY,1,4,3,0,0,7,0,0,FALSE
US,GA,30629,MADISON COUNTY,1,4,3,0,0,7,0,0,FALSE
US,GA,30630,OGLETHORPE COUNTY,1,4,4,0,0,8,0,0,FALSE
US,GA,30631,TALIAFERRO COUNTY,1,4,3,0,1,8,0,0,FALSE
US,GA,30633,MADISON COUNTY,1,4,3,0,0,7,0,0,FALSE
US,GA,30634,ELBERT COUNTY,1,4,4,0,0,8,0,0,FALSE
US,GA,30635,ELBERT COUNTY,1,4,4,0,0,8,0,0,FALSE
US,GA,30638,WATKINSVILLE,1,4,3,0,0,7,0,0,FALSE
US,GA,30639,FRANKLIN SPRINGS,1,4,3,0,0,7,0,0,FALSE
US,GA,30641,WALTON COUNTY,1,4,3,0,0,7,0,0,FALSE
US,GA,30642,GREENE COUNTY,2,4,3,0,0,7,0,0,FALSE
US,GA,30643,HART COUNTY,1,4,3,0,0,7,0,0,FALSE
US,GA,30645,NORTH HIGH SHOALS,1,4,3,0,0,7,0,0,FALSE
US,GA,30646,MADISON COUNTY,1,4,3,0,0,7,0,0,FALSE
US,GA,30647,ILA,1,4,3,0,0,7,0,0,FALSE
US,GA,30648,OGLETHORPE COUNTY,1,4,4,0,0,8,0,0,FALSE
US,GA,30650,MORGAN COUNTY,1,4,4,0,0,8,0,0,FALSE
US,GA,30655,MONROE,2,4,3,0,0,7,0,0,FALSE
US,GA,30656,WALTON COUNTY,2,4,3,0,0,7,0,0,FALSE
US,GA,30660,WILKES COUNTY,2,4,3,0,1,8,0,0,FALSE
US,GA,30662,FRANKLIN COUNTY,1,4,3,0,0,7,0,0,FALSE
US,GA,30663,MORGAN COUNTY,1,4,4,0,0,8,0,0,FALSE
US,GA,30664,SHARON,1,4,3,0,1,8,0,0,FALSE
US,GA,30665,SILOAM,1,4,3,0,0,7,0,0,FALSE
US,GA,30666,OCONEE COUNTY,1,4,3,0,0,7,0,0,FALSE
US,GA,30667,OGLETHORPE COUNTY,2,4,4,0,0,8,0,0,FALSE
US,GA,30668,WILKES COUNTY,2,4,3,0,1,8,0,0,FALSE
US,GA,30669,GREENE COUNTY,3,4,3,0,0,7,0,0,FALSE
US,GA,30673,WILKES COUNTY,1,4,3,0,1,8,0,0,FALSE
US,GA,30677,OCONEE COUNTY,1,4,3,0,0,7,0,0,FALSE
US,GA,30678,GREENE COUNTY,1,4,3,0,0,7,0,0,FALSE
US,GA,30680,BARROW COUNTY,1,4,3,0,0,7,0,0,FALSE
US,GA,30683,ATHENS,1,4,3,0,1,8,0,0,FALSE
US,GA,30701,GORDON COUNTY,1,4,3,0,0,7,0,0,FALSE
US,GA,30703,CALHOUN,1,4,3,0,0,7,0,0,FALSE
US,GA,30705,MURRAY COUNTY,1,4,3,0,0,7,0,0,FALSE
US,GA,30707,WALKER CO TSPLOST TR,1,4,3,0,1,8,0,0,FALSE
US,GA,30708,MURRAY COUNTY,1,4,3,0,0,7,0,0,FALSE
US,GA,30710,WHITFIELD COUNTY,1,4,2,0,0,6,0,0,FALSE
US,GA,30711,MURRAY COUNTY,1,4,3,0,0,7,0,0,FALSE
US,GA,30719,DALTON,1,4,2,0,0,6,0,0,FALSE
US,GA,30720,DALTON,1,4,2,0,0,6,0,0,FALSE
US,GA,30721,WHITFIELD COUNTY,1,4,2,0,0,6,0,0,FALSE
US,GA,30722,DALTON,1,4,2,0,0,6,0,0,FALSE
US,GA,30724,ETON,1,4,3,0,0,7,0,0,FALSE
US,GA,30725,WALKER CO TSPLOST TR,1,4,3,0,1,8,0,0,FALSE
US,GA,30726,CATOOSA COUNTY,1,4,3,0,0,7,0,0,FALSE
US,GA,30728,WALKER CO TSPLOST TR,1,4,3,0,1,8,0,0,FALSE
US,GA,30730,CHATTOOGA COUNTY,1,4,3,0,0,7,0,0,FALSE
US,GA,30731,CHATTOOGA COUNTY,1,4,3,0,0,7,0,0,FALSE
US,GA,30732,GORDON COUNTY,1,4,3,0,0,7,0,0,FALSE
US,GA,30733,GORDON COUNTY,1,4,3,0,0,7,0,0,FALSE
US,GA,30734,GORDON COUNTY,1,4,3,0,0,7,0,0,FALSE
US,GA,30735,GORDON COUNTY,1,4,3,0,0,7,0,0,FALSE
US,GA,30736,CATOOSA COUNTY,1,4,3,0,0,7,0,0,FALSE
US,GA,30738,DADE COUNTY,1,4,3,0,0,7,0,0,FALSE
US,GA,30739,WALKER CO TSPLOST TR,1,4,3,0,1,8,0,0,FALSE
US,GA,30740,WHITFIELD COUNTY,1,4,2,0,0,6,0,0,FALSE
US,GA,30741,WALKER CO TSPLOST TR,2,4,3,0,1,8,0,0,FALSE
US,GA,30742,FORT OGLETHORPE,3,4,3,0,0,7,0,0,FALSE
US,GA,30746,GORDON COUNTY,1,4,3,0,0,7,0,0,FALSE
US,GA,30747,CHATTOOGA COUNTY,1,4,3,0,0,7,0,0,FALSE
US,GA,30750,LOOKOUT MOUNTAIN,1,4,3,0,1,8,0,0,FALSE
US,GA,30751,MURRAY COUNTY,1,4,3,0,0,7,0,0,FALSE
US,GA,30752,DADE COUNTY,1,4,3,0,0,7,0,0,FALSE
US,GA,30753,CHATTOOGA COUNTY,1,4,3,0,0,7,0,0,FALSE
US,GA,30755,WHITFIELD COUNTY,1,4,2,0,0,6,0,0,FALSE
US,GA,30756,VARNELL,1,4,2,0,0,6,0,0,FALSE
US,GA,30757,DADE COUNTY,1,4,3,0,0,7,0,0,FALSE
US,GA,30802,COLUMBIA COUNTY,3,4,3,0,1,8,0,0,FALSE
US,GA,30803,JEFFERSON COUNTY,1,4,3,0,1,8,0,0,FALSE
US,GA,30805,BURKE COUNTY,2,4,2,0,1,7,0,0,FALSE
US,GA,30806,MCDUFFIE COUNTY,1,4,3,0,1,8,0,0,FALSE
US,GA,30807,CAMAK,1,4,3,0,1,8,0,0,FALSE
US,GA,30808,MCDUFFIE COUNTY,1,4,3,0,1,8,0,0,FALSE
US,GA,30809,COLUMBIA COUNTY,1,4,3,0,1,8,0,0,FALSE
US,GA,30810,GLASCOCK COUNTY,1,4,3,0,1,8,0,0,FALSE
US,GA,30811,BURKE COUNTY,1,4,2,0,1,7,0,0,FALSE
US,GA,30812,BURKE COUNTY,1,4,2,0,1,7,0,0,FALSE
US,GA,30813,COLUMBIA COUNTY,1,4,3,0,1,8,0,0,FALSE
US,GA,30814,COLUMBIA COUNTY,3,4,3,0,1,8,0,0,FALSE
US,GA,30815,AUGUSTA,1,4,3,0,1,8,0,0,FALSE
US,GA,30816,BURKE COUNTY,1,4,2,0,1,7,0,0,FALSE
US,GA,30817,LINCOLN COUNTY,8,4,3,0,1,8,0,0,FALSE
US,GA,30818,JEFFERSON COUNTY,3,4,3,0,1,8,0,0,FALSE
US,GA,30819,WARREN COUNTY,1,4,3,0,1,8,0,0,FALSE
US,GA,30820,GLASCOCK COUNTY,1,4,3,0,1,8,0,0,FALSE
US,GA,30821,WARREN COUNTY,3,4,3,0,1,8,0,0,FALSE
US,GA,30822,JENKINS COUNTY,1,4,3,0,1,8,0,0,FALSE
US,GA,30823,WARREN COUNTY,1,4,3,0,1,8,0,0,FALSE
US,GA,30824,MCDUFFIE COUNTY,1,4,3,0,1,8,0,0,FALSE
US,GA,30828,WARREN COUNTY,3,4,3,0,1,8,0,0,FALSE
US,GA,30830,BURKE COUNTY,3,4,2,0,1,7,0,0,FALSE
US,GA,30833,JEFFERSON COUNTY,1,4,3,0,1,8,0,0,FALSE
US,GA,30901,AUGUSTA,2,4,3,0,1,8,0,0,FALSE
US,GA,30903,AUGUSTA,2,4,3,0,1,8,0,0,FALSE
US,GA,30904,AUGUSTA,2,4,3,0,1,8,0,0,FALSE
US,GA,30905,AUGUSTA,3,4,3,0,1,8,0,0,FALSE
US,GA,30906,AUGUSTA,2,4,3,0,1,8,0,0,FALSE
US,GA,30907,COLUMBIA COUNTY,3,4,3,0,1,8,0,0,FALSE
US,GA,30909,AUGUSTA,2,4,3,0,1,8,0,0,FALSE
US,GA,30912,AUGUSTA,2,4,3,0,1,8,0,0,FALSE
US,GA,30914,AUGUSTA,2,4,3,0,1,8,0,0,FALSE
US,GA,30916,AUGUSTA,2,4,3,0,1,8,0,0,FALSE
US,GA,30917,COLUMBIA COUNTY,2,4,3,0,1,8,0,0,FALSE
US,GA,30919,AUGUSTA,2,4,3,0,1,8,0,0,FALSE
US,GA,31001,WILCOX COUNTY,1,4,3,0,1,8,0,0,FALSE
US,GA,31002,JOHNSON CO TSPLOST TR,1,4,3,0,0,7,0,0,FALSE
US,GA,31003,ALLENTOWN,1,4,3,0,0,7,0,0,FALSE
US,GA,31004,MONROE COUNTY,1,4,3,0,0,7,0,0,FALSE
US,GA,31005,HOUSTON COUNTY,1,4,3,0,0,7,0,0,FALSE
US,GA,31006,TAYLOR COUNTY,1,4,3,0,1,8,0,0,FALSE
US,GA,31007,DOOLY COUNTY,1,4,3,0,1,8,0,0,FALSE
US,GA,31008,PEACH COUNTY,3,4,3,0,0,7,0,0,FALSE
US,GA,31009,LAURENS COUNTY,1,4,3,0,1,8,0,0,FALSE
US,GA,31010,CORDELE,1,4,3,0,1,8,0,0,FALSE
US,GA,31011,DODGE COUNTY,1,4,3,0,1,8,0,0,FALSE
US,GA,31012,DODGE COUNTY,1,4,3,0,1,8,0,0,FALSE
US,GA,31013,SUMTER COUNTY,1,4,3,0,1,8,0,0,FALSE
US,GA,31014,BLECKLEY COUNTY,2,4,3,0,1,8,0,0,FALSE
US,GA,31015,CORDELE,1,4,3,0,1,8,0,0,FALSE
US,GA,31016,MONROE COUNTY,1,4,3,0,0,7,0,0,FALSE
US,GA,31017,TWIGGS COUNTY,1,4,3,0,0,7,0,0,FALSE
US,GA,31018,WASHINGTON COUNTY,2,4,3,0,1,8,0,0,FALSE
US,GA,31019,LAURENS COUNTY,1,4,3,0,1,8,0,0,FALSE
US,GA,31020,TWIGGS COUNTY,1,4,3,0,0,7,0,0,FALSE
US,GA,31021,DUBLIN,2,4,3,0,1,8,0,0,FALSE
US,GA,31022,LAURENS COUNTY,1,4,3,0,1,8,0,0,FALSE
US,GA,31023,DODGE COUNTY,2,4,3,0,1,8,0,0,FALSE
US,GA,31024,PUTNAM CO TSPLOST TR,1,4,3,0,1,8,0,0,FALSE
US,GA,31025,HOUSTON COUNTY,1,4,3,0,0,7,0,0,FALSE
US,GA,31026,EATONTON,1,4,3,0,1,8,0,0,FALSE
US,GA,31027,LAURENS COUNTY,2,4,3,0,1,8,0,0,FALSE
US,GA,31028,CENTERVILLE,1,4,3,0,0,7,0,0,FALSE
US,GA,31029,MONROE COUNTY,1,4,3,0,0,7,0,0,FALSE
US,GA,31030,PEACH COUNTY,1,4,3,0,0,7,0,0,FALSE
US,GA,31031,WILKINSON COUNTY,1,4,3,0,0,7,0,0,FALSE
US,GA,31032,JONES COUNTY,1,4,3,0,0,7,0,0,FALSE
US,GA,31033,JONES COUNTY,1,4,3,0,0,7,0,0,FALSE
US,GA,31034,WASHINGTON COUNTY,1,4,3,0,1,8,0,0,FALSE
US,GA,31035,WASHINGTON COUNTY,1,4,3,0,1,8,0,0,FALSE
US,GA,31036,PULASKI COUNTY,5,4,3,0,0,7,0,0,FALSE
US,GA,31037,DODGE COUNTY,1,4,3,0,1,8,0,0,FALSE
US,GA,31038,JASPER COUNTY,2,4,3,0,0,7,0,0,FALSE
US,GA,31039,MONROE COUNTY,1,4,3,0,0,7,0,0,FALSE
US,GA,31040,DUBLIN,1,4,3,0,1,8,0,0,FALSE
US,GA,31041,MACON COUNTY,1,4,3,0,1,8,0,0,FALSE
US,GA,31042,WILKINSON COUNTY,1,4,3,0,0,7,0,0,FALSE
US,GA,31044,TWIGGS COUNTY,1,4,3,0,0,7,0,0,FALSE
US,GA,31045,WARREN COUNTY,1,4,3,0,1,8,0,0,FALSE
US,GA,31046,MONROE COUNTY,1,4,3,0,0,7,0,0,FALSE
US,GA,31047,HOUSTON COUNTY,1,4,3,0,0,7,0,0,FALSE
US,GA,31049,JOHNSON CO TSPLOST TR,1,4,3,0,0,7,0,0,FALSE
US,GA,31050,CRAWFORD COUNTY,1,4,3,0,0,7,0,0,FALSE
US,GA,31051,LILLY,1,4,3,0,1,8,0,0,FALSE
US,GA,31052,BIBB COUNTY,1,4,3,0,0,7,0,0,FALSE
US,GA,31054,WILKINSON COUNTY,1,4,3,0,0,7,0,0,FALSE
US,GA,31055,TELFAIR COUNTY,1,4,3,0,1,8,0,0,FALSE
US,GA,31057,MACON COUNTY,1,4,3,0,1,8,0,0,FALSE
US,GA,31058,MARION COUNTY,1,4,3,0,1,8,0,0,FALSE
US,GA,31059,MILLEDGEVILLE,1,4,3,0,0,7,0,0,FALSE
US,GA,31060,DODGE COUNTY,1,4,3,0,1,8,0,0,FALSE
US,GA,31061,BALDWIN COUNTY,2,4,3,0,0,7,0,0,FALSE
US,GA,31062,MILLEDGEVILLE,1,4,3,0,0,7,0,0,FALSE
US,GA,31063,MACON COUNTY,2,4,3,0,1,8,0,0,FALSE
US,GA,31064,JASPER COUNTY,1,4,3,0,0,7,0,0,FALSE
US,GA,31065,LAURENS COUNTY,1,4,3,0,1,8,0,0,FALSE
US,GA,31066,CRAWFORD COUNTY,1,4,3,0,0,7,0,0,FALSE
US,GA,31067,OCONEE,1,4,3,0,1,8,0,0,FALSE
US,GA,31068,MACON COUNTY,3,4,3,0,1,8,0,0,FALSE
US,GA,31069,PERRY,1,4,3,0,0,7,0,0,FALSE
US,GA,31070,DOOLY COUNTY,1,4,3,0,1,8,0,0,FALSE
US,GA,31071,WILCOX COUNTY,1,4,3,0,1,8,0,0,FALSE
US,GA,31072,WILCOX COUNTY,1,4,3,0,1,8,0,0,FALSE
US,GA,31075,LAURENS COUNTY,1,4,3,0,1,8,0,0,FALSE
US,GA,31076,TAYLOR COUNTY,1,4,3,0,1,8,0,0,FALSE
US,GA,31077,DODGE COUNTY,1,4,3,0,1,8,0,0,FALSE
US,GA,31078,CRAWFORD COUNTY,1,4,3,0,0,7,0,0,FALSE
US,GA,31079,WILCOX COUNTY,1,4,3,0,1,8,0,0,FALSE
US,GA,31081,TAYLOR COUNTY,1,4,3,0,1,8,0,0,FALSE
US,GA,31082,WASHINGTON COUNTY,2,4,3,0,1,8,0,0,FALSE
US,GA,31083,SCOTLAND,1,4,3,0,1,8,0,0,FALSE
US,GA,31084,WILCOX COUNTY,1,4,3,0,1,8,0,0,FALSE
US,GA,31085,JASPER COUNTY,3,4,3,0,0,7,0,0,FALSE
US,GA,31086,MONROE COUNTY,1,4,3,0,0,7,0,0,FALSE
US,GA,31087,HANCOCK COUNTY,2,4,3,0,1,8,0,0,FALSE
US,GA,31088,WARNER ROBINS,2,4,3,0,0,7,0,0,FALSE
US,GA,31089,WASHINGTON COUNTY,1,4,3,0,1,8,0,0,FALSE
US,GA,31090,WILKINSON COUNTY,1,4,3,0,0,7,0,0,FALSE
US,GA,31091,DOOLY COUNTY,2,4,3,0,1,8,0,0,FALSE
US,GA,31092,DOOLY COUNTY,1,4,3,0,1,8,0,0,FALSE
US,GA,31093,WARNER ROBINS,2,4,3,0,0,7,0,0,FALSE
US,GA,31094,WASHINGTON COUNTY,1,4,3,0,1,8,0,0,FALSE
US,GA,31095,WARNER ROBINS,1,4,3,0,0,7,0,0,FALSE
US,GA,31096,JOHNSON CO TSPLOST TR,1,4,3,0,0,7,0,0,FALSE
US,GA,31097,UPSON COUNTY,1,4,4,0,0,8,0,0,FALSE
US,GA,31098,HOUSTON COUNTY,1,4,3,0,0,7,0,0,FALSE
US,GA,31106,ATLANTA (FULTON CO),3,4,3,1.5,0.4,8.9,0,0,FALSE
US,GA,31107,ATLANTA TSPLOST TL,3,4,3,1.5,0.4,8.9,0,0,FALSE
US,GA,31119,DECATUR,3,4,3,0,1,8,0,0,FALSE
US,GA,31126,ATLANTA (FULTON CO),3,4,3,1.5,0.4,8.9,0,0,FALSE
US,GA,31131,ATLANTA (FULTON CO),3,4,3,1.5,0.4,8.9,0,0,FALSE
US,GA,31136,SOUTH FULTON,1,4,3,0,0.75,7.75,0,0,FALSE
US,GA,31139,SOUTH FULTON,3,4,3,0,0.75,7.75,0,0,FALSE
US,GA,31141,DECATUR,3,4,3,0,1,8,0,0,FALSE
US,GA,31144,KENNESAW,1,4,2,0,0,6,0,0,FALSE
US,GA,31145,DECATUR,4,4,3,0,1,8,0,0,FALSE
US,GA,31146,DECATUR,4,4,3,0,1,8,0,0,FALSE
US,GA,31150,SOUTH FULTON,4,4,3,0,0.75,7.75,0,0,FALSE
US,GA,31156,SOUTH FULTON,4,4,3,0,0.75,7.75,0,0,FALSE
US,GA,31169,PEACHTREE CITY,1,4,3,0,0,7,0,0,FALSE
US,GA,31195,SOUTH FULTON,3,4,3,0,0.75,7.75,0,0,FALSE
US,GA,31196,SOUTH FULTON,3,4,3,0,0.75,7.75,0,0,FALSE
US,GA,31201,MACON,2,4,3,0,0,7,0,0,FALSE
US,GA,31203,MACON,1,4,3,0,0,7,0,0,FALSE
US,GA,31204,MACON,3,4,3,0,0,7,0,0,FALSE
US,GA,31205,MACON,1,4,3,0,0,7,0,0,FALSE
US,GA,31206,MACON,1,4,3,0,0,7,0,0,FALSE
US,GA,31207,MACON,1,4,3,0,0,7,0,0,FALSE
US,GA,31208,MACON,1,4,3,0,0,7,0,0,FALSE
US,GA,31209,MACON,1,4,3,0,0,7,0,0,FALSE
US,GA,31210,BIBB COUNTY,1,4,3,0,0,7,0,0,FALSE
US,GA,31211,MACON,1,4,3,0,0,7,0,0,FALSE
US,GA,31213,MACON,1,4,3,0,0,7,0,0,FALSE
US,GA,31216,BIBB COUNTY,1,4,3,0,0,7,0,0,FALSE
US,GA,31217,TWIGGS COUNTY,1,4,3,0,0,7,0,0,FALSE
US,GA,31220,BIBB COUNTY,1,4,3,0,0,7,0,0,FALSE
US,GA,31221,MACON,1,4,3,0,0,7,0,0,FALSE
US,GA,31294,MACON,1,4,3,0,0,7,0,0,FALSE
US,GA,31295,BIBB COUNTY,1,4,3,0,0,7,0,0,FALSE
US,GA,31296,BIBB COUNTY,1,4,3,0,0,7,0,0,FALSE
US,GA,31301,LONG COUNTY,1,4,3,0,0,7,0,0,FALSE
US,GA,31302,BLOOMINGDALE,1,4,3,0,0,7,0,0,FALSE
US,GA,31303,EFFINGHAM COUNTY,1,4,3,0,0,7,0,0,FALSE
US,GA,31304,MCINTOSH COUNTY,1,4,3,0,0,7,0,0,FALSE
US,GA,31305,MCINTOSH COUNTY,1,4,3,0,0,7,0,0,FALSE
US,GA,31307,EFFINGHAM COUNTY,1,4,3,0,0,7,0,0,FALSE
US,GA,31308,BRYAN COUNTY,2,4,4,0,0,8,0,0,FALSE
US,GA,31309,LIBERTY COUNTY,1,4,3,0,0,7,0,0,FALSE
US,GA,31310,HINESVILLE,1,4,3,0,0,7,0,0,FALSE
US,GA,31312,EFFINGHAM COUNTY,3,4,3,0,0,7,0,0,FALSE
US,GA,31313,HINESVILLE,2,4,3,0,0,7,0,0,FALSE
US,GA,31314,LIBERTY COUNTY,1,4,3,0,0,7,0,0,FALSE
US,GA,31315,LIBERTY COUNTY,2,4,3,0,0,7,0,0,FALSE
US,GA,31316,LONG COUNTY,1,4,3,0,0,7,0,0,FALSE
US,GA,31318,EFFINGHAM COUNTY,1,4,3,0,0,7,0,0,FALSE
US,GA,31319,MCINTOSH COUNTY,1,4,3,0,0,7,0,0,FALSE
US,GA,31320,LIBERTY COUNTY,1,4,3,0,0,7,0,0,FALSE
US,GA,31321,BULLOCH COUNTY,2,4,4,0,0,8,0,0,FALSE
US,GA,31322,POOLER,1,4,3,0,0,7,0,0,FALSE
US,GA,31323,RICEBORO,4,4,3,0,0,7,0,0,FALSE
US,GA,31324,BRYAN COUNTY,1,4,4,0,0,8,0,0,FALSE
US,GA,31326,EFFINGHAM COUNTY,1,4,3,0,0,7,0,0,FALSE
US,GA,31327,MCINTOSH COUNTY,1,4,3,0,0,7,0,0,FALSE
US,GA,31328,TYBEE ISLAND,2,4,3,0,0,7,0,0,FALSE
US,GA,31329,EFFINGHAM COUNTY,2,4,3,0,0,7,0,0,FALSE
US,GA,31331,MCINTOSH COUNTY,1,4,3,0,0,7,0,0,FALSE
US,GA,31333,WALTHOURVILLE,1,4,3,0,0,7,0,0,FALSE
US,GA,31401,SAVANNAH,1,4,3,0,0,7,0,0,FALSE
US,GA,31402,SAVANNAH,1,4,3,0,0,7,0,0,FALSE
US,GA,31403,SAVANNAH,1,4,3,0,0,7,0,0,FALSE
US,GA,31404,SAVANNAH,2,4,3,0,0,7,0,0,FALSE
US,GA,31405,SAVANNAH,2,4,3,0,0,7,0,0,FALSE
US,GA,31406,SAVANNAH,2,4,3,0,0,7,0,0,FALSE
US,GA,31407,PORT WENTWORTH,2,4,3,0,0,7,0,0,FALSE
US,GA,31408,GARDEN CITY,2,4,3,0,0,7,0,0,FALSE
US,GA,31409,SAVANNAH,1,4,3,0,0,7,0,0,FALSE
US,GA,31410,CHATHAM COUNTY,3,4,3,0,0,7,0,0,FALSE
US,GA,31411,CHATHAM COUNTY,1,4,3,0,0,7,0,0,FALSE
US,GA,31412,SAVANNAH,1,4,3,0,0,7,0,0,FALSE
US,GA,31414,SAVANNAH,1,4,3,0,0,7,0,0,FALSE
US,GA,31415,SAVANNAH,2,4,3,0,0,7,0,0,FALSE
US,GA,31416,SAVANNAH,1,4,3,0,0,7,0,0,FALSE
US,GA,31418,GARDEN CITY,2,4,3,0,0,7,0,0,FALSE
US,GA,31419,SAVANNAH,1,4,3,0,0,7,0,0,FALSE
US,GA,31420,SAVANNAH,1,4,3,0,0,7,0,0,FALSE
US,GA,31421,SAVANNAH,1,4,3,0,0,7,0,0,FALSE
US,GA,31501,WAYCROSS,2,4,4,0,1,9,0,0,FALSE
US,GA,31502,WAYCROSS,1,4,4,0,1,9,0,0,FALSE
US,GA,31503,WARE CO TSPLOST TR,1,4,4,0,1,9,0,0,FALSE
US,GA,31510,BACON COUNTY,1,4,4,0,0,8,0,0,FALSE
US,GA,31512,COFFEE COUNTY,1,4,4,0,0,8,0,0,FALSE
US,GA,31513,APPLING COUNTY,3,4,3,0,1,8,0,0,FALSE
US,GA,31516,PIERCE COUNTY,1,4,4,0,0,8,0,0,FALSE
US,GA,31518,APPLING COUNTY,1,4,3,0,1,8,0,0,FALSE
US,GA,31519,COFFEE COUNTY,3,4,4,0,0,8,0,0,FALSE
US,GA,31520,BRUNSWICK,3,4,3,0,0,7,0,0,FALSE
US,GA,31521,BRUNSWICK,1,4,3,0,0,7,0,0,FALSE
US,GA,31522,GLYNN COUNTY,3,4,3,0,0,7,0,0,FALSE
US,GA,31523,GLYNN COUNTY,1,4,3,0,0,7,0,0,FALSE
US,GA,31524,GLYNN COUNTY,2,4,3,0,0,7,0,0,FALSE
US,GA,31525,GLYNN COUNTY,4,4,3,0,0,7,0,0,FALSE
US,GA,31527,GLYNN COUNTY,2,4,3,0,0,7,0,0,FALSE
US,GA,31532,JEFF DAVIS COUNTY,1,4,3,0,1,8,0,0,FALSE
US,GA,31533,COFFEE COUNTY,1,4,4,0,0,8,0,0,FALSE
US,GA,31534,DOUGLAS,1,4,4,0,0,8,0,0,FALSE
US,GA,31535,COFFEE COUNTY,1,4,4,0,0,8,0,0,FALSE
US,GA,31537,CHARLTON COUNTY,1,4,4,0,0,8,0,0,FALSE
US,GA,31539,HAZLEHURST,1,4,3,0,1,8,0,0,FALSE
US,GA,31542,BRANTLEY COUNTY,1,4,4,0,0,8,0,0,FALSE
US,GA,31543,BRANTLEY COUNTY,1,4,4,0,0,8,0,0,FALSE
US,GA,31544,JACKSONVILLE,1,4,3,0,1,8,0,0,FALSE
US,GA,31545,WAYNE COUNTY,5,4,3,0,1,8,0,0,FALSE
US,GA,31546,WAYNE COUNTY,1,4,3,0,1,8,0,0,FALSE
US,GA,31547,CAMDEN COUNTY,1,4,3,0,0,7,0,0,FALSE
US,GA,31548,KINGSLAND,1,4,3,0,0,7,0,0,FALSE
US,GA,31549,LUMBER CITY,1,4,3,0,1,8,0,0,FALSE
US,GA,31550,WAYCROSS,1,4,4,0,1,9,0,0,FALSE
US,GA,31551,PIERCE COUNTY,1,4,4,0,0,8,0,0,FALSE
US,GA,31552,WARE CO TSPLOST TR,1,4,4,0,1,9,0,0,FALSE
US,GA,31553,BRANTLEY COUNTY,4,4,4,0,0,8,0,0,FALSE
US,GA,31554,COFFEE COUNTY,5,4,4,0,0,8,0,0,FALSE
US,GA,31555,ODUM,1,4,3,0,1,8,0,0,FALSE
US,GA,31556,OFFERMAN,1,4,4,0,0,8,0,0,FALSE
US,GA,31557,PIERCE COUNTY,1,4,4,0,0,8,0,0,FALSE
US,GA,31558,SAINT MARYS,1,4,3,0,0,7,0,0,FALSE
US,GA,31560,SCREVEN,1,4,3,0,1,8,0,0,FALSE
US,GA,31561,GLYNN COUNTY,2,4,3,0,0,7,0,0,FALSE
US,GA,31562,CHARLTON COUNTY,1,4,4,0,0,8,0,0,FALSE
US,GA,31563,SURRENCY,1,4,3,0,0,7,0,0,FALSE
US,GA,31564,WARE CO TSPLOST TR,1,4,4,0,1,9,0,0,FALSE
US,GA,31565,CAMDEN COUNTY,4,4,3,0,0,7,0,0,FALSE
US,GA,31566,BRANTLEY COUNTY,1,4,4,0,0,8,0,0,FALSE
US,GA,31567,COFFEE COUNTY,1,4,4,0,0,8,0,0,FALSE
US,GA,31568,CAMDEN COUNTY,1,4,3,0,0,7,0,0,FALSE
US,GA,31569,WOODBINE,1,4,3,0,0,7,0,0,FALSE
US,GA,31598,JESUP,1,4,3,0,1,8,0,0,FALSE
US,GA,31599,JESUP,1,4,3,0,1,8,0,0,FALSE
US,GA,31601,VALDOSTA,3,4,4,0,0,8,0,0,FALSE
US,GA,31602,VALDOSTA,1,4,4,0,0,8,0,0,FALSE
US,GA,31603,VALDOSTA,1,4,4,0,0,8,0,0,FALSE
US,GA,31604,VALDOSTA,1,4,4,0,0,8,0,0,FALSE
US,GA,31605,LOWNDES COUNTY,2,4,4,0,0,8,0,0,FALSE
US,GA,31606,LOWNDES COUNTY,1,4,4,0,0,8,0,0,FALSE
US,GA,31620,COOK COUNTY,1,4,4,0,0,8,0,0,FALSE
US,GA,31622,BERRIEN COUNTY,1,4,4,0,0,8,0,0,FALSE
US,GA,31623,ARGYLE,1,4,4,0,0,8,0,0,FALSE
US,GA,31624,ATKINSON COUNTY,1,4,4,0,0,8,0,0,FALSE
US,GA,31625,BROOKS COUNTY,1,4,4,0,0,8,0,0,FALSE
US,GA,31626,THOMAS COUNTY,1,4,3,0,0,7,0,0,FALSE
US,GA,31627,CECIL,1,4,4,0,0,8,0,0,FALSE
US,GA,31629,BROOKS COUNTY,1,4,4,0,0,8,0,0,FALSE
US,GA,31630,CLINCH COUNTY,1,4,4,0,0,8,0,0,FALSE
US,GA,31631,STATENVILLE,1,4,4,0,0,8,0,0,FALSE
US,GA,31632,LOWNDES COUNTY,1,4,4,0,0,8,0,0,FALSE
US,GA,31634,CLINCH COUNTY,1,4,4,0,0,8,0,0,FALSE
US,GA,31635,LAKELAND,1,4,4,0,0,8,0,0,FALSE
US,GA,31636,LOWNDES COUNTY,2,4,4,0,0,8,0,0,FALSE
US,GA,31637,COOK COUNTY,2,4,4,0,0,8,0,0,FALSE
US,GA,31638,BROOKS COUNTY,1,4,4,0,0,8,0,0,FALSE
US,GA,31639,BERRIEN COUNTY,1,4,4,0,0,8,0,0,FALSE
US,GA,31641,LOWNDES COUNTY,1,4,4,0,0,8,0,0,FALSE
US,GA,31642,ATKINSON COUNTY,1,4,4,0,0,8,0,0,FALSE
US,GA,31643,QUITMAN,1,4,4,0,0,8,0,0,FALSE
US,GA,31645,BERRIEN COUNTY,1,4,4,0,0,8,0,0,FALSE
US,GA,31647,COOK COUNTY,1,4,4,0,0,8,0,0,FALSE
US,GA,31648,STATENVILLE,1,4,4,0,0,8,0,0,FALSE
US,GA,31649,LANIER COUNTY,1,4,4,0,0,8,0,0,FALSE
US,GA,31650,ATKINSON COUNTY,1,4,4,0,0,8,0,0,FALSE
US,GA,31698,VALDOSTA,1,4,4,0,0,8,0,0,FALSE
US,GA,31699,LOWNDES COUNTY,1,4,4,0,0,8,0,0,FALSE
US,GA,31701,ALBANY,1,4,4,0,0,8,0,0,FALSE
US,GA,31702,ALBANY,1,4,4,0,0,8,0,0,FALSE
US,GA,31703,ALBANY,1,4,4,0,0,8,0,0,FALSE
US,GA,31704,DOUGHERTY COUNTY,1,4,4,0,0,8,0,0,FALSE
US,GA,31705,ALBANY,3,4,4,0,0,8,0,0,FALSE
US,GA,31706,ALBANY,1,4,4,0,0,8,0,0,FALSE
US,GA,31707,ALBANY,1,4,4,0,0,8,0,0,FALSE
US,GA,31708,ALBANY,1,4,4,0,0,8,0,0,FALSE
US,GA,31709,SUMTER COUNTY,1,4,3,0,1,8,0,0,FALSE
US,GA,31711,ANDERSONVILLE,1,4,3,0,1,8,0,0,FALSE
US,GA,31712,CRISP COUNTY,1,4,3,0,1,8,0,0,FALSE
US,GA,31714,TURNER COUNTY,1,4,4,0,0,8,0,0,FALSE
US,GA,31716,MITCHELL COUNTY,1,4,3,0,0,7,0,0,FALSE
US,GA,31719,SUMTER COUNTY,1,4,3,0,1,8,0,0,FALSE
US,GA,31720,BROOKS COUNTY,1,4,4,0,0,8,0,0,FALSE
US,GA,31721,ALBANY,1,4,4,0,0,8,0,0,FALSE
US,GA,31722,BERLIN,1,4,3,0,1,8,0,0,FALSE
US,GA,31727,TIFT COUNTY,1,4,4,0,0,8,0,0,FALSE
US,GA,31730,MITCHELL COUNTY,1,4,3,0,0,7,0,0,FALSE
US,GA,31733,TIFT COUNTY,1,4,4,0,0,8,0,0,FALSE
US,GA,31735,SUMTER COUNTY,1,4,3,0,1,8,0,0,FALSE
US,GA,31738,THOMAS COUNTY,1,4,3,0,0,7,0,0,FALSE
US,GA,31743,SUMTER COUNTY,1,4,3,0,1,8,0,0,FALSE
US,GA,31744,COLQUITT CO TSPLOST TR,1,4,3,0,1,8,0,0,FALSE
US,GA,31747,ELLENTON,1,4,3,0,1,8,0,0,FALSE
US,GA,31749,BERRIEN COUNTY,1,4,4,0,0,8,0,0,FALSE
US,GA,31750,FITZGERALD,1,4,4,0,0,8,0,0,FALSE
US,GA,31753,FUNSTON,1,4,3,0,1,8,0,0,FALSE
US,GA,31756,COLQUITT CO TSPLOST TR,2,4,3,0,1,8,0,0,FALSE
US,GA,31757,THOMAS COUNTY,2,4,3,0,0,7,0,0,FALSE
US,GA,31763,LEE COUNTY,1,4,4,0,0,8,0,0,FALSE
US,GA,31764,SUMTER COUNTY,1,4,3,0,1,8,0,0,FALSE
US,GA,31765,MITCHELL COUNTY,2,4,3,0,0,7,0,0,FALSE
US,GA,31768,MOULTRIE,2,4,3,0,1,8,0,0,FALSE
US,GA,31769,IRWIN COUNTY,1,4,4,0,0,8,0,0,FALSE
US,GA,31771,COLQUITT CO TSPLOST TR,1,4,3,0,1,8,0,0,FALSE
US,GA,31772,WORTH COUNTY,1,4,4,0,0,8,0,0,FALSE
US,GA,31773,THOMAS COUNTY,1,4,3,0,0,7,0,0,FALSE
US,GA,31774,IRWIN COUNTY,1,4,4,0,0,8,0,0,FALSE
US,GA,31775,COLQUITT CO TSPLOST TR,1,4,3,0,1,8,0,0,FALSE
US,GA,31776,MOULTRIE,1,4,3,0,1,8,0,0,FALSE
US,GA,31778,BROOKS COUNTY,1,4,4,0,0,8,0,0,FALSE
US,GA,31779,MITCHELL COUNTY,1,4,3,0,0,7,0,0,FALSE
US,GA,31780,PLAINS,1,4,3,0,1,8,0,0,FALSE
US,GA,31781,WORTH COUNTY,1,4,4,0,0,8,0,0,FALSE
US,GA,31782,DOUGHERTY COUNTY,1,4,4,0,0,8,0,0,FALSE
US,GA,31783,TURNER COUNTY,1,4,4,0,0,8,0,0,FALSE
US,GA,31784,MITCHELL COUNTY,1,4,3,0,0,7,0,0,FALSE
US,GA,31787,LEE COUNTY,1,4,4,0,0,8,0,0,FALSE
US,GA,31788,COLQUITT CO TSPLOST TR,1,4,3,0,1,8,0,0,FALSE
US,GA,31789,WORTH COUNTY,1,4,4,0,0,8,0,0,FALSE
US,GA,31790,TURNER COUNTY,1,4,4,0,0,8,0,0,FALSE
US,GA,31791,WORTH COUNTY,1,4,4,0,0,8,0,0,FALSE
US,GA,31792,THOMASVILLE,4,4,3,0,0,7,0,0,FALSE
US,GA,31793,TIFT COUNTY,1,4,4,0,0,8,0,0,FALSE
US,GA,31794,TIFTON,1,4,4,0,0,8,0,0,FALSE
US,GA,31795,WORTH COUNTY,1,4,4,0,0,8,0,0,FALSE
US,GA,31796,WORTH COUNTY,1,4,4,0,0,8,0,0,FALSE
US,GA,31798,COFFEE COUNTY,1,4,4,0,0,8,0,0,FALSE
US,GA,31799,THOMASVILLE,2,4,3,0,0,7,0,0,FALSE
US,GA,31801,TALBOT COUNTY,1,4,3,0,1,8,0,0,FALSE
US,GA,31803,BUENA VISTA,2,4,3,0,1,8,0,0,FALSE
US,GA,31804,HARRIS COUNTY,1,4,3,0,1,8,0,0,FALSE
US,GA,31805,CUSSETA,1,4,3,0,1,8,0,0,FALSE
US,GA,31806,SCHLEY COUNTY,1,4,3,0,1,8,0,0,FALSE
US,GA,31807,HARRIS COUNTY,1,4,3,0,1,8,0,0,FALSE
US,GA,31808,HARRIS COUNTY,1,4,3,0,1,8,0,0,FALSE
US,GA,31810,GENEVA,1,4,3,0,1,8,0,0,FALSE
US,GA,31811,HARRIS COUNTY,1,4,3,0,1,8,0,0,FALSE
US,GA,31812,TALBOT COUNTY,1,4,3,0,1,8,0,0,FALSE
US,GA,31815,STEWART COUNTY,1,4,3,0,1,8,0,0,FALSE
US,GA,31816,MANCHESTER,1,4,3,0,0,7,0,0,FALSE
US,GA,31820,MUSCOGEE,1,4,3,0,1,8,0,0,FALSE
US,GA,31821,STEWART COUNTY,1,4,3,0,1,8,0,0,FALSE
US,GA,31822,HARRIS COUNTY,1,4,3,0,1,8,0,0,FALSE
US,GA,31823,HARRIS COUNTY,1,4,3,0,1,8,0,0,FALSE
US,GA,31824,WEBSTER COUNTY,1,4,3,0,1,8,0,0,FALSE
US,GA,31825,RICHLAND,1,4,3,0,1,8,0,0,FALSE
US,GA,31826,TALBOT COUNTY,1,4,3,0,1,8,0,0,FALSE
US,GA,31827,TALBOT COUNTY,1,4,3,0,1,8,0,0,FALSE
US,GA,31829,MUSCOGEE,2,4,3,0,1,8,0,0,FALSE
US,GA,31830,MERIWETHER COUNTY,1,4,3,0,0,7,0,0,FALSE
US,GA,31831,HARRIS COUNTY,1,4,3,0,1,8,0,0,FALSE
US,GA,31832,WEBSTER COUNTY,1,4,3,0,1,8,0,0,FALSE
US,GA,31833,WEST POINT,1,4,3,0,0,7,0,0,FALSE
US,GA,31836,TALBOT COUNTY,1,4,3,0,1,8,0,0,FALSE
US,GA,31901,MUSCOGEE,1,4,3,0,1,8,0,0,FALSE
US,GA,31902,MUSCOGEE,1,4,3,0,1,8,0,0,FALSE
US,GA,31903,MUSCOGEE,1,4,3,0,1,8,0,0,FALSE
US,GA,31904,MUSCOGEE,2,4,3,0,1,8,0,0,FALSE
US,GA,31905,CUSSETA,3,4,3,0,1,8,0,0,FALSE
US,GA,31906,MUSCOGEE,1,4,3,0,1,8,0,0,FALSE
US,GA,31907,MUSCOGEE,1,4,3,0,1,8,0,0,FALSE
US,GA,31908,MUSCOGEE,1,4,3,0,1,8,0,0,FALSE
US,GA,31909,MUSCOGEE,1,4,3,0,1,8,0,0,FALSE
US,GA,31914,MUSCOGEE,1,4,3,0,1,8,0,0,FALSE
US,GA,31917,MUSCOGEE,1,4,3,0,1,8,0,0,FALSE
US,GA,31995,MUSCOGEE,2,4,3,0,1,8,0,0,FALSE
US,GA,31998,MUSCOGEE,1,4,3,0,1,8,0,0,FALSE
US,GA,31999,MUSCOGEE,1,4,3,0,1,8,0,0,FALSE
US,GA,39813,ARLINGTON,1,4,4,0,0,8,0,0,FALSE
US,GA,39815,DECATUR CO TSPLOST TR,1,4,3,0,1,8,0,0,FALSE
US,GA,39817,BAINBRIDGE,3,4,3,0,1,8,0,0,FALSE
US,GA,39818,BAINBRIDGE,1,4,3,0,1,8,0,0,FALSE
US,GA,39819,BAINBRIDGE,2,4,3,0,1,8,0,0,FALSE
US,GA,39823,EARLY COUNTY,1,4,4,0,0,8,0,0,FALSE
US,GA,39824,CLAY COUNTY,1,4,3,0,1,8,0,0,FALSE
US,GA,39825,DECATUR CO TSPLOST TR,1,4,3,0,1,8,0,0,FALSE
US,GA,39826,TERRELL COUNTY,1,4,4,0,0,8,0,0,FALSE
US,GA,39827,GRADY COUNTY,3,4,3,0,0,7,0,0,FALSE
US,GA,39828,CAIRO,3,4,3,0,0,7,0,0,FALSE
US,GA,39829,GRADY COUNTY,1,4,3,0,0,7,0,0,FALSE
US,GA,39832,SEMINOLE COUNTY,1,4,4,0,0,8,0,0,FALSE
US,GA,39834,DECATUR CO TSPLOST TR,1,4,3,0,1,8,0,0,FALSE
US,GA,39836,RANDOLPH COUNTY,1,4,3,0,1,8,0,0,FALSE
US,GA,39837,MILLER COUNTY,1,4,4,0,0,8,0,0,FALSE
US,GA,39840,RANDOLPH COUNTY,1,4,3,0,1,8,0,0,FALSE
US,GA,39841,EARLY COUNTY,1,4,4,0,0,8,0,0,FALSE
US,GA,39842,TERRELL COUNTY,1,4,4,0,0,8,0,0,FALSE
US,GA,39845,SEMINOLE COUNTY,2,4,4,0,0,8,0,0,FALSE
US,GA,39846,EDISON,1,4,4,0,0,8,0,0,FALSE
US,GA,39851,CLAY COUNTY,1,4,3,0,1,8,0,0,FALSE
US,GA,39852,DECATUR CO TSPLOST TR,1,4,3,0,1,8,0,0,FALSE
US,GA,39854,GEORGETOWN,1,4,3,0,1,8,0,0,FALSE
US,GA,39859,SEMINOLE COUNTY,1,4,4,0,0,8,0,0,FALSE
US,GA,39861,EARLY COUNTY,1,4,4,0,0,8,0,0,FALSE
US,GA,39862,CALHOUN COUNTY,1,4,4,0,0,8,0,0,FALSE
US,GA,39866,MORGAN,1,4,4,0,0,8,0,0,FALSE
US,GA,39867,GEORGETOWN,1,4,3,0,1,8,0,0,FALSE
US,GA,39870,NEWTON,1,4,3,0,0,7,0,0,FALSE
US,GA,39877,TERRELL COUNTY,1,4,4,0,0,8,0,0,FALSE
US,GA,39885,SASSER,1,4,4,0,0,8,0,0,FALSE
US,GA,39886,RANDOLPH COUNTY,1,4,3,0,1,8,0,0,FALSE
US,GA,39897,GRADY COUNTY,1,4,3,0,0,7,0,0,FALSE
US,GA,39901,CHAMBLEE,4,4,3,0,1,8,0,0,FALSE
